HIERARCHY
ROOT Hips
{
  OFFSET -2.246895 0.918821 -4.316255
  CHANNELS 6 Xposition Yposition Zposition Zrotation Yrotation Xrotation
  JOINT LeftUpLeg
  {
    OFFSET 0.001035 0.018578 0.105485
    CHANNELS 3 Zrotation Yrotation Xrotation
    JOINT LeftLeg
    {
      OFFSET 0.435000 -0.000000 0.000000
      CHANNELS 3 Zrotation Yrotation Xrotation
      JOINT LeftFoot
      {
        OFFSET 0.423722 0.000000 0.000000
        CHANNELS 3 Zrotation Yrotation Xrotation
        End Site
        {
          OFFSET 0.100000 -0.000000 0.000000
          }
        }
      }
    }
  JOINT RightUpLeg
  {
    OFFSET 0.001035 0.018578 -0.105485
    CHANNELS 3 Zrotation Yrotation Xrotation
    JOINT RightLeg
    {
      OFFSET 0.435000 -0.000000 0.000000
      CHANNELS 3 Zrotation Yrotation Xrotation
      JOINT RightFoot
      {
        OFFSET 0.423723 0.000000 0.000000
        CHANNELS 3 Zrotation Yrotation Xrotation
        End Site
        {
          OFFSET 0.100000 -0.000000 0.000000
          }
        }
      }
    }
  JOINT Spine
  {
    OFFSET 0.069020 -0.026037 -0.000000
    CHANNELS 3 Zrotation Yrotation Xrotation
    JOINT Spine1
    {
      OFFSET 0.125881 0.000000 0.000000
      CHANNELS 3 Zrotation Yrotation Xrotation
      JOINT Spine2
      {
        OFFSET 0.123432 -0.000000 -0.000000
        CHANNELS 3 Zrotation Yrotation Xrotation
        JOINT Neck
        {
          OFFSET 0.258329 0.000000 0.000000
          CHANNELS 3 Zrotation Yrotation Xrotation
          JOINT Head
          {
            OFFSET 0.117666 -0.000000 -0.000000
            CHANNELS 3 Zrotation Yrotation Xrotation
            }
          }
        JOINT LeftShoulder
        {
          OFFSET 0.197459 -0.014803 0.060001
          CHANNELS 3 Zrotation Yrotation Xrotation
          JOINT LeftArm
          {
            OFFSET 0.112841 0.000000 -0.000000
            CHANNELS 3 Zrotation Yrotation Xrotation
            JOINT LeftForeArm
            {
              OFFSET 0.330000 -0.000000 0.000000
              CHANNELS 3 Zrotation Yrotation Xrotation
              End Site
              {
                OFFSET 0.100000 0.000000 0.000000
                }
              }
            }
          }
        JOINT RightShoulder
        {
          OFFSET 0.197461 -0.014804 -0.060001
          CHANNELS 3 Zrotation Yrotation Xrotation
          JOINT RightArm
          {
            OFFSET 0.112841 -0.000000 -0.000000
            CHANNELS 3 Zrotation Yrotation Xrotation
            JOINT RightForeArm
            {
              OFFSET 0.330001 0.000000 -0.000000
              CHANNELS 3 Zrotation Yrotation Xrotation
              End Site
              {
                OFFSET 0.100000 0.000000 0.000002
                }
              }
            }
          }
        }
      }
    }
  }
MOTION
Frames: 128
Frame Time: 0.016667
-26.510042 -190.477676 -14.032687 70.558289 -77.541374 17.620100 -154.979660 35.290241 168.849213 -27.905672 41.823826 6.986365 -155.065048 23.210773 71.088875 -146.953796 -10.839503 -127.778580 147.258911 48.061142 88.163605 44.484844 68.752937 87.695290 155.675461 16.721161 165.906097 178.290939 -13.886301 106.397171 162.112167 -43.884300 -90.513298 175.355164 -43.449291 100.473930 -177.550400 -19.243612 -59.841011 -175.756470 -37.198883 -119.383949 0.000000 -0.000000 0.000000 -91.037819 2.463157 33.003822 -55.897621 33.572666 -31.627321 -149.162094 65.192406 -125.157402 130.446762 -21.852953 9.097551 80.519867 -1.399068 -117.553200 52.524422 57.355297 155.745316 166.397614 65.792496 117.305824 -142.843536 -33.851528 109.456352
-27.289454 -187.443039 -16.029325 69.921066 -76.000168 18.401096 -154.188141 32.660675 168.655975 -21.992023 37.582497 9.333543 -153.352875 26.859148 71.552460 -144.634796 -6.462770 -126.979095 150.371780 45.167061 91.042320 26.734797 67.087341 68.392143 155.181564 18.491125 166.386078 179.202042 -11.344459 108.119957 155.712219 -45.134773 -86.268585 173.429520 -42.443016 102.623344 -179.642258 -18.572926 -57.830120 -178.497833 -37.441589 -115.758156 0.000000 -0.000000 0.000000 -91.274719 -0.094660 32.718460 -53.269360 30.196571 -30.022701 -142.696732 67.922081 -119.700935 132.141022 -18.657520 7.521085 80.062294 -1.291059 -117.196594 51.454575 57.382900 155.545624 168.457321 63.739880 120.808838 -142.922943 -34.918293 109.195358
-29.807478 -183.190872 -15.496254 64.582474 -76.416679 21.738520 -156.155182 32.010544 168.174728 -24.947927 33.573372 8.158510 -149.522781 28.355524 76.815788 -146.312759 -5.216243 -123.637749 150.143509 45.438816 91.531837 7.179991 65.611046 49.535290 155.244751 21.127018 169.821472 176.798843 -9.651569 110.941071 150.408112 -45.609428 -79.663338 170.557938 -42.352367 103.509956 178.763214 -19.134850 -58.651714 179.564194 -38.352345 -116.291679 0.000000 -0.000000 0.000000 -92.577446 2.321004 32.548264 -51.007805 31.604734 -24.488972 -144.588440 72.528046 -120.658821 133.737183 -18.329634 2.338863 77.880371 -2.966657 -118.406563 50.611923 55.814816 157.129364 164.504013 62.021000 117.792900 -142.714859 -35.158936 106.117287
-32.307907 -178.420456 -16.921267 49.366776 -75.261818 36.954857 -162.600143 29.156855 159.332504 -19.105167 32.135834 12.251689 -152.776123 29.808294 72.656029 -146.320892 -4.173400 -125.315231 153.609421 46.922817 96.229866 -5.684271 60.787148 34.547802 154.657608 23.607628 170.085892 176.065140 -7.606561 113.523010 146.628540 -48.583336 -77.172058 171.277985 -46.398529 101.783745 178.165756 -22.097387 -60.424786 178.540131 -42.203022 -116.610046 0.000000 -0.000000 0.000000 -93.165466 3.930738 30.824619 -50.977421 34.726425 -23.252676 -146.826096 72.640022 -120.810600 132.668167 -17.886745 2.799644 76.324417 -3.828360 -116.503563 50.749268 57.592243 161.199585 164.730225 60.128487 119.524681 -143.933517 -37.187431 105.638245
-35.057171 -174.986435 -16.648884 33.678360 -75.980675 47.850903 -171.363953 35.379856 151.480194 -21.087664 34.723217 22.284113 -163.955826 28.471558 64.664940 -152.388397 -3.789512 -130.564194 149.115707 47.311253 96.734314 -17.652460 58.184422 26.113417 152.366760 26.237341 172.142548 171.700867 -5.258486 113.593475 137.325790 -48.904507 -66.383972 167.581619 -46.546227 102.690399 174.523026 -23.268995 -61.552204 175.279724 -42.901718 -116.270035 0.000000 -0.000000 0.000000 -96.838356 6.196231 29.080027 -46.563850 32.742626 -16.087706 -148.318115 80.260963 -120.386841 136.984543 -17.875233 -3.090753 71.768669 -6.924955 -117.904800 47.904228 55.447250 165.044128 159.793884 57.205322 117.831390 -143.052948 -40.256783 100.218262
-40.990131 -176.414764 -16.070091 11.573052 -68.604118 58.668251 163.098877 44.847099 165.292755 -36.967697 49.833649 26.498005 162.036072 27.092939 44.087494 -159.887192 -14.271739 -140.538712 137.087799 53.739586 116.236076 -41.297882 55.052361 23.734316 132.313217 31.862020 178.750107 172.771133 -10.304485 121.954956 109.600922 -47.941273 -63.180767 170.874390 -42.558960 87.533775 171.392990 -32.503326 -65.720879 -179.236984 -57.655289 -114.258194 0.000000 -0.000000 0.000000 -81.821953 8.207532 55.286789 -43.692505 37.679817 16.126652 159.241531 80.828613 -131.445786 145.203247 -31.492189 2.105752 65.127510 2.989119 -88.056267 59.578114 54.823227 -160.562225 147.080658 56.862713 124.477600 -134.247772 -38.261959 91.431519
-41.861652 -172.899292 -17.742069 12.899943 -73.500313 57.953228 156.290695 40.208740 152.336441 -23.835789 69.516014 42.837776 154.809174 12.044664 35.178089 -161.070389 -18.807585 -153.302277 141.872818 54.165051 112.109093 -38.214828 54.236538 21.978493 134.354660 27.230810 176.064804 172.383850 -12.542260 121.595963 115.133659 -41.560242 -52.754845 172.696304 -40.697189 89.466576 169.795044 -26.849260 -61.734802 -177.737732 -50.716286 -117.410599 0.000000 -0.000000 0.000000 -85.986992 6.322141 53.005947 -41.938091 33.929325 7.852852 165.052582 85.547676 -135.403824 145.426315 -26.653612 -1.004440 68.373451 -2.273604 -100.606407 49.481754 53.194309 178.849396 154.855942 59.499287 124.665695 -136.712555 -33.883461 96.882393
-43.549496 -168.806549 -20.356941 11.451444 -80.338852 57.105743 154.549149 39.853355 137.760330 -12.064683 69.869110 52.389244 147.601242 12.443177 24.503685 -168.735031 -14.194999 -158.749023 144.124329 56.446468 103.126755 -40.139099 48.267296 11.748803 128.593903 30.094381 168.087280 164.351700 -9.548996 126.754021 115.287544 -44.552158 -30.896290 171.856461 -39.718029 94.216164 164.137283 -21.171906 -53.951550 171.762146 -44.211208 -113.534515 0.000000 -0.000000 0.000000 -95.933372 7.783175 49.229946 -48.232643 30.966986 -11.742842 -96.941147 80.698578 -45.313759 133.869080 -16.974541 2.763191 63.613365 -3.399845 -115.198792 37.222282 46.485912 158.768478 144.376999 61.742397 107.885300 -143.949814 -27.187157 101.938324
-45.939152 -168.179153 -21.135887 6.706398 -84.277138 54.725800 150.172531 43.587944 134.115936 -22.749485 67.322594 46.925102 142.048813 16.216400 24.542034 -177.176605 -11.052735 -157.978363 139.421616 56.203949 99.324837 -47.806763 49.038521 7.314455 124.345276 28.749744 167.366440 156.706787 -8.299348 130.882874 112.809433 -43.921028 -18.978855 167.173965 -36.666672 92.954247 156.671188 -17.076735 -52.326790 163.201721 -39.665176 -113.859680 0.000000 -0.000000 0.000000 -104.751488 10.770270 49.146473 -52.641788 30.879053 -13.941186 -73.709839 78.156677 -18.893576 125.049820 -11.020191 0.192810 56.611530 -5.539853 -122.280930 29.415569 43.287365 154.310974 132.453461 61.227428 98.677681 -150.502747 -22.686142 102.909096
-48.689178 -164.655701 -21.842905 13.980929 -84.875969 46.039230 149.435532 45.304569 134.834015 -18.350182 69.224083 53.651333 139.936081 15.970692 23.889633 -178.342896 -10.381393 -160.244720 140.385681 56.691067 102.117752 -51.566109 44.388924 4.239289 124.749420 33.394646 169.543121 156.052185 -4.113322 134.133362 112.881050 -44.525646 -14.670760 165.035507 -36.304680 93.030884 154.927322 -16.408352 -51.709740 161.913132 -39.220654 -114.362183 0.000000 -0.000000 0.000000 -107.488594 10.074761 45.830929 -55.006130 31.747868 -18.035578 -81.258034 80.377281 -27.225080 123.544189 -13.716446 2.698287 54.728142 -8.038403 -124.330971 23.814075 42.305775 148.863510 134.742188 62.476418 100.545013 -151.731506 -23.264606 104.809799
-51.838196 -163.299011 -21.056202 30.878790 -85.148888 20.460442 144.513519 48.526741 136.485489 -34.719479 63.376587 43.609203 133.878540 21.884705 27.871321 172.186203 -7.079160 -155.818466 130.611115 57.208500 97.957550 -55.940819 44.831879 7.466894 115.138756 31.822388 166.424210 148.083313 -2.017680 132.018326 109.078506 -42.559219 -6.487391 157.919296 -35.089600 91.777054 145.261688 -13.313863 -51.758595 151.535492 -36.771847 -114.351517 0.000000 -0.000000 0.000000 -116.927116 15.282453 43.465889 -64.944023 34.991196 -20.406298 -89.242050 78.303596 -28.288307 111.873436 -10.534323 2.916233 47.703362 -6.822727 -126.192238 14.901407 43.709709 148.286438 125.887016 64.843605 100.164932 -162.016373 -21.562580 105.621658
-55.379810 -160.122726 -22.135242 -1.468312 -85.194336 45.458549 141.793747 48.557053 139.240372 -46.761559 53.199615 36.135815 127.805679 29.103699 29.538441 162.546875 -1.559507 -150.563385 121.567917 51.996929 93.644630 -58.958672 43.633564 10.054791 105.852745 30.585560 161.688354 139.329956 0.073963 129.324493 104.749222 -44.597103 -1.256214 152.190857 -35.173954 87.618408 136.561630 -12.919686 -54.890045 143.201035 -34.926075 -117.358429 0.000000 -0.000000 0.000000 -126.660904 16.668392 37.942020 -74.944176 35.063511 -26.633629 -109.348953 77.843323 -43.813766 102.543846 -11.461754 4.890165 38.683971 -9.748360 -126.384521 5.222660 41.309856 147.529282 113.136543 64.800674 95.917686 -169.719986 -19.477947 103.209389
-55.360493 -157.469040 -21.165567 -4.822973 -83.682297 44.827240 137.356049 48.389091 138.947540 -48.813480 54.763027 37.290485 125.399269 27.048565 32.851955 157.445160 -3.387440 -149.720093 118.348793 49.459679 95.293396 -62.127209 54.505287 11.714877 105.077637 21.276857 163.114014 134.868195 -8.587794 126.211075 104.681137 -42.474812 0.894095 147.887665 -36.567402 87.212112 131.435074 -11.341757 -55.335819 138.634415 -35.079369 -118.597137 0.000000 -0.000000 0.000000 -137.063919 17.483889 32.003044 -86.371445 37.999123 -33.386692 -145.779907 77.737740 -75.496628 92.352257 -14.083980 10.633105 35.176720 -7.556512 -124.380478 -1.261996 43.812660 145.686874 110.170372 68.678322 98.417038 -176.787277 -19.096939 105.857323
-56.356991 -155.885788 -21.030500 -12.472275 -84.895813 46.271507 137.328308 53.093910 143.815811 -57.083199 47.476913 33.749859 120.900017 31.648426 35.510838 150.067215 -0.036512 -146.116760 107.069748 43.989807 87.162453 -44.138603 66.099098 37.955757 97.404945 9.989698 158.858109 128.965698 -17.626295 115.799850 100.894150 -41.332142 2.578494 142.833160 -37.324299 82.830208 123.163109 -10.387252 -56.221916 130.903381 -34.467503 -120.181274 0.000000 -0.000000 0.000000 -146.130798 18.958950 29.262924 -96.686653 39.002182 -35.756630 -154.526535 74.696526 -78.882698 81.806091 -13.080504 10.752950 29.370302 -5.200472 -124.158363 -8.420497 46.090866 145.071518 107.537361 69.995834 102.030067 173.999908 -19.054678 107.381310
-56.803131 -150.794312 -21.029552 -9.437660 -85.566101 35.480076 135.014267 59.690781 148.505432 -66.651863 41.182461 31.675137 116.487350 38.546375 41.038868 141.903122 2.960176 -141.014755 100.026001 43.665321 87.073227 -42.012356 72.443939 47.038074 92.294640 7.389081 160.598022 120.340958 -22.028032 114.190636 96.569870 -40.785767 4.217292 135.989883 -40.754173 81.317505 113.786011 -11.800704 -57.813824 120.759956 -38.013817 -121.437378 0.000000 -0.000000 0.000000 -156.893906 17.377115 24.040327 -109.902245 40.756584 -41.596226 -178.728882 71.329544 -94.776718 68.657715 -14.582102 15.694518 20.761391 -0.999273 -120.096710 -18.701118 49.134308 145.483276 95.358597 74.395180 102.690430 160.232605 -19.280693 110.038879
-57.611641 -146.619232 -21.275801 4.410948 -84.124275 14.669641 130.046967 63.105915 152.133209 -72.970490 38.051235 32.709496 111.206543 42.520088 42.701305 135.481155 4.321951 -139.947784 96.103561 43.888897 91.013870 -55.041893 73.755081 40.132969 86.642639 9.607029 162.782257 112.436340 -21.093060 115.442886 88.953110 -40.825497 10.979165 126.865860 -42.273392 82.861183 105.365227 -11.569250 -58.007648 111.004623 -40.707119 -119.800591 0.000000 -0.000000 0.000000 -164.974487 14.457753 23.316137 -119.832680 41.596886 -43.924606 164.961838 68.277473 -104.157829 59.055218 -16.684177 18.342226 13.152788 0.750826 -119.761055 -29.816017 49.383450 141.739029 91.646049 77.296555 107.626984 150.596207 -20.428129 112.802223
-56.870224 -142.703613 -19.862312 17.183695 -84.350174 -3.301413 130.797668 65.612373 157.445618 -78.144676 34.828217 32.726540 106.556587 46.564003 42.792168 131.355087 6.837388 -138.550018 93.562943 44.270939 92.833549 -73.605736 71.806190 23.783642 84.116920 12.537886 165.109451 106.817482 -18.895653 120.155243 84.384651 -38.736805 13.775922 120.428802 -41.575726 84.790215 99.650650 -9.417080 -57.952091 104.860741 -38.959290 -119.232658 0.000000 -0.000000 0.000000 -169.488312 12.316754 22.355154 -122.123512 39.322376 -43.003689 165.236511 70.543938 -100.391632 55.864861 -16.266815 16.151588 7.709793 0.224385 -121.497650 -40.046150 48.743237 136.630692 99.293648 80.264572 121.263519 143.350967 -20.858902 115.976097
-55.062565 -135.397781 -18.654259 19.696243 -84.097282 -12.320154 125.510956 65.864922 158.451218 -85.320541 31.282145 30.923115 102.994774 51.601307 45.947659 125.956627 8.941684 -135.585968 90.084747 48.000290 96.095879 -99.852890 66.151978 1.308450 81.090164 19.253811 170.490067 98.421242 -14.246353 127.052528 80.570633 -38.901165 13.663605 115.396843 -43.653191 85.094810 94.914421 -11.291235 -60.700970 98.864197 -42.226173 -120.816078 0.000000 -0.000000 0.000000 -175.482849 13.105840 20.800768 -128.972672 40.064465 -44.706268 158.519623 68.383644 -100.837975 48.564987 -17.050344 18.369324 -0.835763 -0.821636 -121.895081 -45.685204 47.154278 136.760391 83.713753 80.789474 112.287872 136.650589 -20.344488 116.452538
-53.597519 -128.270752 -17.683981 9.321310 -81.075577 -5.866680 121.151276 60.546116 157.812744 -85.726997 26.165157 30.269264 98.971046 56.275635 43.855247 123.931328 11.792912 -134.049240 88.355949 52.668667 98.067886 -104.483040 59.062374 -1.586253 77.267914 25.848877 170.472412 94.079201 -8.442976 128.366013 75.962593 -40.228725 17.943190 111.225960 -44.484234 87.568947 91.587158 -12.754262 -60.890972 93.317574 -43.334942 -118.276787 0.000000 -0.000000 0.000000 -177.286331 13.766291 20.186676 -128.962830 39.232368 -43.486164 167.590622 69.460983 -89.894791 47.942150 -15.477849 16.189949 -5.388303 -0.831517 -122.718147 -50.697716 45.761177 135.464752 73.021431 80.922272 105.835152 131.917831 -19.970886 117.270554
-53.200825 -123.768204 -16.554152 -9.653663 -78.003098 8.224232 107.663849 50.671230 149.289139 -87.781357 29.072807 30.814747 92.646965 51.127407 40.137531 119.176964 8.719684 -136.698822 87.673622 56.504860 102.992294 -112.776161 58.181671 -5.778968 74.915787 26.285645 172.750427 89.020927 -8.935772 129.498108 70.002754 -42.799767 24.757500 106.643127 -45.730640 88.672005 87.904633 -13.901037 -60.760872 87.798782 -43.881691 -114.980400 0.000000 -0.000000 0.000000 -179.970520 15.225348 21.326786 -127.902809 40.129662 -39.084309 172.997482 73.077858 -82.085587 48.678074 -15.273471 11.591230 -8.524166 -0.394052 -122.378044 -53.714424 45.811188 137.171341 62.573483 80.774460 100.194466 128.350464 -19.351791 116.234192
-52.610439 -117.786995 -15.892710 -21.516907 -76.636597 15.191668 96.166695 40.160549 142.465393 -90.180420 42.355564 33.832092 87.077591 37.682434 36.417244 113.227409 0.585477 -143.470779 84.392128 59.979691 105.014191 -116.399269 58.294724 -3.493262 70.727257 25.570862 172.712509 84.980217 -8.908599 128.622055 66.040283 -43.697906 30.608017 103.618202 -45.193752 87.217827 86.301003 -13.317558 -62.632301 86.228516 -42.005150 -114.739929 0.000000 -0.000000 0.000000 178.614471 19.761492 25.577784 -126.284843 39.078926 -33.671143 -167.152237 71.611160 -61.252338 50.412888 -11.307932 7.574185 -9.629100 -4.293962 -123.985977 -53.426559 43.404144 138.641327 65.009590 78.116219 102.807533 129.623703 -19.387733 114.100922
-52.406963 -113.438957 -13.774734 -25.141727 -77.180252 15.842858 86.814339 31.890823 139.009796 -84.797951 65.710625 47.889664 81.601402 19.239584 33.526585 109.738312 -12.066952 -155.077072 81.002213 62.423073 107.597656 -115.760696 49.227547 2.695393 65.139244 33.732796 170.449921 83.678528 -1.364290 127.652687 59.157806 -43.169209 40.301617 99.264320 -44.556908 87.408134 83.286621 -11.557974 -62.500881 81.741440 -39.321159 -112.201599 0.000000 -0.000000 0.000000 174.511688 20.590029 28.050028 -126.777031 41.973389 -29.665943 -175.491745 77.677567 -66.626884 51.223274 -13.554526 7.794668 -10.372138 -5.188381 -123.093086 -53.345699 42.401501 141.788742 53.762455 78.599617 94.070877 130.613617 -19.148132 113.951820
-53.716274 -104.870285 -16.056528 -37.521946 -78.170380 16.525446 76.009315 22.405819 139.260269 -79.441566 80.265121 63.967808 72.557648 9.647630 35.331551 101.109917 -21.204834 -160.009155 65.446030 64.504837 103.884132 -127.293953 47.169914 2.115797 54.079029 34.238628 168.431274 73.878860 -0.140549 126.808189 48.932919 -44.029320 48.271439 89.779892 -46.711960 86.834297 74.006027 -12.749050 -60.658699 72.777985 -38.064014 -110.123047 0.000000 -0.000000 0.000000 164.238205 17.445841 25.817570 -134.555481 39.884350 -29.316374 176.107269 79.208694 -68.082436 45.517982 -12.953916 8.766314 -17.875616 -3.588594 -122.917381 -58.957195 46.877213 143.578506 66.270760 72.439934 111.552727 125.598274 -24.685623 112.870682
-52.082504 -99.687263 -15.626435 -31.265659 -77.586967 12.222151 75.881325 19.438107 139.894119 1.170505 84.084808 145.839813 73.369431 2.940846 35.432331 103.426765 -25.998991 -164.965271 67.424599 67.030640 106.127274 -122.936852 40.238384 6.679935 50.841003 40.196190 164.469559 76.131439 5.237568 125.126816 46.189556 -45.642834 52.328949 92.466225 -46.711304 85.706635 75.869865 -14.261375 -60.786446 73.629143 -36.991802 -108.875298 0.000000 -0.000000 0.000000 166.721313 22.080933 28.068264 -136.435959 43.687214 -29.728140 168.386154 76.156876 -74.464973 45.978783 -10.878501 12.173355 -16.578070 -2.671935 -122.276642 -53.795666 46.949474 147.377045 57.550014 71.019936 100.596519 129.498383 -23.193674 109.881454
-51.509686 -93.236534 -16.881506 -26.913589 -82.023018 3.434217 72.249878 25.322950 138.564713 -8.450912 85.068985 142.558517 68.000725 4.581939 35.166805 98.284485 -26.163349 -164.972748 55.906239 70.400780 96.732162 -125.203514 36.111115 9.268973 43.802395 45.692112 160.941666 71.265717 10.432603 125.505180 44.806118 -45.581532 49.270840 87.281364 -47.148037 86.355392 71.866524 -15.501474 -61.563202 70.083618 -39.269966 -110.448952 0.000000 -0.000000 0.000000 162.690353 19.540941 25.831493 -139.089951 40.219147 -32.417103 168.020203 76.151199 -74.214035 42.540871 -11.192954 12.177154 -21.312765 -3.263112 -121.918976 -58.445095 47.262203 146.354721 59.042164 71.286018 105.777855 124.218674 -25.098875 110.926598
-50.534149 -88.453819 -16.190201 -0.848288 -82.943787 -25.744658 69.184830 31.466648 137.696915 -35.386997 87.250206 119.050499 66.208252 7.137524 36.570698 95.131302 -26.105270 -162.792343 47.320427 74.665878 90.021828 -126.102325 37.663120 12.352338 41.090038 46.743614 160.216721 69.046661 11.403224 124.165817 46.670433 -43.992321 45.669250 83.386147 -45.214886 87.067711 70.580208 -14.035044 -62.083755 69.171799 -39.279968 -111.423706 0.000000 -0.000000 0.000000 159.884109 17.261129 26.884989 -138.588776 36.823479 -31.961922 170.149933 77.881561 -72.968483 42.120773 -12.557626 10.162914 -22.787334 -5.004920 -122.891663 -61.589153 45.912121 144.013504 66.901566 69.847588 113.421341 123.926392 -27.421335 111.270729
-49.604004 -82.158096 -14.524590 3.411621 -83.608185 -32.229435 66.139725 33.897182 134.956985 -81.863953 82.764427 75.210930 62.676788 11.669262 34.050606 92.955193 -21.638182 -162.690872 33.294128 77.936996 77.352600 -126.500053 37.110012 13.988628 37.223572 50.141869 159.162064 66.768890 13.584422 123.646942 48.055698 -44.659966 42.379925 81.993362 -45.368324 86.677811 69.850464 -15.605386 -63.667767 67.589348 -41.561974 -112.494225 0.000000 -0.000000 0.000000 157.876251 17.954521 26.403198 -139.423080 37.291233 -31.611004 166.261292 78.558258 -75.396935 40.216919 -14.114882 9.768663 -25.768034 -5.674007 -122.816231 -61.959194 45.924530 144.938934 65.466713 68.379509 113.326172 122.084908 -28.422379 111.070160
-46.877972 -75.382126 -10.484758 13.913391 -83.483231 -40.510384 66.887627 38.916206 132.687714 -83.810173 74.994507 72.713585 61.310005 16.113405 29.327829 94.435570 -15.786113 -163.956192 29.350439 78.569458 70.858643 -122.552856 35.520927 15.738241 35.781006 53.482777 156.182968 68.007187 16.322901 122.967575 51.668762 -43.713070 38.757317 83.224159 -44.114174 87.379959 70.843491 -14.532288 -65.438255 67.275925 -42.235378 -113.404419 0.000000 -0.000000 0.000000 157.878677 19.361658 25.825111 -139.322556 38.817238 -31.813967 165.122818 79.725822 -76.710289 39.273296 -15.575149 10.056196 -26.605495 -6.388911 -123.023651 -63.925873 43.391850 143.355042 55.282513 74.031151 105.696617 118.683472 -25.008905 114.655228
-46.203674 -68.484283 -6.645075 24.459503 -84.273918 -50.490074 64.410881 45.632549 131.653244 -94.611221 69.714539 63.025337 61.361675 20.910982 29.533175 94.069733 -12.370187 -162.211044 35.939014 75.384796 76.589638 -120.638901 29.656534 20.577475 25.238188 56.976467 146.563126 67.693649 20.539471 118.410576 47.428516 -46.596722 40.343418 84.684143 -45.260319 85.217720 70.197365 -18.208509 -66.644722 65.972923 -45.531570 -114.325890 0.000000 -0.000000 0.000000 158.571442 21.365835 26.145288 -144.926315 42.967098 -34.778637 145.982620 74.429665 -92.411552 34.665798 -16.058586 13.881572 -29.433475 -2.924266 -120.964180 -63.434589 44.488525 146.568039 40.136990 74.278442 91.924805 116.086441 -23.424919 113.571609
-42.987022 -62.349136 -3.462745 43.011906 -86.791908 -63.504539 69.334908 51.952225 131.835281 -87.729713 66.934410 65.683189 65.861572 21.658300 28.295637 97.962517 -10.550333 -162.907776 56.049015 63.910141 90.723656 -117.715416 26.015762 18.454718 27.304403 57.670567 143.925171 71.767151 22.149784 118.667747 49.389763 -49.736145 38.480206 90.576096 -46.348351 82.042801 72.796486 -19.073763 -69.350166 70.028313 -46.503025 -118.425644 0.000000 -0.000000 0.000000 160.331390 21.938852 24.628683 -150.648590 45.888718 -42.580017 134.190872 68.314751 -105.283585 30.523499 -17.993311 20.375555 -29.674696 -7.519641 -120.283638 -66.993690 39.069111 142.838776 19.154449 77.932930 70.741379 114.941811 -18.521671 115.859352
-42.220257 -56.752892 0.756402 130.284607 -84.243027 -154.927536 65.661873 56.388073 129.505249 -94.926651 65.923775 62.769917 61.670189 22.029486 30.976542 90.673698 -11.147338 -160.850479 51.271927 45.759968 84.411903 -120.325500 30.772421 20.814171 26.230001 45.002998 143.134445 64.206367 14.813123 114.079880 43.947731 -48.413750 43.101948 86.114136 -47.286289 84.590340 63.988804 -14.997294 -64.680817 60.543392 -42.472637 -117.216240 0.000000 -0.000000 0.000000 151.689377 23.009390 18.275879 -159.975250 43.554928 -46.742805 139.540909 70.311882 -95.380035 23.630842 -13.472405 17.319475 -32.350552 1.212841 -123.094574 -70.951569 47.692734 140.746323 7.582566 77.052536 63.701527 105.948814 -16.640688 116.044708
-39.406601 -55.118080 2.846855 169.748871 -80.410378 168.429352 70.088989 59.209545 129.923111 -96.155052 61.614769 59.885864 63.901367 22.098425 30.702040 90.806725 -8.376942 -160.334824 54.895084 30.328869 85.015038 -115.319847 42.339046 22.253395 38.318527 33.716190 151.606079 66.646637 6.032870 113.699730 49.500065 -49.328873 37.689053 92.252846 -47.372471 75.246719 64.217384 -15.190257 -68.690781 66.547104 -39.622772 -125.392525 0.000000 -0.000000 0.000000 149.553329 21.990768 16.398914 -165.361908 49.306572 -50.579346 105.162827 69.501579 -128.041290 19.042175 -22.097124 19.396343 -32.249672 -5.197685 -120.847084 -73.722343 44.724457 140.751343 -3.097598 79.683395 56.222404 104.095444 -13.858633 115.803307
-36.860180 -48.954494 2.991158 171.259857 -74.755112 162.447906 63.421482 64.233704 126.815033 -109.981323 58.476448 50.961140 62.023712 24.192482 34.757027 85.559822 -8.265326 -156.673004 48.804081 16.235554 80.176674 -101.747169 57.495815 44.267036 35.199135 18.874146 151.785934 63.576576 -5.859730 103.981155 45.054142 -54.169613 38.861317 93.169823 -50.788368 66.938126 58.296185 -20.179367 -68.766113 62.754734 -41.804676 -128.474869 0.000000 -0.000000 0.000000 144.604996 23.585432 13.591623 -177.805740 51.224018 -55.217804 101.105507 64.772781 -125.198448 10.106535 -21.731670 20.955906 -36.675003 0.980525 -119.088379 -73.732101 50.976467 145.883560 3.104532 76.029602 66.311111 98.929100 -13.972833 112.207245
-33.405506 -46.023312 1.054497 -166.870880 -71.657951 145.439941 73.348907 68.003845 130.268616 -102.858749 53.451923 54.804886 64.558693 25.580513 31.283398 88.463364 -3.653113 -158.502304 53.461254 3.113817 82.841888 -57.659500 73.397156 82.454224 44.873512 6.247371 158.572891 69.064964 -20.207315 102.921936 48.882458 -57.725193 37.342300 101.878632 -53.663456 58.544197 59.462166 -22.891050 -71.567009 66.328400 -42.551743 -131.938431 0.000000 -0.000000 0.000000 143.000046 25.328259 11.264566 172.260193 59.727463 -62.153778 78.333267 61.339546 -144.798248 5.264971 -30.292603 24.405588 -36.625217 -3.501626 -117.244804 -74.596260 48.765186 145.275803 -14.919862 75.835999 50.695889 97.040665 -8.255021 112.006401
-32.533508 -42.349186 -0.153414 -161.237274 -70.297195 137.029160 73.383720 69.121086 131.118835 -106.596680 52.215988 52.818886 62.934742 25.938206 31.571024 86.658783 -3.662789 -157.696518 50.895992 3.506800 84.322830 -4.530447 75.261368 138.302261 47.820133 -1.486004 163.649811 69.689301 -30.312565 103.240601 52.024761 -57.463203 33.202236 99.473312 -54.205463 55.783001 57.801365 -22.607208 -72.873535 66.180138 -42.433262 -134.041733 0.000000 -0.000000 0.000000 139.137527 22.545509 11.620629 168.245438 61.135338 -62.718365 65.349350 58.293964 -154.858948 1.099334 -35.388405 25.373190 -38.365524 -5.734639 -117.086464 -79.373116 48.561039 142.592331 -12.935917 78.884491 54.424854 95.113998 -8.935868 113.880165
-29.045418 -38.211594 -1.607828 -156.818726 -71.403549 133.181046 78.698792 71.549828 136.494263 -107.381874 48.816200 50.680920 64.451370 29.342735 31.985485 87.473259 -0.524619 -155.900757 51.475784 4.907252 86.478546 4.330475 77.085075 145.782913 48.580395 -0.846037 165.274277 70.416588 -29.891380 105.285561 52.427288 -58.888840 30.442972 101.003471 -54.682529 54.098213 58.164326 -25.055220 -75.519218 67.209663 -43.839294 -135.400543 0.000000 -0.000000 0.000000 139.304657 21.353285 10.942900 169.306122 64.516678 -61.212212 57.076225 57.373535 -161.359512 1.106193 -38.101177 26.049011 -42.431103 -6.877515 -115.164215 -86.909729 43.469296 140.257111 -61.506420 77.279236 11.242410 90.376556 -3.398041 117.663177
-28.896250 -36.644978 -2.093025 -152.965622 -72.222534 128.290268 80.722481 70.624832 139.159271 -108.209831 47.021965 49.999012 63.606930 29.630451 30.817719 87.075569 -0.069580 -155.159790 50.674561 6.837220 87.332497 14.912502 73.247894 158.322906 49.588852 -3.552916 166.042847 70.980988 -33.458324 104.106079 53.378548 -56.483524 31.623524 96.173248 -51.672596 55.651550 57.939526 -21.420797 -76.506737 66.297165 -41.050049 -135.006012 0.000000 -0.000000 0.000000 136.974701 20.822273 14.289971 168.211243 65.590370 -59.439278 49.234699 52.276367 -168.198135 -2.099004 -43.830971 27.274685 -42.054756 -13.398607 -116.538345 -84.976921 38.670460 141.086548 -41.941151 79.402107 29.277029 94.803459 -6.284070 116.371620
-27.118847 -34.688232 -1.925980 -157.749344 -74.282280 132.939713 87.671944 73.275742 146.285141 -109.293388 45.685349 49.261566 63.919979 31.267591 31.152121 86.503372 1.431226 -154.315811 50.788578 7.058564 87.974289 10.938772 76.729553 153.178482 49.612625 -1.084287 166.543243 69.630775 -30.703876 107.498627 53.711517 -53.106644 31.303366 94.037971 -49.101986 57.438995 57.013241 -18.282684 -77.445366 65.641052 -38.104561 -135.602036 0.000000 -0.000000 0.000000 135.749588 21.333523 15.152809 171.207489 67.739067 -55.189758 40.232758 51.500023 -176.685425 -1.486932 -46.812565 24.807472 -43.530437 -16.338184 -117.686691 -89.720482 34.380211 138.693832 -73.344681 78.327019 0.974834 92.359818 -3.584016 119.292999
-24.043276 -30.521391 -1.465498 -161.463562 -76.656349 139.041336 101.174896 76.417465 158.771362 -110.055290 43.307995 46.840454 67.288376 34.741474 32.502060 88.571869 3.706960 -151.791046 54.146282 6.728918 88.359863 -15.067498 79.223442 124.455627 50.486298 3.630652 166.019394 71.408813 -25.505659 108.439407 50.806675 -52.806648 35.339474 94.137199 -47.305222 59.088718 57.905182 -17.503412 -77.183113 65.919586 -37.002296 -134.027130 0.000000 -0.000000 0.000000 138.412949 24.804811 17.878931 175.371552 70.935860 -50.392467 38.091270 51.921356 -178.985291 1.224321 -48.409836 21.712837 -42.768490 -18.033485 -119.200569 -89.050613 32.930065 137.986786 -67.524864 79.464638 3.502587 94.824142 -4.088243 118.686806
-22.709904 -27.762741 -0.347571 175.887451 -77.226555 156.628998 90.182137 80.757462 153.332047 -115.120819 43.218197 49.873302 60.885509 36.232658 31.315561 82.736954 4.699155 -153.022003 50.712231 5.323410 89.243851 -60.671425 81.589935 83.068970 45.366165 8.508945 167.891785 64.068306 -21.535612 112.682472 44.112034 -49.598267 42.703220 86.676010 -44.344898 62.381790 51.622486 -12.385240 -76.496429 58.976280 -32.595028 -132.620911 0.000000 -0.000000 0.000000 132.184769 29.433628 20.034683 163.884155 72.793793 -52.709660 30.023674 52.590588 179.059128 -3.923170 -48.078259 19.208845 -46.883366 -17.331526 -122.872894 -90.348465 32.843410 138.860733 -57.977421 77.169861 16.734760 92.087440 -3.245281 116.562698
-18.099886 -24.004385 0.518048 169.952927 -79.084839 164.137177 135.299606 83.045311 -163.494125 -116.215752 41.728161 45.225483 64.816910 40.927502 34.481766 85.253998 6.767634 -150.029053 52.583435 9.391549 89.352386 -79.146881 81.641586 61.187866 47.132122 11.611354 168.346298 65.879524 -18.665716 114.927452 45.665264 -48.931126 37.962013 88.155411 -45.199696 63.465065 53.010319 -14.223529 -76.191185 60.844002 -35.217846 -132.848602 0.000000 -0.000000 0.000000 135.233765 26.356047 18.743643 -175.640793 72.702484 -36.289757 22.928034 52.736023 169.204956 2.628802 -50.942776 14.415084 -47.603458 -18.270248 -121.677689 -94.333412 31.279337 136.085068 -83.376503 76.715309 -8.378839 90.069641 -2.675224 120.616730
-15.173993 -23.104654 3.411725 134.773315 -76.675537 -164.306870 -156.903015 85.032608 -91.386169 -121.413361 44.288998 45.538742 61.405186 40.606983 36.760620 78.704254 6.039114 -151.157578 49.623829 13.543486 90.118576 -123.648911 78.018387 19.126499 43.989555 15.977689 168.576569 59.616665 -13.127201 119.903893 44.904606 -41.164532 34.271404 83.273682 -42.183964 66.316780 48.512054 -10.503363 -76.212440 56.497669 -30.823179 -134.273209 0.000000 -0.000000 0.000000 129.710892 24.312988 15.750311 173.686859 68.355835 -45.007763 18.890245 55.559689 167.045090 -1.062602 -46.188351 15.900670 -50.336987 -15.943993 -123.501053 -97.276642 31.951174 137.290070 -91.731140 72.676140 -9.905169 84.569580 -0.000937 122.263474
-13.295353 -17.410986 8.082726 105.736526 -75.247528 -140.487717 -132.504257 80.066917 -60.439224 -124.527451 47.578167 48.332275 56.430428 42.699909 37.098091 73.919556 5.512156 -151.732010 47.681068 17.272858 94.655449 -142.140991 71.387054 4.055748 40.006126 23.083956 171.079849 53.202057 -8.587740 124.440353 36.632305 -36.647789 40.922089 72.498100 -40.766396 74.325050 41.706509 -6.325175 -72.845795 47.283661 -29.342073 -130.379044 0.000000 -0.000000 0.000000 123.950706 21.657412 16.728138 161.185547 61.844063 -51.484203 20.005339 57.634003 173.154251 -10.561567 -42.005836 20.309032 -54.580383 -15.708607 -128.302734 -101.731400 31.714830 134.142044 -83.561134 74.837463 0.478093 81.376938 -2.825365 122.670776
-10.337757 -13.058567 13.506824 85.909218 -75.085457 -123.115173 -140.279373 77.771439 -64.341934 -126.382690 49.597725 48.216728 54.881943 43.252041 38.717293 71.967674 4.799565 -150.511932 46.825207 24.132292 97.815025 -154.683456 71.527550 -6.418499 40.184002 24.077398 173.668869 50.448513 -9.750226 126.508820 31.858206 -33.611526 44.791374 66.686310 -39.509293 79.376617 38.532688 -4.310347 -70.497841 42.140705 -28.292269 -127.418571 0.000000 -0.000000 0.000000 120.061996 20.133957 17.987822 153.086411 60.313011 -55.057316 18.071999 57.286739 174.995850 -15.412107 -41.126644 22.391142 -56.409256 -13.211865 -129.894592 -104.346161 32.602097 133.032028 -86.865570 75.488251 -0.268483 79.082832 -3.182413 124.478531
-8.946238 -9.703533 18.255335 71.780769 -71.436768 -116.298164 -143.188492 79.425308 -61.249287 -131.359268 48.716938 47.914097 46.704319 45.064148 37.281288 65.681068 5.209319 -149.356094 41.407612 29.883665 98.103920 -161.506348 67.961426 -7.054174 33.973484 25.783600 171.476990 43.384804 -7.741351 126.026306 26.453938 -28.614384 48.548195 57.274269 -36.877739 84.012398 32.221008 0.601167 -68.763275 34.489815 -25.106430 -125.580009 0.000000 -0.000000 0.000000 114.881638 16.411768 19.405081 152.166092 52.792046 -51.530109 13.531149 61.554348 173.268448 -18.450239 -36.803650 19.348907 -58.775143 -11.573129 -133.414795 -107.262741 33.365444 132.597260 -85.504578 76.721504 6.044018 75.202057 -5.270597 124.608429
-6.699393 -7.384063 20.440632 62.741161 -73.655235 -108.264572 -179.466385 84.393913 -96.232964 -130.124466 44.616486 46.503185 45.256916 46.711021 35.904167 66.717445 6.721637 -146.988358 42.097282 32.554768 101.188866 -168.974991 67.141953 -14.160904 35.521706 23.661863 173.382034 43.127953 -10.306451 127.153519 23.740059 -27.263885 53.518887 53.659832 -36.357437 89.063629 31.525417 3.171360 -64.869194 32.596836 -23.363714 -122.521629 0.000000 -0.000000 0.000000 114.047798 10.873720 20.618048 145.684433 44.669380 -59.004761 34.277054 62.916157 -165.285324 -22.670986 -30.392515 25.268511 -58.557426 -6.182638 -135.526443 -109.504005 36.726215 129.003204 -90.446548 80.706398 1.942145 73.806602 -7.025575 127.044937
-4.639127 -3.744473 23.771326 50.078259 -74.238907 -97.722252 97.225182 82.999077 -177.444214 -129.880737 40.241154 45.170895 43.489601 48.331993 34.251427 68.168022 8.261192 -145.182953 39.988663 37.068336 100.120598 -161.589569 64.283142 -4.162772 31.421244 24.984980 169.723953 43.356823 -8.386007 122.981026 21.513058 -26.762388 58.160618 51.406555 -34.996128 93.141106 31.749826 5.896789 -62.496861 30.873535 -21.517313 -119.023987 0.000000 -0.000000 0.000000 114.960503 10.721766 22.423914 150.792664 40.913879 -54.954090 48.331596 68.789314 -153.075912 -18.882174 -25.607548 21.569557 -58.623207 -3.514739 -138.341019 -109.366219 37.641277 127.078156 -70.841141 82.845222 19.302042 75.514183 -9.251686 127.000580
-2.418713 0.258872 26.724497 32.749748 -75.303871 -81.950485 68.953087 73.346413 157.794525 -129.163254 40.481697 42.925884 44.317635 44.162106 36.114887 69.766289 5.466064 -143.784164 39.311905 40.104519 102.192673 -159.535675 65.364563 0.820854 29.664341 22.289270 167.149826 44.913155 -11.032389 118.411087 15.993956 -26.607737 65.356476 47.766632 -34.937187 98.274048 31.085119 7.148362 -58.432999 28.816511 -18.609015 -114.296860 0.000000 -0.000000 0.000000 115.861305 9.370049 24.014336 146.813217 37.417042 -58.722935 76.186226 67.299217 -123.579094 -19.531584 -17.723450 23.933825 -58.669060 4.518778 -140.431747 -111.342041 44.495979 123.457390 -44.291481 86.189110 44.040314 74.808014 -11.942811 128.718216
0.107248 5.371119 27.074133 12.351688 -77.671379 -65.866150 62.680088 61.282055 155.451462 -135.770065 37.769070 34.513802 46.986240 44.169350 42.577236 68.947411 3.727994 -138.421402 34.810184 42.590702 101.102486 -163.138168 59.871452 1.563504 25.450157 23.631783 166.591812 41.905163 -8.803135 118.039497 10.535485 -28.776646 70.225586 44.380775 -37.472050 101.194817 29.684067 5.020669 -55.809025 26.243359 -19.417988 -111.035042 0.000000 -0.000000 0.000000 117.235786 8.155510 23.164593 151.572327 34.661930 -55.907864 95.261002 67.560509 -103.873215 -16.858181 -12.899815 21.079355 -62.457790 8.133113 -140.547455 -114.514282 47.697273 122.715439 -5.029589 85.777382 84.483093 72.607140 -14.509980 127.590462
0.732085 6.598741 28.103907 1.577393 -77.634560 -57.104916 59.342911 50.633125 156.860214 -149.830597 49.024597 19.666248 53.870235 31.506948 54.277802 67.030884 -7.878198 -134.579697 31.210529 43.163342 100.047058 -165.330872 61.919567 4.136511 26.023159 19.992001 167.039001 43.491402 -12.223764 115.701820 9.828976 -28.770269 74.671989 43.546425 -36.628155 102.018227 32.184998 7.014891 -54.343349 28.250910 -15.001654 -109.104485 0.000000 -0.000000 0.000000 119.009979 11.714351 26.360691 154.435410 35.260597 -53.561977 112.119591 66.219467 -88.531021 -12.457473 -8.145488 18.738699 -59.811844 10.900889 -142.045609 -113.122429 52.173645 120.161690 43.755116 82.421509 127.003532 78.258827 -18.830902 127.040428
2.829257 11.014798 28.053642 -8.223454 -76.834969 -48.066303 57.301758 43.197853 155.847244 -158.736679 59.039124 10.974246 53.093651 22.985710 54.885410 64.997177 -14.572972 -136.218201 31.208391 46.767803 100.218544 -164.643814 61.814968 5.833790 24.695761 18.454325 165.326569 42.357578 -12.708301 115.060684 7.099514 -29.428513 77.795044 41.860657 -39.692791 105.510117 31.938005 5.188337 -52.538040 26.817190 -16.425728 -106.775787 0.000000 -0.000000 0.000000 121.623428 11.127704 24.802963 161.801971 31.611860 -49.962421 134.866531 64.421692 -68.568474 -7.590294 -1.349844 15.911574 -59.306957 14.073685 -140.398727 -111.052071 53.637478 122.541191 14.462399 83.081230 99.194748 76.479858 -17.547686 125.925781
4.361188 13.032547 27.803066 -3.871236 -75.572670 -50.585987 59.154549 40.105377 158.086685 175.863892 70.200134 -13.269304 54.381699 12.106647 56.119373 64.844383 -23.950226 -138.816544 31.823563 47.106785 100.207481 -161.002808 59.818634 9.209739 25.499367 19.844561 164.425339 44.555046 -10.613710 115.078499 6.778229 -29.052675 79.800430 42.802204 -39.176727 105.937080 33.458580 7.434838 -52.864632 29.932318 -13.569863 -106.182747 0.000000 -0.000000 0.000000 124.635597 12.728181 27.270374 167.406723 30.312159 -46.069103 148.748169 63.822792 -58.069851 -2.716318 2.977803 14.305640 -58.108681 13.079332 -140.504593 -114.579506 47.629059 120.190773 -97.721283 85.233673 -11.031069 75.495628 -11.423251 129.949234
4.298361 15.619195 26.505644 5.596739 -78.453491 -66.202690 55.135822 40.140163 158.008713 154.127457 71.402634 -26.712275 47.829498 9.763009 55.579525 58.154472 -27.022810 -140.153839 22.050619 46.939777 94.604416 -166.644775 52.706448 10.225346 19.915838 24.386803 164.749222 37.509472 -5.167621 117.729675 6.172214 -31.440027 77.511093 40.535427 -39.652325 102.055466 30.589098 6.045494 -56.755821 28.341307 -14.591832 -109.978012 0.000000 -0.000000 0.000000 123.173683 15.177007 28.537422 170.621017 28.512363 -40.740505 160.268188 63.847904 -45.547516 -2.908272 4.276402 10.012922 -61.216076 7.015387 -140.062851 -115.795982 44.753826 123.008133 -84.425476 85.597893 5.368795 73.583870 -12.365224 127.918541
5.532651 20.975044 25.182383 2.905247 -79.820457 -68.472961 48.183636 41.138386 154.959229 165.253494 68.466537 -11.523019 43.465099 13.952619 54.993237 54.672207 -22.537697 -139.405594 16.270599 46.972527 92.678970 -170.026123 54.695160 12.383419 13.589227 23.288694 163.546768 33.675659 -6.001362 115.093262 1.583095 -33.288071 79.011871 37.053749 -40.932564 101.906639 26.102814 4.443811 -56.917553 23.631893 -16.122402 -110.303215 0.000000 -0.000000 0.000000 120.287231 14.648191 28.741526 167.567978 25.852365 -40.541420 158.577576 59.294456 -43.070831 -5.861332 7.477661 10.733225 -66.751579 9.356531 -139.557465 -116.060104 44.622158 128.217850 -80.989578 79.770859 14.481585 69.599892 -10.005865 125.271271
4.228703 23.537237 25.988981 5.687891 -77.852432 -70.858162 47.100567 41.828892 154.217194 172.502121 69.576157 -4.163852 42.475960 14.238134 52.651417 55.911236 -21.204943 -141.558609 14.776284 46.567764 90.321396 -162.939240 53.802361 20.867514 10.660247 24.232372 158.944992 34.910656 -4.313561 110.828041 2.388749 -31.599600 80.281731 37.926144 -37.841217 101.176933 26.362293 7.700255 -57.775696 24.018698 -12.454498 -110.347626 0.000000 -0.000000 0.000000 119.463722 16.820257 31.525499 165.434998 27.788195 -39.906807 155.567795 61.583534 -45.279228 -6.188399 6.224429 11.105870 -65.410156 7.612200 -140.405853 -112.000748 42.436192 131.085571 -73.691200 77.745300 20.684034 72.750145 -9.541213 123.736435
3.527835 27.802191 24.784550 3.908070 -77.717850 -74.526482 42.715790 42.066463 152.589279 -177.967926 66.442009 10.096963 35.142540 18.012623 48.749313 50.742596 -16.798845 -142.924026 7.703779 45.740360 87.698250 -168.928467 53.941132 19.366978 4.489787 24.098356 158.385208 27.144409 -3.782103 112.263420 0.461275 -29.723454 79.252159 32.384190 -36.041805 101.208969 20.518526 9.292815 -59.710880 18.865147 -11.927071 -112.086166 0.000000 -0.000000 0.000000 113.735054 16.310507 30.460978 162.761322 26.601009 -35.878109 161.134705 64.848099 -35.149658 -11.221100 4.705499 6.732811 -70.344353 4.230744 -141.405029 -117.914833 39.748260 130.813705 -88.196693 76.156380 14.193843 65.346466 -7.826883 124.580559
2.859543 31.651358 24.054045 11.723892 -78.902840 -85.042915 38.761395 42.690247 150.630264 -178.765411 65.605843 12.827700 32.162514 17.975319 48.005100 47.583698 -16.207705 -143.775375 2.316864 43.243736 84.493179 -169.933228 54.112778 22.815575 1.030233 23.721233 156.924789 24.329010 -3.485730 110.809258 1.453406 -30.033899 77.896843 32.415920 -35.081867 98.139572 18.811571 9.962440 -62.146534 17.675880 -11.304496 -114.929535 0.000000 -0.000000 0.000000 110.715668 18.514162 30.896017 157.849197 27.904032 -37.220833 154.001556 66.240433 -39.999012 -14.009356 4.269953 7.635349 -72.144226 3.722483 -141.455124 -117.075424 39.197941 133.724014 -86.558022 73.925102 17.855574 64.535553 -6.479039 122.691864
0.211763 34.712860 25.297705 8.886017 -75.066391 -82.128334 38.127846 44.290688 150.148041 -169.844315 68.318756 22.434322 28.705244 16.568438 43.181843 48.193542 -15.748188 -147.595871 1.201190 44.252251 84.047127 -164.369400 58.287769 28.103500 0.420272 22.274027 154.698898 25.039476 -5.146616 108.636826 2.897571 -25.393162 78.032303 29.549353 -29.891376 98.881493 17.023367 15.224760 -63.426994 17.317965 -6.413126 -115.160187 0.000000 -0.000000 0.000000 105.889946 16.811571 34.212055 155.144440 29.026867 -34.440464 154.900055 74.860329 -37.057194 -17.053991 -1.449996 6.174851 -70.390381 -1.284251 -143.965012 -122.070427 33.767521 129.020615 -108.789940 74.869087 -1.891051 63.370018 -6.022919 127.562912
1.464933 39.484974 24.219847 13.837598 -78.983833 -91.240921 31.085545 44.823689 146.309998 -169.920929 60.336655 26.786234 25.436699 21.412058 42.964447 45.460655 -10.912651 -145.399460 -5.915452 42.341682 80.242287 -166.969193 56.290039 31.175388 -5.574695 23.707539 153.240311 21.661343 -3.196473 106.818886 -0.453996 -29.398104 77.149345 29.861454 -32.717979 93.386818 13.657653 10.206957 -66.018288 15.543861 -9.601861 -117.438301 0.000000 -0.000000 0.000000 103.213219 21.588642 34.188728 150.473648 38.323753 -33.644173 137.338715 79.559616 -48.203644 -20.206762 -5.600013 5.720224 -76.249245 -0.257225 -141.707092 -123.501366 37.048950 133.394943 -105.066414 73.876724 3.699025 60.365200 -5.823503 124.638329
-1.009039 45.143467 26.581287 6.236190 -75.659180 -88.760368 25.591930 47.599762 145.362518 -167.394485 60.538692 35.065422 16.381037 22.282600 37.708561 39.820908 -8.876573 -149.553986 -10.363172 44.464977 81.861740 -168.741241 62.426208 32.900356 -10.234315 20.593851 153.588425 14.493325 -6.825164 106.778091 -4.713818 -25.874506 79.165627 20.614519 -30.232794 97.565582 6.416344 13.154573 -65.751724 7.655746 -7.992804 -117.265686 0.000000 -0.000000 0.000000 93.558144 19.566799 33.704319 139.467789 37.324184 -34.769657 124.802582 83.893654 -53.339382 -29.519350 -8.113414 4.756418 -80.502106 -2.273989 -144.969284 -130.032959 36.578465 129.556396 -106.376389 77.234535 8.388043 54.060513 -8.316395 126.421173
-1.392519 48.998001 28.159941 4.155344 -75.481155 -88.029427 22.465580 49.321323 143.956345 -165.519669 59.434471 38.896851 13.401326 23.755251 35.442253 38.962158 -7.435641 -150.782715 -10.907923 44.807743 83.414574 -170.060532 60.112514 32.366993 -13.124617 22.474009 152.415115 12.612534 -5.389179 106.457054 -8.215623 -26.282530 81.025749 18.072924 -30.291149 98.442657 3.792105 13.288046 -65.049026 4.894965 -7.914321 -116.688675 0.000000 -0.000000 0.000000 90.421730 20.370012 33.992348 132.775696 41.146244 -37.156776 80.148491 84.431023 -93.427048 -33.917667 -10.134658 6.013109 -83.670464 -0.777337 -145.911987 -134.046448 38.458107 127.179749 -114.883568 78.748627 0.940639 51.029537 -8.732208 128.020096
-1.365647 52.922016 28.197786 1.282059 -78.061844 -88.419312 14.987300 48.402138 139.577576 -165.866837 56.970940 42.687981 8.794404 25.500565 33.010456 35.328964 -5.754041 -151.470993 -11.011872 44.576538 88.524979 175.755646 57.771332 19.046793 -14.061260 24.933010 156.734680 7.892756 -4.788865 111.373131 -10.965016 -27.774094 80.600632 14.759087 -30.837553 96.610992 0.832251 12.145676 -66.193977 2.707702 -8.488583 -119.295921 0.000000 -0.000000 0.000000 84.712883 18.536573 33.939026 122.107895 41.229523 -43.403225 37.709118 78.575974 -130.797256 -41.920998 -13.815328 10.994727 -87.862846 -3.058941 -144.843872 -139.531525 35.079929 126.715340 -127.097107 76.582962 -5.593351 46.998554 -7.109161 127.943390
-1.543362 55.940552 28.568029 -0.641182 -76.752594 -90.682838 8.991682 50.702423 137.511475 -169.886337 56.499596 42.695778 4.491191 26.640867 33.028660 31.252396 -4.605424 -151.079834 -12.752079 46.589802 91.230057 168.674713 58.747231 15.025346 -16.417011 23.889328 158.195877 4.002769 -6.772190 112.621223 -16.363836 -26.682880 82.705780 9.455792 -30.791172 98.580612 -4.062861 11.581107 -64.952797 -1.499965 -8.812005 -118.833900 0.000000 -0.000000 0.000000 80.194160 17.362320 33.497253 117.930565 41.413265 -43.411144 26.478521 78.857277 -136.496231 -46.312408 -14.234069 9.831751 -92.423759 0.427031 -145.903793 -144.681931 39.527229 124.725243 -131.933258 79.298897 -7.415569 41.257034 -9.136780 128.999680
0.091942 59.590370 27.110014 -5.268806 -77.885239 -91.671799 0.727248 51.434818 134.112534 -173.973328 54.131069 43.937454 -2.530445 28.877794 31.075254 25.665668 -2.090637 -151.087265 -18.333447 46.707088 90.840462 166.176010 60.091785 17.952656 -23.946331 22.665625 156.336746 -1.855723 -7.891208 110.604851 -23.710175 -28.584105 85.566002 2.977289 -33.346935 100.676910 -10.868464 8.604947 -62.867508 -8.628779 -12.288157 -117.191483 0.000000 -0.000000 0.000000 73.861023 14.897720 30.837267 108.703827 39.022331 -48.613106 34.586895 75.428444 -120.959671 -53.860527 -12.263661 12.766582 -100.123405 5.060431 -146.567398 -149.428238 45.251976 124.025803 -111.310860 82.114990 16.950621 34.501545 -11.886092 127.807251
0.751355 60.473492 28.032112 -9.887572 -76.688927 -87.778862 0.036436 52.334133 134.351700 -173.635864 54.994484 45.127232 -4.587323 27.956503 30.292337 24.057976 -2.418467 -152.601822 -18.853058 46.453873 91.849205 164.922684 63.307537 17.427387 -24.631712 20.883474 156.884949 -3.178993 -9.917865 110.326683 -25.701555 -27.389664 86.751060 -0.223090 -31.789568 102.094414 -13.082010 10.908506 -61.800385 -10.690828 -10.071386 -116.769669 0.000000 -0.000000 0.000000 69.821625 13.200225 31.086452 101.803436 38.989174 -51.622829 14.414809 72.026894 -137.799896 -58.882271 -15.288595 14.817237 -102.073814 4.778316 -147.356812 -154.950027 43.459507 119.997002 -141.929306 82.468445 -10.320764 30.660048 -10.217387 130.832336
2.674518 61.831047 27.170290 -15.311871 -79.193527 -83.874725 -0.834048 52.184429 134.803101 -175.953293 50.587009 43.631935 -6.638390 31.635197 29.482540 23.374638 0.597309 -150.701950 -20.495119 46.237274 91.108406 166.005020 60.591572 19.981569 -28.642376 22.083778 155.086594 -5.279488 -8.196135 109.099533 -30.487072 -30.459024 89.429565 -2.031928 -35.821278 102.340279 -16.304049 6.179513 -60.602657 -14.550933 -14.137827 -114.907814 0.000000 -0.000000 0.000000 68.927727 14.136882 28.815647 100.222260 43.962257 -51.567680 6.595589 72.960258 -141.761124 -60.057049 -16.918087 13.551633 -106.705154 7.595608 -146.304321 -157.139343 48.749813 120.533302 -123.973648 84.974335 8.584341 27.212851 -12.421435 130.237228
4.571405 65.974640 27.831215 -28.279751 -77.440247 -82.080353 -11.101754 55.173176 135.699432 171.028793 49.090435 40.874264 -16.893799 33.523964 31.176620 11.881378 1.368164 -150.056778 -30.531202 48.050911 93.121445 154.030090 62.244259 18.740850 -38.623341 20.891794 156.683762 -17.043585 -10.599270 108.954819 -41.490479 -29.603947 94.693863 -14.386149 -35.435875 104.570168 -27.718832 6.038698 -60.543945 -26.275602 -13.744294 -114.581619 0.000000 -0.000000 0.000000 58.750298 14.974961 28.940010 91.651619 43.044132 -49.992958 7.689175 76.352783 -130.359222 -69.402626 -13.283384 10.947247 -117.596886 9.359623 -147.600235 -166.082153 51.179909 119.786095 -98.780449 85.437477 42.975296 15.815125 -12.703078 129.298676
3.337151 66.639923 27.822477 -37.390110 -76.846756 -70.859474 -1.585424 52.194775 143.469986 170.527756 47.274097 35.825546 -13.641787 34.632687 32.971333 14.031191 1.596398 -148.250534 -31.010746 46.948700 90.338531 160.553528 61.731167 24.404436 -38.372139 20.348907 154.819748 -15.612851 -9.898166 107.163536 -41.669952 -28.926975 97.225838 -14.909743 -34.735142 107.704056 -26.526768 8.135553 -58.478497 -26.397583 -11.928318 -112.555290 0.000000 -0.000000 0.000000 59.748062 13.398697 29.191921 91.997978 41.164814 -50.497120 11.882114 76.422821 -126.980919 -68.669807 -12.235393 10.850132 -116.154182 9.429128 -148.245438 -164.269775 50.640091 119.378441 -94.800652 85.350632 46.122108 17.235109 -13.407342 129.317657
4.406049 70.578636 28.707518 -38.620277 -74.332138 -77.421516 -4.142721 55.986099 148.985504 157.237671 46.478024 29.001915 -17.015898 35.292908 39.199547 6.029016 -0.283624 -145.451202 -38.483234 46.301682 91.167480 149.718063 69.641602 21.533518 -41.548035 15.587156 158.432907 -22.357824 -16.456263 108.127739 -46.082916 -25.771265 99.095314 -22.654966 -31.794456 108.515686 -33.528885 10.319499 -59.432831 -32.388729 -8.938799 -113.989700 0.000000 -0.000000 0.000000 51.750553 14.842916 30.719015 86.421494 43.902008 -46.420311 -12.576740 79.428581 -143.756516 -74.351357 -12.966498 5.873384 -121.321480 11.243671 -149.208038 -170.724182 53.286659 117.258202 -84.847664 87.252197 61.776958 9.920900 -13.387056 131.130615
5.259045 72.773216 27.099480 -39.683132 -76.173958 -79.781151 -6.793877 58.529209 149.999557 150.784836 43.918083 27.060934 -16.507303 39.090271 43.130249 3.242133 0.774646 -143.182358 -41.646961 43.482872 89.537537 151.720093 68.124451 28.343937 -46.150127 16.121191 156.987686 -24.419285 -15.938875 105.086128 -48.868965 -28.664917 103.863861 -23.964136 -33.753532 106.841270 -36.059551 9.597927 -60.355362 -35.225262 -9.346987 -114.271187 0.000000 -0.000000 0.000000 51.210297 20.713915 31.025581 89.625153 46.609219 -41.467117 -6.930591 83.912209 -137.591751 -72.852409 -11.371353 0.862136 -126.043533 12.860877 -150.256470 -170.684509 55.282780 119.618568 -78.750969 84.073219 67.134987 9.022408 -14.019442 127.753799
7.658798 78.131874 25.512688 -47.796440 -77.766083 -85.520912 -24.082548 63.469997 146.422974 141.441559 38.305275 33.892750 -32.557755 41.587425 40.424431 -9.744700 4.134185 -145.080490 -53.861843 40.313942 93.145485 137.036316 73.044411 27.019039 -56.889263 12.847492 160.926590 -37.640991 -19.747215 106.610138 -58.589123 -29.599226 107.618340 -34.888538 -34.824215 103.148643 -49.404770 4.009825 -63.669548 -46.290985 -13.831865 -116.681381 0.000000 -0.000000 0.000000 40.523457 18.239746 33.506599 84.618324 46.123589 -34.013222 -39.685169 82.573471 -157.829865 -84.586121 -14.971104 -0.706845 -136.794327 10.322906 -146.691422 -178.608231 56.072479 126.316742 -73.912575 81.554405 85.664291 -4.182327 -16.793009 124.502464
9.418048 80.671936 24.805014 -58.307659 -79.685005 -81.671028 -34.127361 65.216873 143.720612 136.637985 35.495380 38.693012 -41.085423 42.367729 39.218269 -16.443777 5.463202 -146.791183 -59.903629 38.771587 95.812599 123.023743 77.381195 19.934929 -62.098125 11.576861 164.665649 -45.378883 -22.045036 108.461952 -63.161888 -32.715130 109.844490 -38.800926 -36.912788 97.820000 -55.081062 0.108061 -67.046387 -50.985573 -16.367832 -119.566849 0.000000 -0.000000 0.000000 33.875710 22.807331 33.749397 81.712128 54.427574 -26.654293 -68.969765 77.514420 -179.217133 -90.281998 -20.768982 -2.673434 -142.853760 7.798622 -142.442688 177.734833 56.174637 132.383926 -83.040810 80.892990 84.324692 -11.194905 -16.509378 122.827950
9.061131 81.372978 25.602064 -52.325520 -80.199554 -85.186142 -33.428734 63.373215 141.256744 136.780212 40.774128 36.152534 -37.085800 38.309174 40.906631 -14.165344 1.748719 -147.059082 -58.467007 39.004116 92.678986 141.235825 78.380608 36.526070 -60.462517 10.682940 161.670685 -40.509640 -23.468252 104.385925 -60.322880 -34.051422 108.930634 -35.328156 -37.146042 96.840202 -51.992908 1.583537 -67.064445 -46.378220 -13.610953 -120.421425 0.000000 -0.000000 0.000000 38.138123 26.347765 34.035320 92.367630 55.862255 -20.486702 -89.966469 77.126198 155.595215 -84.097580 -20.744781 -7.595694 -141.271683 7.266599 -142.864380 178.756393 51.749943 132.084976 -120.276329 79.539108 45.016430 -8.700439 -11.299188 122.288094
8.795041 83.921822 26.030302 -57.004021 -79.358002 -80.432068 -34.657936 63.255119 140.288437 138.886246 43.306992 38.592590 -39.516010 35.905140 38.068432 -15.304267 0.012221 -149.222641 -59.045238 40.399052 93.372223 146.884506 78.580315 41.695660 -61.754372 11.059675 160.675720 -42.047310 -23.262821 103.647697 -61.367741 -34.026417 108.268578 -36.880569 -36.922321 97.654602 -52.874615 2.103049 -66.950882 -47.835770 -13.618586 -120.324394 0.000000 -0.000000 0.000000 36.205803 25.647621 34.035511 83.731606 57.509068 -25.729002 -74.152206 77.138756 173.644592 -88.092957 -19.762814 -4.082150 -141.932892 9.151189 -142.719650 174.948746 51.210800 129.746857 -149.049332 79.914993 19.938881 -12.461950 -6.965278 124.321190
10.788761 88.157295 26.786900 -67.446945 -79.229378 -81.212006 -50.674332 65.746407 135.287170 132.497971 41.263863 45.790329 -53.941467 37.013027 33.577755 -25.812191 2.167027 -152.017456 -67.835182 39.252136 97.018112 119.584770 83.167206 24.823143 -69.481209 9.744452 166.283783 -53.630390 -25.604401 108.854828 -70.351799 -34.036980 113.795677 -48.243645 -36.341614 98.218369 -63.578606 -0.968201 -66.880493 -58.641846 -16.782509 -119.457428 0.000000 -0.000000 0.000000 25.033337 21.640955 33.485691 76.218575 55.794678 -22.103868 -89.300339 72.679764 170.717697 -98.532181 -24.382303 -5.213244 -151.272141 6.829524 -141.174637 167.730072 54.995140 131.845993 -95.994560 82.075310 80.875694 -21.333326 -15.668956 123.354034
11.674574 89.156448 26.250759 -75.349640 -80.267159 -76.984329 -56.705593 65.377975 132.637497 130.737976 41.282333 48.401508 -59.067108 36.516056 31.215004 -29.555307 2.354116 -153.212799 -70.530334 37.750301 98.305481 108.167450 83.936699 16.321178 -72.212990 9.852915 167.538208 -57.563087 -26.212355 110.406204 -74.474319 -35.982868 116.478798 -52.361107 -37.342560 98.098061 -67.544205 -2.358813 -66.651558 -63.015167 -17.912188 -119.065468 0.000000 -0.000000 0.000000 20.661734 21.013155 32.361713 72.405098 55.321545 -22.429651 -93.110855 73.101288 170.844925 -102.528015 -24.313124 -5.046311 -156.117615 6.737954 -141.163879 161.399490 54.561504 130.159470 -99.417358 82.773987 81.770683 -26.600405 -15.290758 123.666039
11.917765 88.610207 24.651934 -81.349472 -82.833008 -70.012543 -56.312134 65.327660 132.105194 130.073273 37.748161 46.919758 -57.716125 39.209553 31.756706 -28.732121 4.714611 -151.586273 -69.512001 36.778744 97.454041 124.143608 83.327789 31.625504 -72.727112 9.476924 165.922363 -56.646858 -25.914888 108.374817 -74.750946 -39.084675 115.855293 -50.307838 -41.036785 95.495422 -67.598877 -5.665410 -66.624763 -62.625706 -20.901953 -119.477547 0.000000 -0.000000 0.000000 21.484186 21.646942 30.230965 71.987480 57.443981 -24.396757 -86.937469 71.944374 176.429932 -102.631294 -24.878027 -2.808545 -158.483612 7.988718 -140.030869 158.890900 54.467426 129.871490 -125.189735 82.888618 57.422234 -28.480871 -12.567254 123.740410
12.784484 89.476097 23.802353 -78.974358 -82.760696 -76.610542 -62.987915 65.405739 129.749985 126.159248 37.113102 47.888954 -62.536842 38.400696 31.655415 -33.136303 4.886968 -152.071167 -73.457878 36.474018 98.678070 90.106346 85.325089 1.165166 -74.426666 8.161615 168.503677 -61.370262 -27.463543 111.439247 -76.038185 -39.255226 115.163223 -53.197578 -40.677162 94.144600 -70.763649 -6.699410 -68.170769 -65.983521 -21.111776 -120.852272 0.000000 -0.000000 0.000000 17.414762 21.683969 30.766588 66.722130 55.655270 -26.712234 -78.414200 75.916473 -172.608688 -106.637299 -20.769884 -1.146206 -161.912704 6.191026 -139.695419 155.003983 53.597958 130.445007 -126.149345 83.332825 60.255013 -32.503448 -12.350823 123.560364
14.565719 89.914970 22.928518 -90.722961 -83.755966 -69.830231 -71.052666 64.067078 126.298393 123.289276 36.442410 51.029095 -69.549248 38.980667 28.522585 -37.875118 6.056303 -153.451096 -76.822113 35.513546 100.255402 76.152771 83.449699 -9.042106 -78.323486 9.163153 170.234634 -66.473785 -27.136362 113.615524 -81.685593 -41.496925 120.088303 -58.543423 -41.801838 94.461266 -75.833557 -8.352026 -67.575569 -71.638550 -22.562918 -119.934654 0.000000 -0.000000 0.000000 12.715497 21.029848 29.451786 65.785255 54.529263 -24.035038 -91.530762 76.909569 178.783844 -110.111847 -21.071875 -3.052392 -168.201660 5.677608 -139.400558 149.989532 54.193851 130.822647 -111.557518 82.204498 78.950584 -37.237713 -14.355454 122.811478
14.005949 89.127098 25.086496 -82.235268 -80.913948 -74.822708 -67.068398 65.701347 127.130859 125.201591 39.423717 47.372448 -63.725544 38.760643 30.118229 -35.501404 3.689130 -152.524261 -72.775406 37.653969 98.341759 112.950066 83.981453 23.274868 -76.290649 10.148596 165.779556 -62.235920 -28.012545 109.221672 -78.985565 -39.538864 121.506126 -56.998962 -38.702003 97.146278 -72.709167 -1.017626 -67.135895 -69.462143 -15.957938 -120.430923 0.000000 -0.000000 0.000000 14.693182 23.623604 31.604532 61.589634 52.275970 -30.493065 -69.625572 79.869942 -163.561615 -109.114677 -15.906898 -1.362857 -165.805878 6.859917 -145.072037 147.082611 47.948036 123.218513 -177.612762 81.812157 9.931556 -36.429005 -6.167868 124.133606
15.629757 88.926765 24.866486 -85.500961 -79.597847 -73.151245 -69.317352 64.743202 126.380074 125.751404 41.369354 50.065327 -66.700470 36.955280 28.015070 -37.307346 3.212987 -154.311691 -73.855988 36.999241 99.416893 113.146835 81.570183 24.293171 -78.043221 11.415482 164.927109 -63.790131 -26.405191 109.156479 -83.250793 -38.563629 124.370193 -60.300529 -37.601990 99.911514 -74.883118 0.553351 -66.429115 -72.938469 -15.606436 -118.350296 0.000000 -0.000000 0.000000 14.285978 21.249060 32.944263 59.478333 47.342388 -31.215588 -31.612120 82.861168 -124.722931 -110.946770 -10.637946 -0.641325 -167.086014 8.388909 -146.244247 145.567932 47.838493 122.916061 177.311920 81.276070 7.258107 -38.657230 -5.563338 123.835167
15.940192 89.528458 24.640045 -81.480888 -79.204025 -77.174210 -69.142456 66.184990 126.598732 124.947945 39.390537 49.608143 -67.057152 37.621719 28.276075 -37.427483 4.428565 -153.673599 -74.303940 36.349354 98.965317 107.615189 81.773689 19.500353 -77.530350 10.377713 165.540558 -64.262184 -26.357084 110.006798 -82.745018 -37.493782 122.831047 -61.151134 -37.370258 100.444893 -75.720650 0.617023 -66.113342 -73.216835 -15.378366 -118.172768 0.000000 -0.000000 0.000000 14.648379 19.486105 33.687996 59.759251 45.864552 -31.214296 -16.898848 82.741150 -109.891327 -110.725441 -8.936620 -0.353238 -167.708023 9.478585 -146.554413 144.302460 48.170151 122.531357 165.040451 79.631950 -3.339393 -40.020309 -3.962844 124.776642
18.196968 87.788635 25.952530 -92.574036 -77.028847 -72.984108 -84.155151 66.640839 118.283020 119.137054 40.251938 52.081654 -74.424568 38.826214 26.912893 -45.314510 5.453640 -154.936539 -76.633743 39.309338 102.434586 83.050209 84.450691 0.050572 -82.822639 9.706881 167.352570 -70.835243 -29.591238 111.248070 -89.061890 -37.787197 132.211700 -68.095535 -36.009850 101.147263 -81.812027 2.675829 -66.602982 -80.915276 -12.897622 -117.303406 0.000000 -0.000000 0.000000 7.131943 22.756804 32.929306 53.708611 47.293938 -29.351479 -33.900581 84.445190 -120.187408 -116.634499 -9.183308 -2.955684 -176.485260 8.470572 -149.504593 137.518524 49.509750 119.644264 179.690628 82.632683 13.036589 -45.036911 -6.334417 123.958977
18.380743 86.347893 24.886324 -81.571335 -77.648521 -83.177505 -83.851402 68.456978 118.180931 116.534615 37.393082 49.167995 -72.163712 40.478413 29.375494 -44.587097 6.864695 -153.017548 -77.092346 37.236099 100.950821 91.489952 79.355652 7.547241 -82.240875 10.754754 166.673111 -71.034065 -26.138264 111.776604 -87.158928 -36.048386 127.477928 -66.525909 -36.521389 100.818687 -81.593758 2.061140 -67.097313 -79.434593 -14.090063 -118.161949 0.000000 -0.000000 0.000000 10.194522 20.510920 34.910912 53.389465 43.278965 -32.550106 11.715477 79.438995 -78.149277 -115.794273 -3.029850 0.177243 -176.275009 10.623509 -148.828491 138.759338 47.772594 122.297356 159.207703 76.449799 -4.021139 -46.467709 -0.282153 123.531868
18.177439 83.748672 26.041431 -80.885895 -75.665932 -82.369362 -79.549080 69.262306 121.403107 118.583748 37.277882 49.173409 -69.757973 41.834118 30.156372 -43.084351 7.224773 -152.995880 -75.781883 38.303444 101.126266 98.953621 76.737312 13.261425 -81.748802 13.096826 165.689438 -69.803047 -23.790035 110.923233 -87.737373 -35.102547 127.970833 -65.717033 -35.143314 101.844261 -79.581360 4.725017 -67.872543 -78.836617 -12.258802 -118.193771 0.000000 -0.000000 0.000000 12.046407 21.269112 36.541553 54.458904 40.992695 -32.640984 30.365725 76.020004 -62.068920 -113.766136 0.649147 0.639899 -174.183517 9.959767 -149.898392 139.255402 45.246437 121.689003 155.991943 75.008499 -8.467756 -45.207615 1.133448 123.129883
19.227610 80.729454 26.610809 -78.553482 -74.274750 -86.504425 -83.129623 71.828369 120.260193 116.713219 35.653999 50.112637 -73.099899 43.631901 28.284443 -44.310509 8.553946 -153.175583 -76.888100 40.218189 102.816551 92.528511 75.349556 8.170272 -82.664864 14.271832 167.613602 -72.125954 -23.034105 113.267632 -89.588570 -33.114235 128.853836 -68.124374 -33.409927 102.272461 -82.171570 4.821172 -67.499222 -80.149185 -11.753404 -118.069519 0.000000 -0.000000 0.000000 9.645754 18.482939 37.495632 56.010784 37.668365 -30.102310 35.035660 78.378616 -55.482742 -115.399025 -0.577308 -1.296135 -176.369873 7.973857 -149.707489 134.209061 40.970150 120.448151 142.427002 73.430717 -17.256216 -48.543995 2.119392 124.682770
19.223902 77.607758 28.168280 -78.306343 -72.778664 -85.750214 -82.363396 74.680344 120.820312 116.551880 35.394913 48.887859 -70.372025 46.308910 29.909403 -43.040783 9.165170 -151.749176 -74.676399 41.158501 102.961388 101.058418 70.896446 15.139389 -83.414413 17.703604 165.605011 -71.091713 -19.696074 111.821381 -90.330444 -32.390888 130.701477 -68.105446 -32.925503 103.514854 -81.591103 6.429235 -67.274979 -80.167419 -11.191537 -117.436905 0.000000 -0.000000 0.000000 11.184544 18.164717 38.314705 55.617489 34.782963 -31.995140 36.372021 74.902245 -55.742607 -114.911156 1.693880 0.314892 -176.335358 8.218001 -151.446243 133.767838 39.356480 119.072327 142.176376 72.798332 -18.649580 -47.984825 2.415197 124.665405
21.953943 71.751587 26.726299 -85.557884 -76.730659 -83.710098 -87.562210 77.707817 122.214294 112.614250 29.746984 51.678272 -78.643700 52.901764 25.824915 -46.119270 13.863119 -150.687103 -78.757271 41.118221 105.196274 87.793968 65.264893 5.786120 -86.923920 22.020960 169.863113 -77.182541 -16.212128 116.553436 -96.691940 -37.226868 135.839005 -73.921333 -37.789974 102.141953 -87.897232 -1.389287 -65.134560 -85.704849 -17.929760 -116.236885 0.000000 -0.000000 0.000000 5.668961 14.551341 35.729031 53.980381 33.280140 -30.988094 27.140892 78.460457 -59.020115 -120.118729 -3.129154 0.869842 175.648239 7.754270 -148.230606 126.410057 40.546902 120.939728 136.226212 76.526222 -16.610874 -55.051994 -2.116693 124.515747
23.072046 68.623093 29.681702 -86.897797 -71.859451 -86.832695 -96.061729 76.295845 120.114357 107.585991 31.017139 54.891205 -84.791862 49.707794 25.229313 -51.628174 13.372929 -153.307846 -82.492485 48.464314 108.551498 80.795876 65.285416 4.171746 -90.190857 21.587116 171.913315 -81.996315 -16.153933 117.651215 -100.647324 -31.701422 138.407501 -77.909363 -32.485714 102.140480 -91.052010 2.354966 -67.404251 -88.174805 -13.036905 -116.623352 0.000000 -0.000000 0.000000 2.967413 13.523122 42.416134 55.768589 27.423258 -23.746445 50.752659 73.501152 -32.587532 -121.629356 2.137972 -2.861522 173.487427 4.447514 -148.396759 123.208511 34.712212 124.240829 126.850632 71.740555 -18.892971 -59.076302 0.636778 123.996880
26.147709 62.848103 29.042788 -97.292702 -77.591446 -80.674477 -86.936607 68.955872 135.336868 101.341469 24.885843 53.017780 -88.309853 56.494568 26.421434 -53.747833 17.681843 -150.039154 -88.196999 48.701046 108.058807 78.194672 60.153305 7.042307 -95.781708 24.488186 172.248871 -86.121109 -13.668020 116.780525 -107.167732 -36.276924 144.961472 -81.378189 -37.889935 99.723328 -94.469200 -2.662243 -66.907974 -90.457230 -17.570316 -117.087608 0.000000 -0.000000 0.000000 0.606141 13.004797 42.400276 56.145737 26.651188 -20.373411 50.640141 73.020905 -29.001772 -124.447906 0.552537 -2.813721 167.737473 5.089260 -144.687866 119.424026 37.063332 127.276161 125.924194 75.170784 -14.203421 -63.241352 -3.172831 122.792160
27.163387 59.139240 29.417122 -112.216377 -78.431862 -68.721024 -85.392921 56.091808 141.463776 94.035919 38.997410 47.902855 -83.056648 43.263020 37.600464 -57.318813 7.769233 -149.820358 -92.421280 52.679558 107.944901 76.108795 58.112759 9.225945 -100.172096 24.648958 171.193161 -89.031456 -12.732225 115.744453 -110.746696 -34.287960 149.052597 -85.658463 -38.010090 102.168594 -96.333237 -1.835179 -65.843117 -92.191780 -16.836306 -115.268776 0.000000 -0.000000 0.000000 -1.245836 11.454516 43.838570 53.557610 27.014284 -18.425747 44.548660 70.975945 -31.729490 -126.327667 2.000834 -2.940952 165.698639 9.721251 -145.080460 117.703339 43.326012 124.640381 111.513954 77.187309 -26.444504 -65.063995 -3.446288 125.195541
29.934702 55.098690 29.504824 -124.826050 -79.239632 -62.244793 -89.372627 46.756306 147.348724 76.957275 60.343861 38.610336 -86.183174 25.283823 43.996098 -64.203262 -7.108275 -151.249756 -101.320221 52.638329 106.916382 68.224617 53.551105 8.678193 -105.812859 27.871098 171.923065 -95.171341 -9.908121 116.746483 -117.265167 -34.589340 156.111740 -91.140068 -37.643951 100.888435 -99.937576 -1.658170 -66.915688 -96.260475 -15.392627 -115.914146 0.000000 -0.000000 0.000000 -5.930645 11.950650 46.120949 50.588928 28.018188 -13.212358 43.140167 72.763481 -27.069885 -131.529617 0.687253 -4.914686 162.935455 8.217879 -143.454529 114.070114 44.088058 126.608810 99.509346 80.204453 -33.863197 -68.775887 -6.611493 124.993675
32.947525 47.906803 27.482286 -133.972610 -79.836029 -56.779945 -95.129364 40.073776 147.198502 52.623611 81.167152 19.974194 -92.459122 11.135042 42.366272 -68.496338 -18.753916 -156.695282 -104.244308 54.551014 108.370323 66.369041 55.332314 10.103228 -110.811584 25.484138 168.480026 -98.422966 -12.059152 114.194786 -127.406563 -37.781506 165.816483 -96.211327 -41.545918 101.834465 -103.242599 -3.673362 -66.157959 -101.648186 -16.719248 -114.565895 0.000000 -0.000000 0.000000 -9.492747 11.852121 45.240269 46.311222 29.528246 -13.438130 34.848312 72.961876 -30.688610 -135.716141 0.819129 -3.339921 159.000732 9.367826 -143.013123 112.266251 43.961193 128.956345 107.596138 77.973984 -20.255354 -72.719452 -4.819387 122.619598
36.869766 40.224453 25.340525 -144.067551 -82.243240 -57.583782 -106.445480 38.155437 148.585892 -26.454567 84.935425 -46.479912 -104.030281 6.143242 43.981106 -78.154671 -23.218321 -158.900604 -120.545822 54.125015 102.908272 57.027332 48.662899 13.160766 -122.777184 28.762112 166.841415 -108.561348 -7.807023 114.231712 -140.534912 -42.302689 177.836182 -105.671791 -44.176701 99.004211 -111.859512 -8.288120 -66.594757 -112.054184 -20.924206 -115.314934 0.000000 -0.000000 0.000000 -19.451342 13.484389 43.220127 36.719063 34.002930 -12.006744 20.919760 78.217941 -33.250809 -146.172318 -3.080390 -2.469940 150.052826 6.978012 -138.076340 109.316895 47.136456 137.394623 150.572571 82.320824 31.182911 -79.057693 -11.947916 119.178116
39.677296 35.628853 25.029209 -144.722076 -81.253334 -61.392548 -111.301666 40.709858 150.527939 -10.454278 86.416847 -23.214174 -109.766190 7.191696 43.283810 -82.386215 -22.208555 -160.567139 -128.481628 54.197639 100.727455 55.914921 46.877338 19.107580 -130.346970 30.500189 164.394333 -113.394791 -5.081701 111.994011 -146.613312 -39.443565 -173.809967 -111.566513 -42.094933 98.112679 -117.268326 -8.330632 -66.266434 -117.179901 -20.206221 -115.646500 0.000000 -0.000000 0.000000 -24.998318 12.092775 44.424599 33.692902 35.318436 -6.029562 42.616112 85.520576 -2.583719 -151.965652 -8.375922 -4.664289 144.074890 6.552760 -136.233719 104.859207 47.283428 139.234329 139.093063 81.579323 27.862564 -84.277512 -11.598992 120.655075
40.043533 30.539219 24.558159 -151.115753 -82.693626 -58.932526 -116.342537 41.673897 150.246948 34.325981 81.887100 26.547812 -114.110588 9.711318 44.426140 -86.338371 -20.112495 -159.246277 -136.706055 54.328007 97.313118 54.667217 42.618183 24.622637 -138.910202 34.049976 161.124527 -117.946030 -1.176825 110.441261 -149.464294 -41.138950 -169.983627 -113.626053 -42.444862 93.419937 -119.527969 -9.741983 -68.618828 -119.411736 -21.352591 -118.519699 0.000000 -0.000000 0.000000 -29.259001 14.741400 45.427925 29.638130 38.552612 -3.657888 1.525447 89.418854 -38.607941 -156.661392 -12.050767 -3.630902 140.268280 2.056424 -133.623032 99.340866 44.443367 141.456116 150.320221 82.058830 43.589928 -87.229210 -14.139398 119.984299
44.269993 23.467587 25.745893 -153.247787 -81.195473 -72.730370 -130.456192 44.892239 149.203842 28.490177 72.885834 34.719505 -128.879776 14.854359 46.092857 -102.403954 -15.267365 -156.415619 -157.856567 52.672447 88.622284 41.985783 48.180717 30.626562 -154.314682 27.347666 160.133575 -133.245743 -4.857508 107.376053 -159.739532 -40.244072 -152.537262 -130.944092 -40.765652 96.482391 -133.448013 -6.932648 -68.361626 -135.732468 -20.781137 -118.270386 0.000000 -0.000000 0.000000 -42.918983 17.765602 48.513802 13.513470 39.242432 -2.957633 9.575562 83.907829 -16.271257 -172.050003 -6.047452 -4.650091 125.445442 3.494657 -135.517029 91.940094 47.577660 144.274170 149.463776 78.778900 55.566402 -99.874550 -13.215123 118.558876
46.792522 18.667238 26.076550 -154.600922 -79.909248 -80.312721 -138.491669 48.324059 147.367218 20.745741 69.324944 33.097431 -138.544464 15.917534 45.738029 -112.293594 -14.722707 -154.165024 -169.571777 52.241268 84.401863 35.163826 48.441120 33.854240 -164.959045 26.349623 158.345734 -143.462875 -4.427433 106.465660 -167.969193 -39.228252 -137.870026 -141.861725 -39.218922 97.431175 -142.876556 -5.589045 -68.189674 -147.538361 -20.744890 -119.286629 0.000000 -0.000000 0.000000 -54.764500 18.654991 43.713886 -1.567815 41.602432 -8.666845 -66.170395 88.012100 -83.259781 176.121780 -10.462345 -4.309592 115.740669 -0.075222 -138.258850 80.532219 45.995201 142.285492 153.135651 77.720917 66.552841 -108.539429 -14.479129 117.727898
48.201267 11.919740 25.948507 -159.431564 -82.622513 -87.439888 -149.558960 51.458828 145.167099 10.548071 62.516586 32.911648 -150.111938 20.487379 46.145676 -124.744255 -11.541936 -152.414886 174.847198 48.699265 79.234047 24.710587 48.299843 36.090565 -178.997665 25.640074 157.928452 -155.743622 -3.219653 105.381950 -178.159897 -41.460636 -120.335587 -155.157181 -42.066154 98.924530 -153.938675 -8.316371 -68.146263 -161.038086 -25.538486 -117.626457 0.000000 -0.000000 0.000000 -64.388641 18.907995 45.886169 -12.354786 40.519516 -6.072152 -40.793121 81.719872 -47.291553 165.973343 -4.360129 -3.821571 101.986626 2.542240 -134.714783 69.604767 52.210178 143.048965 143.549240 80.123123 70.342392 -122.946602 -13.897472 120.681961
41.706001 0.871832 23.922037 6.420774 -75.978416 70.953842 159.709366 65.058891 162.365494 -36.849678 38.226303 44.074245 162.469604 39.980957 48.324203 -150.308151 -2.411432 -137.875916 134.647888 43.167263 113.777557 -37.817265 58.597061 27.418087 138.389694 30.018982 -176.288086 -176.395859 -11.668199 120.059868 148.176910 -52.197910 -108.262009 -178.300171 -42.114975 83.274254 -178.602585 -32.638771 -68.235725 -160.513260 -61.079437 -118.056175 0.000000 -0.000000 0.000000 -71.200386 8.594807 81.122719 -31.986773 38.992649 47.631107 -145.006027 72.699738 -57.464390 137.198624 -27.620668 14.423113 72.881454 18.181017 -60.395615 59.178310 59.352734 -147.171875 171.422882 76.869537 166.382767 -145.796265 -42.615837 113.317970
46.468937 -0.469776 25.360165 89.906235 -87.409431 -4.176493 176.129639 53.774860 139.401443 -21.580713 43.595760 28.848879 169.943207 33.156872 35.087074 -150.661697 -0.561001 -141.915985 146.833191 45.897640 87.787842 -9.265289 58.088623 27.433268 148.974075 23.691999 169.145218 -176.003693 -11.624214 122.795113 142.799179 -34.633583 -55.056835 -174.863480 -35.501797 97.863693 -177.353622 -13.610126 -54.733269 -177.223358 -35.135105 -106.196785 0.000000 -0.000000 0.000000 -77.947906 10.749083 64.646133 -41.571106 36.374588 -3.868144 -85.162384 68.566383 -37.388744 137.218613 -11.000525 8.252115 72.401665 0.965522 -107.108887 37.196251 43.594540 151.585251 106.665535 80.541542 70.546959 -145.408020 -19.153984 120.323547
46.334526 -0.224495 26.205204 130.817596 -83.510033 -42.101315 178.365982 54.697605 137.114807 -17.924133 48.483955 28.120358 171.121201 30.931440 34.635342 -150.317505 -1.489548 -142.707047 150.133759 47.222397 87.588638 -4.858011 57.405964 29.037287 148.830994 23.176510 163.865662 -174.461395 -9.510376 123.424156 142.801880 -33.020229 -42.913486 -174.586655 -33.880608 99.102890 -176.553802 -11.941501 -51.707481 -178.389145 -31.382715 -104.294739 0.000000 -0.000000 0.000000 -81.369759 14.065135 62.976913 -49.889080 37.744518 -16.068497 -93.558220 61.854679 -48.880283 132.283386 -7.720926 16.531569 70.547531 -0.702684 -113.886040 31.251019 37.345276 142.484802 68.451050 79.891289 30.628010 -146.048126 -14.025665 124.839386
44.536091 -3.285789 25.351456 128.360031 -82.655647 -48.900650 167.384216 56.257515 132.676147 -23.335478 44.413334 28.473831 163.817490 35.108318 37.155060 -159.781128 2.049589 -140.868958 143.423447 44.565308 87.530457 -13.460790 60.541424 29.718576 138.339371 18.714954 161.156509 176.070053 -9.406838 122.819832 134.294098 -37.456829 -23.518251 177.185043 -32.304806 95.929115 169.413040 -11.166987 -49.399685 169.461853 -26.913849 -106.328491 0.000000 -0.000000 0.000000 -95.390129 17.967669 51.791142 -64.143501 35.863945 -27.661591 -100.622681 56.649334 -54.436275 122.132607 -1.630843 19.512894 60.669964 0.381954 -117.731865 19.761715 38.235550 141.549927 74.672836 80.581902 44.304764 -155.313660 -11.942155 122.861458
43.216129 -5.040243 25.552494 125.266228 -83.731522 -56.465725 155.941437 58.695572 130.367249 -27.811495 41.546371 34.300869 150.326324 37.476254 33.749016 -170.944550 6.819873 -143.203735 136.319351 43.394314 89.536293 -24.764404 64.452103 29.492153 128.447174 14.244646 162.798157 165.096497 -11.181139 121.603416 128.759003 -38.260132 -13.733565 168.223831 -31.918331 93.257706 156.019608 -7.713231 -49.641998 158.071869 -25.167688 -109.177940 0.000000 -0.000000 0.000000 -107.951324 17.814823 43.825668 -73.574760 30.813061 -32.585922 -105.208679 55.844669 -53.863705 112.594254 0.119123 18.584625 51.646278 -2.104928 -119.931023 9.019031 35.688618 141.847626 62.234306 79.634369 42.501091 -164.657516 -9.176465 118.855850
42.729012 -4.777848 25.952015 120.827812 -82.739151 -58.173420 150.079147 62.371910 132.382355 -33.687836 39.346085 36.716301 143.229797 38.695992 34.506618 -179.281479 9.455085 -143.865784 134.036011 41.198570 93.868126 -37.356308 61.510471 22.026785 122.424507 16.641762 165.068375 158.002762 -8.051137 122.460922 124.875397 -36.130672 -8.387022 161.399323 -30.072029 92.431534 148.720673 -3.845111 -52.588665 150.624191 -23.343624 -112.545860 0.000000 -0.000000 0.000000 -117.134750 18.909882 40.849670 -82.678131 30.775423 -35.981930 -116.904152 56.116299 -59.242153 102.717583 -0.965539 20.243780 45.674641 -3.479660 -119.740295 -1.360129 33.092064 139.819382 27.066557 80.464607 16.516214 -173.339951 -7.096251 119.144714
41.207924 -2.778154 26.292450 113.005600 -83.303177 -58.705177 143.809387 62.947613 134.420700 -42.376266 38.790169 35.958267 137.096497 39.443863 37.180695 171.766235 8.994654 -143.795792 129.577652 40.899872 97.373360 -53.305862 62.352280 12.186895 117.617363 17.150389 168.960007 149.383408 -9.038281 124.834587 118.304886 -35.176201 -4.751186 153.759827 -31.399626 90.964729 140.544830 -3.225223 -55.175957 142.619995 -24.406328 -115.920547 0.000000 -0.000000 0.000000 -127.608620 18.948658 35.237194 -91.192398 31.930643 -38.839119 -130.622498 58.615597 -65.790375 92.319283 -4.434010 21.522274 39.239006 -3.430735 -119.515892 -7.272194 34.464485 141.251053 28.857861 80.347687 24.505690 179.595169 -7.702007 116.720009
39.293358 -2.156499 26.559420 104.057289 -79.741554 -50.580086 146.691772 67.676628 141.587769 -41.029034 38.545017 40.771706 132.627716 40.608994 35.916367 169.398148 10.502282 -144.234680 129.870422 38.608700 100.030174 -53.475258 56.783871 12.556312 113.211639 22.505873 166.552490 147.478241 -4.958523 123.834763 111.930504 -35.222786 3.022971 147.294312 -31.716387 95.054649 135.629669 -1.449819 -53.545521 135.093033 -24.010668 -112.808891 0.000000 -0.000000 0.000000 -133.230103 18.843094 32.245930 -100.787170 32.331161 -46.861153 -142.140152 54.963760 -73.995171 83.927391 -5.073970 28.318699 36.615135 0.103280 -119.670807 -14.911741 34.409473 136.671967 -7.901086 78.686707 -6.938411 173.355225 -7.003544 120.535027
37.210369 0.339491 27.159180 102.829315 -77.593880 -56.587959 142.755432 71.632790 144.487183 -48.704277 37.264839 41.146732 126.103363 44.169418 37.454113 161.908401 12.161757 -143.123718 126.542046 41.272236 102.932991 -62.354729 53.436520 8.825787 106.996880 27.116041 167.877167 139.687119 -1.540884 125.315201 106.737831 -34.660328 4.467847 140.361786 -31.962929 95.062073 128.837219 -0.535982 -55.075684 127.621895 -24.792126 -114.805016 0.000000 -0.000000 0.000000 -139.816299 17.481476 30.436016 -105.213531 29.151644 -48.063278 -145.044373 54.208893 -72.502304 77.914841 -4.844211 28.279297 29.551483 -0.014094 -118.914131 -21.749500 31.703915 137.745728 -18.308462 74.825302 -8.037675 165.878540 -5.681810 119.075867
36.484470 4.393503 29.047298 96.693047 -74.731232 -53.200699 146.800217 73.026543 152.440674 -51.964085 37.040112 40.724747 124.861855 45.582829 39.255196 159.607742 12.284514 -141.681793 125.912544 42.726807 105.897713 -66.085114 50.682522 7.301740 105.250458 31.127106 169.023972 137.126480 1.529108 126.303848 104.803429 -32.743832 7.291426 136.358475 -30.027458 96.568703 126.479439 2.512796 -54.895462 123.906479 -23.414335 -114.625984 0.000000 -0.000000 0.000000 -143.389297 16.455463 31.335747 -107.688118 27.272957 -48.763668 -146.278793 53.738117 -72.361481 74.991982 -5.224752 28.822237 26.380560 -1.832652 -120.915443 -27.700661 27.066561 134.159485 -35.795143 71.627914 -21.242521 162.842987 -4.545368 121.952362
33.914970 7.333145 29.789902 95.345207 -73.953720 -61.611816 137.244843 76.454445 149.387726 -59.844971 30.881605 41.436359 114.603523 54.231560 37.339214 151.663742 17.896225 -140.409027 119.909531 47.234898 107.360023 -78.236496 49.599262 2.609010 98.659943 34.366520 171.687271 127.129219 3.423340 128.846146 99.287941 -33.245220 7.821549 129.204620 -31.049620 95.997498 118.355270 2.853499 -56.925423 115.162567 -25.185644 -116.845963 0.000000 -0.000000 0.000000 -149.625519 16.049595 30.677002 -109.644844 22.586479 -46.411064 -140.897125 52.577469 -62.027714 70.350677 -2.808236 24.654617 16.972286 -3.774742 -122.316147 -33.317467 24.760372 135.867233 -34.034519 69.425797 -10.860505 155.451096 -4.166878 119.274307
31.817144 12.554394 29.583202 78.045868 -76.152855 -50.720779 133.352402 68.218971 150.576660 -65.170647 26.800266 37.569370 110.450142 58.073891 37.284344 147.481552 18.952713 -138.295364 113.904907 51.375969 106.277435 -83.630302 45.288525 2.455969 92.061310 38.033012 171.168396 119.780342 6.809031 129.107574 94.356133 -36.242332 11.173388 125.472557 -33.448074 96.008415 113.722191 0.485245 -57.437283 109.358406 -27.859705 -116.261490 0.000000 -0.000000 0.000000 -152.815491 16.396326 29.560038 -110.865837 21.589167 -44.881786 -138.699799 51.598438 -56.384995 68.517281 -1.148377 21.844730 10.620770 -3.497220 -121.177856 -36.926041 25.534853 137.807480 -31.332144 69.597343 -3.058723 149.828232 -5.088284 117.697113
29.074366 16.872919 28.804413 63.112144 -77.278961 -41.184837 122.724213 56.971336 145.608032 -70.204788 38.349102 34.787521 109.546082 46.085102 38.470367 141.440628 8.591976 -142.543045 110.550400 53.112202 106.774956 -86.316544 42.803783 3.983676 89.477516 38.613018 170.641983 117.122688 7.928957 129.117981 89.235741 -36.369667 18.107218 121.276047 -32.396263 95.456657 112.101532 2.313298 -57.561043 108.775604 -26.961277 -116.105568 0.000000 -0.000000 0.000000 -154.946045 15.570658 32.624149 -109.268959 20.754311 -40.846485 -134.093262 52.243759 -52.433376 69.717392 -1.288546 17.440935 10.860052 -7.012812 -123.974518 -39.149117 23.905062 135.825455 -32.306557 73.911247 -6.087180 150.840576 -7.849059 117.713242
23.979641 22.176949 27.421440 46.244282 -81.387527 -35.188316 105.814224 46.415115 138.867203 -76.826965 56.005497 40.082035 99.496056 30.241434 35.007118 130.329117 -3.288001 -152.445175 98.544792 56.146187 103.098595 -93.575203 37.887833 8.982860 78.894058 41.968391 167.546814 107.792770 11.421771 127.444321 79.718147 -40.095383 26.361437 113.769234 -34.756779 92.271042 104.854126 -1.012871 -60.093243 101.773796 -29.622900 -116.089096 0.000000 -0.000000 0.000000 -162.934616 16.959202 33.430840 -110.563988 23.706406 -35.029346 -135.264908 59.924904 -48.208263 67.316429 -4.794349 11.715199 5.403953 -8.996771 -123.891426 -42.956604 28.034054 138.547623 1.173552 80.049812 28.058336 147.933350 -13.054551 113.924034
19.547382 28.690077 25.235939 25.581129 -80.648293 -19.813721 100.384857 35.166431 141.452301 -83.517052 74.859581 38.864651 97.410835 15.346463 38.297058 125.041176 -16.782270 -157.397507 92.492142 60.413555 104.219780 -98.773605 36.087955 11.529420 73.381508 44.078255 166.163437 102.542595 13.171373 125.821663 71.051544 -42.065853 36.076965 110.541786 -36.894348 89.733185 100.763832 -3.727939 -61.860409 97.195946 -29.902073 -114.495979 0.000000 -0.000000 0.000000 -167.745636 20.386698 34.955807 -110.317741 30.956989 -27.668344 -131.805466 68.623360 -39.149986 66.990776 -8.183545 7.407554 2.113786 -8.902197 -121.646477 -46.527302 30.490231 141.219543 -8.164290 81.136208 22.781994 144.016296 -12.594342 115.036301
16.737452 35.196239 23.590202 30.425413 -81.392876 -28.808369 97.350342 27.950157 141.857346 -65.373230 87.342216 61.719078 92.209602 6.874527 37.847271 121.734833 -24.255714 -162.671814 83.588554 64.030365 98.317757 -100.547791 31.387705 14.667650 66.464531 46.569981 161.214706 98.482597 16.662014 124.962616 66.928062 -42.527191 40.452625 108.688736 -36.441975 88.374321 98.437874 -2.717527 -62.218605 95.215256 -27.033564 -113.798500 0.000000 -0.000000 0.000000 -167.778275 22.625549 36.853504 -107.237892 29.133459 -22.415199 -112.613007 67.111633 -19.285807 69.905823 -4.750755 2.630640 1.376675 -10.384093 -121.815567 -46.889698 30.959475 143.154022 -2.925745 81.308662 30.175694 143.233658 -12.968366 114.150230
16.059420 39.564705 21.415071 47.513340 -82.025185 -47.565632 94.009506 29.281513 139.558655 83.091339 89.470657 -147.420349 91.041077 5.863131 39.176735 121.301208 -26.203310 -163.812302 78.712120 67.302704 94.365013 -101.546921 30.480829 16.631664 63.848446 47.564934 160.197830 98.454750 18.843250 124.291183 69.185173 -42.763035 37.375286 108.999512 -33.979694 86.630142 99.500900 -1.279995 -63.043331 97.793083 -25.833479 -115.862389 0.000000 -0.000000 0.000000 -165.667343 21.473660 39.508854 -103.801292 23.733225 -19.802422 -105.904907 62.307972 -14.679070 73.041977 -1.721463 0.820645 2.059547 -10.153903 -120.800613 -48.321602 29.275206 143.457031 -27.966230 81.298004 5.864827 143.623657 -12.484560 115.403366
12.862720 48.101635 21.295341 51.923737 -82.590508 -52.910145 90.946602 32.263947 136.285370 -54.042747 85.819992 78.042381 88.025116 9.210414 35.785732 120.705505 -22.671614 -165.773148 75.674568 70.315254 91.322586 -101.083336 26.324053 18.906500 57.699333 52.520588 155.956161 96.908531 22.440842 123.294891 66.185822 -44.424259 37.843796 108.295090 -35.655178 86.950600 98.769844 -4.807097 -63.706642 95.461937 -29.264271 -114.973419 0.000000 -0.000000 0.000000 -164.211960 24.041510 40.613941 -103.760033 26.168835 -17.872185 -108.563629 61.962357 -15.524199 71.647476 -1.282566 0.052054 0.533560 -8.503506 -120.865639 -44.439388 32.755478 146.385788 10.137664 79.867348 42.162121 143.638245 -14.300753 112.000610
11.962326 53.792175 21.831036 59.304523 -83.385597 -56.707539 92.625732 33.829170 133.512054 -47.419491 81.413986 82.135933 89.310341 11.074326 31.985277 124.818893 -19.175425 -168.476501 78.603256 71.906181 90.716988 -97.867210 22.599855 18.748726 58.507114 57.195484 154.496170 101.336899 25.774530 124.964554 71.590126 -44.566566 33.074486 112.353653 -34.798428 85.348907 103.042679 -5.582206 -65.139717 100.004227 -30.395687 -116.493767 0.000000 -0.000000 0.000000 -161.433289 24.064405 40.825375 -100.776657 29.657269 -17.050550 -107.567261 67.656372 -16.729706 73.837273 -5.689137 0.507643 3.821760 -12.392387 -121.818832 -38.755596 32.974804 146.688034 49.068199 78.954002 73.974716 149.875977 -17.006552 109.931793
12.498318 61.564774 24.455784 88.789909 -83.800522 -81.706955 94.768379 38.714314 129.020233 -53.235764 75.175209 73.239456 91.013794 15.862397 28.717831 128.782837 -13.622927 -169.351334 82.659294 71.348831 89.378075 -94.606956 20.619915 16.972912 62.456051 60.790741 155.437653 106.716789 27.489901 127.591545 81.021210 -44.795658 23.484457 118.057236 -34.531429 84.402977 108.218040 -5.970413 -66.463066 105.553894 -31.850664 -118.959961 0.000000 -0.000000 0.000000 -157.829559 25.147207 39.804405 -97.268723 31.912485 -17.127180 -103.232384 69.992622 -15.760390 76.453064 -7.912028 0.595861 7.120596 -14.673258 -122.293579 -34.599773 33.556232 145.694275 62.016369 79.008842 81.394226 153.423950 -17.413372 110.409630
12.562902 67.509560 25.896992 115.991119 -83.877533 -105.910210 96.182564 41.812618 124.930168 -54.585663 70.396782 68.175232 92.309685 19.464176 27.152977 130.255112 -9.834136 -168.189590 88.813240 65.925804 90.841354 -93.174347 25.994038 13.207995 70.457359 55.183361 160.142975 108.722160 22.277025 128.975037 87.796593 -44.256489 17.128471 122.220634 -36.138355 85.792496 110.428436 -5.509135 -66.440437 107.471344 -32.244602 -120.109558 0.000000 -0.000000 0.000000 -156.584351 28.919445 37.324860 -95.046494 33.271389 -17.181351 -93.626610 67.956978 -7.754179 78.271080 -6.543187 -1.688897 9.093410 -13.346713 -122.782120 -30.948896 35.191227 145.568375 49.569851 77.316696 66.967094 153.941833 -14.418241 110.318115
11.825106 73.068054 27.592096 129.195084 -82.390244 -111.540382 101.483376 49.451088 123.796509 -42.394409 71.235573 74.599884 97.680443 16.801603 26.992266 135.923538 -10.085684 -168.930710 95.357925 57.435780 89.694275 -83.357964 38.432480 16.971464 77.908669 42.012150 158.162964 114.233971 13.161607 122.901848 93.127724 -42.924061 12.845653 126.363518 -37.139515 86.280312 113.042709 -3.808707 -64.329781 111.804810 -31.368450 -120.334000 0.000000 -0.000000 0.000000 -156.885559 27.299303 34.031597 -95.895309 35.370739 -23.040865 -93.555725 72.992706 -11.662548 79.284195 -10.982102 1.753312 14.954352 -13.970687 -123.014374 -28.508894 33.698868 143.318359 33.803425 78.762230 48.741932 157.306396 -11.941720 111.571632
11.628858 79.967140 27.930178 144.365799 -85.512886 -116.177582 109.937889 51.934978 123.693581 -39.651855 62.566944 66.823143 104.582436 20.419380 24.182167 144.111160 -3.586955 -166.012726 105.718445 45.434479 92.035393 -69.251923 51.373314 22.607697 88.002106 28.256735 158.738098 124.047195 2.526321 117.803169 96.362137 -44.106361 12.487596 133.407593 -37.365662 85.711014 118.172928 -3.478220 -62.434929 118.378410 -29.716070 -119.996559 0.000000 -0.000000 0.000000 -152.687729 24.801332 32.397236 -98.124275 38.002293 -29.779392 -122.758881 75.085121 -44.752922 79.576492 -14.481741 9.458759 20.964331 -13.115765 -122.946030 -24.857958 32.173115 141.235245 18.447939 78.868881 29.108545 161.975571 -8.937023 113.033569
11.869340 86.396454 27.447338 179.061661 -85.732124 -145.581955 114.104401 56.253300 121.804100 -39.103127 63.721657 63.650867 109.123077 20.581045 26.826628 148.508347 -3.335329 -164.930817 111.423721 39.107491 95.321007 -69.366348 71.681686 16.742151 101.312004 12.575205 166.954926 129.968658 -15.982969 119.967712 101.206192 -43.787235 6.778896 138.829666 -39.654667 85.564232 121.644005 -4.164920 -61.321495 123.628296 -29.244289 -121.384430 0.000000 -0.000000 0.000000 -148.956924 24.721586 30.909449 -94.897003 35.700455 -29.002497 -108.225060 71.935425 -32.046581 83.953247 -12.175780 7.962661 23.887669 -12.311820 -123.843216 -21.253902 31.828436 140.547729 9.475252 76.004417 18.467968 164.161652 -4.710536 114.106354
10.628122 92.849915 27.314413 164.592560 -87.692848 -126.770210 120.113853 57.417351 124.173836 -42.322430 57.446304 55.264435 112.604851 25.274645 27.241108 152.808685 1.325590 -160.800797 116.609566 36.999096 99.032608 -73.103493 77.833633 8.680116 107.593163 7.644842 169.725357 134.843399 -21.918791 121.721420 102.320290 -41.960278 6.448802 141.452789 -37.101562 86.309959 124.033028 -2.627158 -60.159679 126.351944 -25.816370 -120.470619 0.000000 -0.000000 0.000000 -144.947769 22.329222 31.936333 -90.588982 33.538788 -26.226545 -99.324326 71.261856 -24.876303 87.903603 -11.686099 6.378276 26.776333 -12.921860 -124.915634 -20.906853 29.908596 139.378998 -0.061306 76.003754 8.745698 166.134048 -3.242654 115.702286
10.263667 96.372055 27.679342 82.268112 -87.212242 -41.527248 124.472740 58.317905 126.926239 -41.687832 54.525635 52.511951 116.001366 28.721121 28.542398 156.996796 3.348952 -157.754425 119.596146 41.435150 101.190620 -80.441048 81.400902 -0.107193 110.508034 6.319270 169.984406 136.849747 -25.073719 121.808830 102.883904 -42.512074 6.024483 142.531509 -38.979633 88.513283 125.444092 -5.109221 -57.468338 127.637054 -27.889349 -117.267097 0.000000 -0.000000 0.000000 -143.488022 21.483305 30.117149 -91.848068 35.239056 -28.676615 -107.947258 71.000664 -33.983822 87.014305 -11.177234 8.688533 28.522837 -10.432405 -125.605980 -19.719761 33.339966 137.555511 8.306626 78.875862 13.579565 167.316254 -5.258472 117.141800
8.743560 100.408035 26.835562 82.782066 -86.848495 -40.030109 127.684990 59.252724 128.153488 -41.383236 49.776878 49.859097 117.337349 33.454021 27.620708 159.917572 6.496095 -155.876099 121.127670 42.091793 99.515724 -73.295334 75.491524 4.608187 111.090401 11.704481 168.874237 138.332809 -19.708132 122.862999 101.856514 -44.523445 5.889972 144.398956 -39.798252 89.058121 126.404457 -8.041136 -55.769360 128.731674 -29.722128 -115.530182 0.000000 -0.000000 0.000000 -140.246902 19.529785 28.525154 -87.499107 35.994568 -27.511351 -102.008614 75.007790 -30.256437 90.658852 -13.106782 7.182298 30.112017 -9.196054 -123.931435 -16.213795 37.238796 140.020508 41.826057 79.710663 43.800800 169.668793 -8.988173 114.346054
9.089967 102.888596 26.867489 105.801964 -85.685349 -57.439598 132.558456 60.593273 128.873489 -37.645443 51.476357 49.659130 123.037048 32.637608 28.527731 165.826416 5.676599 -156.189987 125.335747 42.000458 98.573868 -61.903889 70.835968 11.356738 114.560028 14.619864 168.724594 144.771103 -16.360107 122.471985 105.286461 -43.134117 3.542192 149.859818 -38.253384 90.074127 132.083115 -8.500441 -54.959148 134.210861 -28.911156 -114.519829 0.000000 -0.000000 0.000000 -132.560928 21.140745 31.824099 -81.355225 37.945847 -23.852142 -95.332504 73.335892 -26.840740 96.482346 -10.485998 6.499041 36.080116 -5.656978 -121.384209 -12.329050 39.628307 141.161972 27.000683 81.278099 26.328640 171.945862 -8.219075 116.746620
9.937300 105.835854 27.318872 111.383575 -85.896492 -58.813217 136.298737 59.034782 127.803673 -34.932457 49.800301 47.462749 128.272079 33.341854 28.917837 171.515533 6.812416 -154.653549 128.002045 43.191086 97.821899 -60.850483 71.894356 9.554187 119.827911 13.146963 170.498566 149.758133 -17.264971 123.269875 113.489594 -41.290932 -2.460398 156.007843 -35.803867 88.945152 138.333954 -7.761701 -54.825142 140.802856 -27.587351 -114.673630 0.000000 -0.000000 0.000000 -127.392319 21.144512 34.659779 -74.213516 39.850307 -18.404373 -82.389847 77.327431 -16.491676 101.938026 -12.296108 4.345038 41.435257 -6.321803 -121.725746 -5.937088 40.302868 142.676178 46.927620 82.407410 40.765278 178.307907 -8.814480 117.228943
