HIERARCHY
ROOT Hips
{
  OFFSET -2.246895 0.918821 -4.316255
  CHANNELS 6 Xposition Yposition Zposition Zrotation Yrotation Xrotation
  JOINT LeftUpLeg
  {
    OFFSET 0.001035 0.018578 0.105485
    CHANNELS 3 Zrotation Yrotation Xrotation
    JOINT LeftLeg
    {
      OFFSET 0.435000 -0.000000 0.000000
      CHANNELS 3 Zrotation Yrotation Xrotation
      JOINT LeftFoot
      {
        OFFSET 0.423722 0.000000 0.000000
        CHANNELS 3 Zrotation Yrotation Xrotation
        End Site
        {
          OFFSET 0.100000 -0.000000 0.000000
          }
        }
      }
    }
  JOINT RightUpLeg
  {
    OFFSET 0.001035 0.018578 -0.105485
    CHANNELS 3 Zrotation Yrotation Xrotation
    JOINT RightLeg
    {
      OFFSET 0.435000 -0.000000 0.000000
      CHANNELS 3 Zrotation Yrotation Xrotation
      JOINT RightFoot
      {
        OFFSET 0.423723 0.000000 0.000000
        CHANNELS 3 Zrotation Yrotation Xrotation
        End Site
        {
          OFFSET 0.100000 -0.000000 0.000000
          }
        }
      }
    }
  JOINT Spine
  {
    OFFSET 0.069020 -0.026037 -0.000000
    CHANNELS 3 Zrotation Yrotation Xrotation
    JOINT Spine1
    {
      OFFSET 0.125881 0.000000 0.000000
      CHANNELS 3 Zrotation Yrotation Xrotation
      JOINT Spine2
      {
        OFFSET 0.123432 -0.000000 -0.000000
        CHANNELS 3 Zrotation Yrotation Xrotation
        JOINT Neck
        {
          OFFSET 0.258329 0.000000 0.000000
          CHANNELS 3 Zrotation Yrotation Xrotation
          JOINT Head
          {
            OFFSET 0.117666 -0.000000 -0.000000
            CHANNELS 3 Zrotation Yrotation Xrotation
            }
          }
        JOINT LeftShoulder
        {
          OFFSET 0.197459 -0.014803 0.060001
          CHANNELS 3 Zrotation Yrotation Xrotation
          JOINT LeftArm
          {
            OFFSET 0.112841 0.000000 -0.000000
            CHANNELS 3 Zrotation Yrotation Xrotation
            JOINT LeftForeArm
            {
              OFFSET 0.330000 -0.000000 0.000000
              CHANNELS 3 Zrotation Yrotation Xrotation
              End Site
              {
                OFFSET 0.100000 0.000000 0.000000
                }
              }
            }
          }
        JOINT RightShoulder
        {
          OFFSET 0.197461 -0.014804 -0.060001
          CHANNELS 3 Zrotation Yrotation Xrotation
          JOINT RightArm
          {
            OFFSET 0.112841 -0.000000 -0.000000
            CHANNELS 3 Zrotation Yrotation Xrotation
            JOINT RightForeArm
            {
              OFFSET 0.330001 0.000000 -0.000000
              CHANNELS 3 Zrotation Yrotation Xrotation
              End Site
              {
                OFFSET 0.100000 0.000000 0.000002
                }
              }
            }
          }
        }
      }
    }
  }
MOTION
Frames: 128
Frame Time: 0.016667
-50.101025 4.890245 8.113155 -175.540543 -77.534973 74.454361 6.002343 75.595703 146.108841 178.136932 50.863300 49.744404 -11.636819 32.015549 31.660467 21.497297 5.255903 -148.937653 -15.412047 46.365372 100.311935 154.285461 82.474236 11.795190 -27.288471 16.428110 165.518768 -6.696616 -18.113451 123.129021 -39.747673 -69.048538 85.725349 7.299613 -73.988541 74.932976 -18.847940 -59.877579 -67.430344 -21.848087 -69.653526 -115.431671 0.000000 -0.000000 0.000000 61.916622 12.008004 3.453842 93.584114 66.333481 -67.160950 -18.703327 56.505653 -156.013077 -72.451324 -40.264900 30.515387 -130.280991 -3.483569 -117.307709 -156.163757 56.881332 143.812653 -42.374588 67.666405 96.292603 16.116520 -22.490660 110.269020
-47.261101 3.428180 7.572309 -171.769424 -78.731926 72.376427 14.155457 76.040138 152.232391 178.079391 46.924603 47.535839 -9.393693 37.098484 32.072361 23.802515 8.261643 -146.614838 -13.775258 49.842854 99.794189 157.754822 80.261040 13.742569 -26.827358 18.236080 165.175476 -5.489459 -16.563833 123.072662 -39.564358 -68.697021 86.610680 8.057114 -74.345062 76.963425 -19.072760 -60.183258 -65.047707 -22.554197 -70.370483 -112.569817 0.000000 -0.000000 0.000000 65.306923 12.320822 4.167728 102.571114 65.495827 -61.318626 -12.201594 62.068226 -153.081009 -66.353333 -37.323078 25.903959 -128.663116 -1.713714 -118.531624 -156.122467 57.869934 141.894608 -42.491142 69.507637 95.069382 16.371941 -21.679123 111.605293
-44.216679 1.121440 7.243980 -165.885086 -79.414978 68.352432 16.695902 75.407402 152.718033 178.995789 42.274391 45.646015 -6.308269 42.436401 32.407829 26.806232 11.815304 -144.002335 -9.311916 53.181805 101.550385 163.641678 76.301147 16.967516 -27.065901 20.634520 164.036118 -3.863417 -14.339262 122.675728 -43.213444 -68.147827 91.390228 10.218807 -75.222977 77.812973 -20.432390 -60.692440 -61.521824 -24.047659 -71.142296 -108.500885 0.000000 -0.000000 0.000000 68.173294 13.451139 4.065645 106.465729 65.652916 -59.541546 -2.648635 65.345390 -145.941284 -62.201538 -33.885609 23.486303 -128.202499 1.380528 -120.443855 -155.872238 59.414909 140.159866 -44.826683 70.500587 90.925011 16.860907 -20.514181 112.036087
-41.799522 0.020908 8.076778 -162.102707 -79.846207 63.787014 21.014692 74.547646 157.089462 178.832565 38.808525 44.913197 -8.099851 47.001652 30.897095 27.789316 14.706854 -142.775620 -9.483230 55.099945 101.454536 166.015564 75.349159 19.809744 -27.804483 20.872932 164.041504 -3.510766 -13.937318 122.374878 -45.663578 -66.141815 95.028831 -0.419012 -74.934875 89.345772 -25.398182 -59.323921 -54.306267 -28.536148 -70.554222 -102.778389 0.000000 -0.000000 0.000000 70.119781 6.385129 6.216441 113.815422 59.796204 -56.057835 -10.342238 62.497845 -151.915878 -63.591301 -37.580723 24.506931 -128.887085 1.334546 -121.302521 -160.334274 59.582863 135.661545 -32.062347 70.156731 104.507309 16.633015 -25.990456 114.176605
-39.699780 -1.175213 9.326272 -156.744095 -80.162750 58.362213 24.263460 70.890770 160.233978 176.671448 35.388321 41.188324 -3.807520 50.996212 35.794235 29.188360 15.903739 -138.899704 -8.722156 58.620743 102.523659 160.552582 74.618118 14.173225 -26.301798 20.939554 165.571808 -3.486639 -14.276586 123.426559 -44.008556 -64.926239 94.166214 -1.806768 -74.711533 91.910454 -24.708284 -58.673729 -53.392811 -26.793074 -69.934715 -103.587639 0.000000 -0.000000 0.000000 71.780823 5.455739 7.514525 116.535080 57.178005 -55.214485 -0.676058 65.098877 -144.109924 -61.341042 -34.428062 23.418240 -126.872894 1.806112 -121.354790 -157.558807 60.652782 136.537766 -27.212641 68.998848 108.016960 18.317966 -27.525211 113.839989
-36.753014 -3.455925 10.369518 -153.793228 -77.564354 56.620098 21.846092 58.877167 156.143478 177.339249 25.923265 36.023952 6.749976 59.822662 44.089870 34.617783 20.262396 -131.286926 -5.804910 61.227161 103.547310 161.762039 72.576683 12.949292 -24.887482 20.611881 165.638992 -1.620692 -14.894992 123.013618 -45.320633 -65.761009 97.285019 2.869614 -76.467110 89.497047 -23.788210 -59.277847 -51.086388 -23.247862 -70.163475 -104.742134 0.000000 -0.000000 0.000000 74.379364 4.256963 7.188573 117.582855 55.228455 -57.373699 11.106952 63.391937 -134.905151 -60.064575 -32.110058 25.985273 -125.228157 2.091838 -121.509544 -155.237167 62.182896 136.331573 -19.381018 65.360161 111.959000 21.303404 -31.506037 112.723473
-34.744465 -5.079346 11.945864 -146.822296 -75.289490 51.108879 20.290045 45.635071 153.475159 177.669250 20.695047 30.321737 22.267733 64.220673 58.690449 38.560398 21.828262 -124.831543 -3.401209 65.529167 105.210442 158.663437 72.250740 7.107574 -21.781433 19.639774 166.740570 -0.387698 -17.491726 123.341972 -45.747486 -65.622482 99.716507 10.441221 -78.195679 84.667519 -21.171263 -59.886196 -51.226974 -20.972155 -69.624008 -105.673355 0.000000 -0.000000 0.000000 76.086235 7.020168 6.482373 115.709282 56.078358 -59.340122 34.049526 65.162247 -115.509514 -56.033058 -23.821457 26.427244 -121.765388 4.096230 -122.018135 -147.054916 64.685921 140.495789 -18.814796 64.305954 109.050781 23.656982 -30.626722 111.631554
-32.098110 -6.107456 13.394848 -145.916077 -72.701965 48.559765 15.387375 35.722214 147.835861 -178.315994 15.150010 34.408939 11.142404 73.236694 47.616135 39.395859 28.823256 -124.846107 -6.540312 67.467651 104.437073 154.286270 71.051361 3.364509 -22.713373 19.611721 168.276093 -2.907688 -18.888521 124.521591 -49.530499 -65.282738 103.181740 12.369216 -79.135826 81.998344 -24.414267 -59.677017 -47.412357 -22.349443 -69.669342 -105.195129 0.000000 -0.000000 0.000000 76.024948 6.494271 5.112178 116.802803 54.740089 -57.776360 43.667751 66.427116 -105.223358 -55.830753 -20.039867 26.393585 -121.394814 2.515429 -122.281303 -136.584824 67.216286 149.800827 -10.792002 55.054192 114.507469 26.806122 -37.880749 106.803696
-30.061419 -5.836051 13.592950 -142.542038 -68.729240 46.341118 13.952584 22.677465 145.434830 -175.576553 23.616514 34.926250 4.331196 64.982330 39.069717 38.116367 25.873199 -129.073898 -6.348495 69.779930 104.990799 156.148529 70.605446 2.393196 -21.453741 19.821163 168.298752 -2.879025 -19.955891 124.899246 -52.944515 -65.453629 107.112724 16.777060 -81.174789 78.612793 -24.882421 -60.509773 -45.629749 -24.006130 -70.493492 -102.648483 0.000000 -0.000000 0.000000 76.145447 6.738148 3.340237 111.831230 56.041042 -61.631462 50.938160 65.369736 -98.594498 -55.236561 -15.530685 29.349323 -119.255203 3.417314 -121.622177 -127.607033 68.819962 156.752167 -10.287515 52.810936 114.211067 27.857498 -38.059364 105.547546
-27.954340 -6.486127 14.886281 -145.314514 -67.119957 47.264240 9.117281 15.103330 142.095810 -176.709106 34.437176 37.498150 -1.182189 54.619827 34.761337 33.744881 21.623716 -134.707886 -6.934905 72.088837 106.709854 153.427383 69.767555 0.747083 -22.622488 20.029291 168.964523 -4.666633 -19.904284 125.718704 -54.000168 -64.886665 107.930275 11.165135 -81.027870 83.451996 -24.627028 -59.379208 -45.498829 -21.741163 -69.706848 -104.496666 0.000000 -0.000000 0.000000 76.146523 4.891026 3.507406 116.300499 54.757187 -57.347183 50.998562 68.181114 -98.918602 -54.271000 -15.501714 27.592684 -119.015991 2.055687 -121.269653 -127.411781 67.235313 157.511871 -11.568295 50.770061 113.586601 29.480616 -38.891895 103.491409
-26.710314 -6.975989 14.844531 -151.528793 -65.771812 53.214554 5.762406 10.063424 138.326630 -172.949280 49.936302 44.915379 -5.922668 36.894314 29.704052 30.112122 13.149152 -143.534241 -6.899046 72.297951 106.813927 153.875168 69.152924 1.156142 -22.602846 20.200260 168.438644 -4.611107 -18.698757 125.912506 -52.501465 -66.405235 107.176643 12.115535 -80.551773 82.325829 -21.135656 -58.878685 -48.255775 -17.243662 -69.278877 -107.966354 0.000000 -0.000000 0.000000 76.344299 5.705511 3.561931 117.296700 56.275738 -55.778728 47.242256 69.252098 -103.275375 -53.183529 -16.626101 26.847569 -116.297989 1.827645 -120.346443 -119.848595 68.299843 163.224884 -8.302217 49.073517 115.128601 32.461452 -39.966934 102.539558
-23.674995 -7.106423 14.868869 -155.738342 -66.012436 54.621655 2.846617 9.893214 138.636963 -177.785385 53.003983 43.179790 -7.371577 35.552258 31.340614 26.768223 11.170146 -144.039612 -9.096833 73.751869 107.376236 153.666458 67.394920 3.556698 -25.976063 21.785709 168.131058 -7.770027 -16.414787 126.677307 -56.693577 -67.474174 109.283699 6.026909 -80.838051 86.333862 -23.878073 -60.009209 -47.703812 -20.192471 -70.581772 -106.715195 0.000000 -0.000000 0.000000 74.823769 2.983068 3.227609 118.724220 53.104092 -54.791389 47.270748 68.952271 -102.640610 -54.538815 -16.543255 26.108206 -119.152184 0.734950 -119.633919 -127.093582 67.402405 159.242569 -9.249782 48.045059 116.937195 30.297842 -41.038361 102.301178
-23.606319 -6.840940 14.456369 -157.085968 -66.423409 54.865002 1.582896 10.076119 138.825287 -178.581711 53.062408 43.322701 -8.609076 35.204224 31.708700 25.809525 10.846372 -143.860535 -11.821366 72.912224 106.015396 150.334564 66.917023 1.845614 -26.117409 21.916956 168.566330 -8.190584 -16.687811 126.928955 -53.384617 -66.462997 106.355766 4.384789 -79.250519 86.315254 -22.941458 -57.814869 -49.334419 -19.076275 -68.329170 -109.037933 0.000000 -0.000000 0.000000 72.990410 3.480079 4.793383 117.856529 52.812523 -54.008064 40.651142 69.586441 -107.611595 -56.638000 -18.332716 26.014095 -119.520554 -0.556787 -120.434967 -130.151520 67.827599 156.720413 -6.502816 47.390022 119.805511 30.272902 -42.837414 102.922173
-22.954102 -6.928967 14.459800 -156.783478 -67.644463 54.213036 0.900236 11.345572 138.959656 -179.507721 51.710361 42.955147 -8.444105 36.182499 32.442211 25.346863 11.306349 -143.319305 -12.579542 73.213089 105.844864 149.686050 66.480858 1.866898 -26.595304 22.246277 168.445969 -8.532678 -16.347181 126.909302 -51.240791 -65.629837 103.830177 5.231937 -77.901421 84.585983 -21.749241 -56.610275 -51.719460 -17.614637 -66.872665 -111.294312 0.000000 -0.000000 0.000000 71.699944 4.784388 5.686498 117.474609 53.557728 -52.892563 36.596592 70.528984 -111.246666 -57.169434 -19.155100 24.797049 -120.184212 -1.770137 -120.916710 -135.751450 66.578613 152.293060 -7.045024 49.370480 120.371635 28.546724 -41.410881 104.411812
-22.792078 -7.596791 14.471478 -156.272964 -69.768967 53.668961 0.336002 14.562023 139.065704 178.656311 49.288765 42.001251 -6.194579 37.316109 35.461838 25.123848 11.664392 -142.048798 -13.196496 74.486687 105.360092 147.265915 66.408226 0.088655 -26.083220 22.301191 168.889450 -8.648989 -16.035610 127.191322 -46.584965 -65.409973 98.459618 12.674401 -76.520752 76.086037 -17.486320 -56.198437 -57.994453 -12.234871 -65.667702 -117.889915 0.000000 -0.000000 0.000000 70.181297 11.396633 6.009154 114.649300 58.745064 -51.911407 40.068577 72.433952 -108.231735 -55.564960 -17.440678 21.681484 -119.949707 -1.747131 -120.912025 -136.095703 65.732719 152.484283 -11.833044 54.826134 116.308044 26.646088 -35.594818 105.759071
-22.244671 -7.256329 14.755489 -152.611542 -70.555733 51.434219 1.515676 18.547148 138.176102 -178.278275 45.975830 44.242512 -8.168358 39.263927 31.202402 26.541218 13.227838 -142.534241 -8.752016 73.924362 108.295830 152.255859 66.521416 3.768317 -26.591864 23.380724 167.839081 -7.125874 -15.178273 126.260597 -46.146477 -63.869419 98.886017 5.778086 -75.158798 84.242493 -18.402193 -54.475952 -55.968788 -15.469016 -64.294868 -113.361450 0.000000 -0.000000 0.000000 70.740143 7.645612 7.267268 114.878799 56.214527 -53.473190 24.069109 69.726753 -123.071213 -57.896851 -22.594250 23.983793 -120.063934 -3.626741 -121.605728 -142.150040 63.851192 146.242523 -7.375260 53.160782 120.002106 27.635386 -38.048107 106.785149
-22.694540 -7.605457 14.974210 -149.762589 -70.835411 48.979485 2.277574 17.865276 139.204865 -178.049194 47.981178 43.814423 -6.349205 35.782513 32.564041 26.705362 11.641394 -143.082489 -8.590403 73.963814 108.623329 151.533539 66.225113 2.456374 -25.485611 22.900503 168.130615 -7.008785 -14.905257 127.001320 -43.769508 -62.225857 96.261642 5.914824 -73.996407 84.618805 -16.895185 -52.868835 -57.646156 -13.625703 -62.635437 -114.830109 0.000000 -0.000000 0.000000 71.014038 8.699294 8.304969 114.103409 56.264568 -53.334869 31.040375 70.009659 -116.712936 -57.102863 -19.659079 23.518709 -119.035515 -3.559527 -121.960915 -144.089691 63.346058 144.204422 -7.499091 56.876511 121.309380 25.776608 -35.410313 109.222809
-22.620272 -7.212025 15.055894 -149.880142 -71.038612 48.077209 1.682443 18.395405 139.465286 -179.109192 45.990154 43.278599 -7.545136 37.545200 32.489578 26.027758 12.569038 -142.235352 -10.844081 73.638680 107.325890 150.711029 66.079292 2.831497 -26.533987 22.902721 168.011993 -8.032804 -14.809713 126.962479 -44.819569 -61.121677 96.654274 2.494818 -73.613968 87.254845 -18.847616 -52.120552 -56.331173 -15.649711 -62.027870 -113.629822 0.000000 -0.000000 0.000000 69.895256 7.143080 8.778436 112.647423 55.319500 -53.754227 26.453121 69.438515 -119.329201 -59.124931 -20.300467 23.997677 -119.900078 -2.675285 -122.244476 -145.586105 63.633724 143.773605 -8.469627 57.797485 122.232384 24.049978 -35.425632 110.092422
-22.893198 -7.425307 15.146913 -151.045258 -70.992783 48.753384 1.204938 17.065697 139.744003 179.914810 46.372604 42.740723 -7.175350 37.228939 33.607449 25.473328 12.102376 -141.966995 -12.622688 73.171219 106.225304 147.979172 65.807259 0.711318 -26.389008 22.623070 168.762924 -8.787566 -14.811778 127.543755 -44.155022 -61.156380 95.701630 4.069786 -73.338356 85.136223 -18.083824 -51.822823 -57.544632 -13.646775 -61.556671 -115.944786 0.000000 -0.000000 0.000000 69.501541 7.501190 8.725183 112.435081 55.440739 -53.442097 24.586142 69.411690 -121.412842 -59.340405 -20.584999 23.748007 -119.881241 -3.551748 -121.971100 -146.134567 62.863506 143.861649 -9.009278 58.035339 122.159790 23.919476 -34.960777 109.686768
-22.313211 -6.333409 14.631109 -150.726486 -71.590912 45.410385 -0.615403 18.233667 141.478378 175.251495 42.568333 40.126961 -9.113639 41.893978 35.025826 23.309973 14.653650 -139.766052 -18.128416 73.864098 103.809303 148.200943 65.122498 4.289176 -30.552656 23.685692 167.553513 -11.919574 -14.031266 127.056358 -48.681870 -60.018150 98.251251 -1.405419 -73.344040 87.842224 -22.461931 -51.766197 -56.498634 -19.749062 -61.663994 -113.202057 0.000000 -0.000000 0.000000 65.876312 7.023600 8.947375 109.499397 54.295280 -53.238022 24.972750 69.881042 -117.596107 -62.687824 -19.441952 23.500595 -123.566292 -3.973186 -122.307465 -147.582016 61.997444 145.780441 -14.306089 56.580833 120.045059 21.821440 -35.604610 107.893501
-22.552917 -6.656681 14.196125 -152.680573 -71.918457 46.281223 -2.685560 19.314016 141.014618 173.347595 44.301300 40.477962 -10.008800 39.959167 35.707596 21.819803 13.483977 -140.306015 -16.840248 73.958939 106.326828 144.508133 65.894165 1.973831 -31.127867 22.996534 168.175873 -13.197865 -14.573666 127.588287 -49.273094 -60.598087 97.492516 -2.456968 -73.679260 87.164879 -23.235096 -52.532925 -57.407944 -19.965027 -62.382538 -114.156433 0.000000 -0.000000 0.000000 64.199486 6.484957 8.464377 106.107811 54.917892 -55.044033 17.242037 68.417259 -123.589035 -64.705536 -20.678421 24.726740 -125.391289 -3.559243 -121.477539 -150.845840 61.187172 145.003006 -18.686028 59.171570 118.628151 18.844107 -33.273079 108.807358
-22.130596 -7.249837 14.145474 -152.648193 -71.790245 44.779007 -4.139171 19.749109 141.196182 171.270172 42.663589 39.126770 -11.239502 42.287228 36.220612 21.313906 15.025349 -139.203461 -17.553265 73.672432 107.253166 142.941757 66.408463 2.097842 -32.677193 22.648239 168.051254 -14.284779 -15.519754 127.197479 -51.641605 -59.993362 99.027031 -7.401483 -74.073563 90.112511 -27.092682 -52.211033 -54.511074 -23.128151 -62.513588 -112.216179 0.000000 -0.000000 0.000000 62.025932 2.958323 8.454754 103.729271 54.044060 -56.348961 -0.618664 65.156631 -137.199097 -69.668633 -25.250715 27.727163 -129.156021 -3.437956 -121.386803 -158.288162 60.054779 140.813339 -19.927513 60.241348 120.752716 15.310781 -34.321686 110.673958
-21.170866 -8.010183 13.398541 -150.026917 -71.082321 41.350037 -4.351153 19.217747 143.318359 168.622131 40.005219 35.317387 -7.615711 45.238670 40.594589 21.215008 15.705176 -135.822800 -17.401812 72.707184 108.280998 142.724976 64.904877 2.270769 -35.270855 24.361986 166.314178 -16.551908 -14.600185 126.497658 -57.952694 -61.007851 103.812004 -4.519232 -75.978310 84.739983 -29.190033 -53.959778 -56.445332 -29.240091 -63.171425 -110.223946 0.000000 -0.000000 0.000000 57.162979 8.799288 6.046826 88.282265 58.853561 -64.658882 7.349823 64.422935 -126.087410 -73.296219 -20.456326 30.285265 -132.437424 -1.036387 -121.806206 -157.473373 61.425560 143.660995 -29.992439 61.530239 112.012451 12.617681 -29.123241 109.283134
-20.156380 -9.017396 13.319733 -152.262024 -70.917793 40.238750 -5.306062 19.700592 146.798691 162.030182 36.882114 29.822611 -4.361023 49.415749 48.054264 19.503220 16.441923 -132.002930 -20.458801 72.744232 108.524239 138.378510 63.247929 1.266607 -37.793163 25.228596 167.398956 -20.221403 -13.782293 127.866364 -62.144306 -61.168674 106.158440 -9.170405 -76.992729 86.380432 -33.539680 -55.104572 -55.056187 -33.468475 -64.386612 -109.283295 0.000000 -0.000000 0.000000 54.211807 7.383023 5.769390 86.212486 57.519939 -64.727692 5.932551 63.645512 -124.656006 -76.412247 -19.821308 30.774918 -136.587738 -0.886429 -121.246773 -163.110764 61.466717 142.141602 -32.642433 61.637192 113.116325 8.633443 -29.842716 109.428268
-19.303123 -10.485223 12.979216 -154.452744 -70.469627 40.358582 -6.629449 19.203987 147.652725 161.329010 35.666294 30.217615 -7.930211 51.815369 46.004604 18.355209 17.165121 -131.559296 -20.871138 72.562950 111.053383 137.171387 60.398121 1.617418 -39.478756 28.487183 167.994431 -22.419443 -11.533918 129.445694 -66.832802 -61.812611 108.725601 -15.923903 -77.374878 90.889862 -37.594040 -55.861320 -53.610256 -39.413490 -65.417969 -106.073189 0.000000 -0.000000 0.000000 52.642925 4.265459 6.874567 85.456116 52.226135 -65.344444 15.719373 61.067329 -113.479599 -78.846634 -15.257871 33.703571 -139.678101 -1.056138 -121.146591 -172.424591 59.461544 137.438950 -34.632519 65.025307 116.747864 2.669604 -28.559727 111.874390
-17.795712 -11.928754 13.445872 -156.020996 -70.661728 36.893311 -11.225875 19.238117 149.893188 153.692749 33.020569 27.101217 -6.197127 55.522648 53.804111 14.450809 18.654785 -128.682770 -23.908043 73.890099 113.656166 130.505325 59.827904 0.912752 -45.108212 29.175331 168.983032 -28.447453 -11.165458 129.484207 -74.127464 -61.663353 113.273094 -20.347380 -78.084915 89.879967 -43.682400 -56.823761 -53.027538 -43.902332 -66.219597 -106.309448 0.000000 -0.000000 0.000000 47.278397 4.476825 6.336848 79.149780 52.266499 -65.902008 8.479127 59.948727 -115.519852 -83.981262 -15.486228 33.657040 -145.745346 -0.642573 -119.869904 -177.477127 58.469444 139.135223 -44.446667 65.001244 112.995171 -3.308072 -27.456680 109.860237
-16.809784 -13.227517 13.825702 -159.150375 -69.703667 34.982494 -15.789492 16.251041 151.941971 147.123489 31.876640 23.869900 -6.198584 58.164272 58.953945 10.408120 19.421219 -127.271126 -28.523979 74.127701 115.041809 125.292419 57.881149 0.967093 -50.993561 31.213961 169.691345 -34.031998 -10.311321 129.717346 -82.604797 -61.314980 119.703194 -27.054546 -79.040443 91.609863 -50.772854 -57.301750 -50.805729 -50.548409 -66.975655 -104.034927 0.000000 -0.000000 0.000000 42.195312 3.314523 6.306081 73.622902 50.919838 -66.412567 4.764952 58.839443 -114.173309 -89.346840 -14.253735 34.533649 -151.511719 -0.389128 -118.925606 177.221176 57.897274 140.240601 -50.391983 63.588146 113.248512 -9.077168 -28.330925 108.157524
-15.202430 -14.287779 13.845348 -161.767883 -68.149460 37.785427 -19.598274 11.328519 147.479019 149.737198 39.848640 27.573818 -16.283159 52.500797 47.778770 9.218925 17.283876 -132.272171 -24.238468 74.947083 120.363045 128.127060 56.445446 2.995502 -52.166214 33.580753 167.715469 -33.232769 -9.885798 127.721245 -86.725929 -62.655689 123.357384 -28.351704 -80.460487 90.879494 -53.443630 -58.020912 -48.477936 -52.584633 -68.255920 -101.449051 0.000000 -0.000000 0.000000 41.246998 1.031101 4.859732 65.949707 51.908665 -71.710159 -12.191135 54.121281 -126.275734 -96.038170 -18.554295 41.118683 -153.754395 1.750456 -118.389977 175.464401 56.468388 141.549942 -61.529404 65.652954 105.785965 -12.554248 -25.019567 108.402763
-12.604821 -15.796803 13.570872 -169.161255 -67.345619 37.180164 -27.806284 7.569840 149.948929 137.198578 44.875130 23.922966 -23.343206 48.404465 48.758408 0.314416 13.644822 -133.471710 -31.821476 77.023064 122.840462 121.099518 53.940819 5.268087 -62.594315 36.436054 167.720154 -42.703339 -7.290842 128.502975 -98.618279 -62.457314 130.770126 -41.255219 -80.454063 96.386177 -62.702839 -59.298981 -47.568272 -64.595070 -69.469513 -96.617310 0.000000 -0.000000 0.000000 33.785698 0.074934 5.535618 57.512646 49.446156 -71.573746 -8.903487 53.381500 -116.796646 -101.303436 -13.178589 39.999496 -159.919312 3.397435 -116.197502 170.748337 58.511833 145.651627 -66.995636 64.935921 109.865097 -21.702332 -25.034449 106.512932
-9.944749 -18.655584 12.241570 -178.490829 -67.030724 41.695766 -34.628731 0.650740 150.463821 120.857819 59.442474 13.129341 -27.943861 34.206482 49.578178 -6.291362 3.406587 -136.746475 -36.859623 77.251648 121.870026 115.888435 49.127659 4.286696 -67.214020 37.543659 167.313324 -47.047451 -4.838865 129.011765 -105.333549 -63.577995 135.959869 -40.953259 -80.736046 91.829132 -64.054459 -59.619137 -50.259659 -64.567589 -69.713043 -99.339447 0.000000 -0.000000 0.000000 30.736261 1.119484 5.294322 56.645309 49.341347 -69.201241 -7.017220 53.797668 -114.228317 -102.170372 -11.162629 38.306889 -162.557343 3.083045 -115.445129 166.770752 58.179375 145.883209 -69.782501 64.612946 110.038239 -24.126217 -24.834053 104.799873
-9.103000 -20.474777 11.446500 -178.700012 -66.898582 40.280720 -36.752216 1.104521 149.046616 119.831367 64.610306 15.027564 -33.248409 28.278496 45.649612 -8.607301 0.920486 -139.485229 -40.086594 77.738411 121.369347 115.765450 46.343540 5.969150 -70.810883 40.445782 165.107986 -48.456455 -1.935073 128.727737 -106.040665 -63.109486 134.482162 -46.088604 -79.835037 95.192261 -65.771187 -58.704357 -50.341873 -68.758339 -69.282936 -96.806725 0.000000 -0.000000 0.000000 28.362823 0.431052 5.570709 50.972698 47.364796 -72.189018 -12.415602 50.552078 -115.785149 -106.882904 -11.511250 41.685921 -164.548355 3.518626 -115.366035 163.685181 57.699089 145.628067 -73.090157 65.979736 109.743164 -27.683407 -23.728216 105.597946
-5.984741 -24.229359 9.408667 168.478714 -68.761597 46.996246 -43.633873 3.082272 146.201843 104.587616 72.778526 8.335250 -40.857460 23.204390 43.341087 -15.476915 -3.946523 -142.504456 -45.224140 80.075645 118.832451 111.633766 43.068981 7.880992 -77.343620 40.488361 163.096390 -52.864704 0.698503 128.411301 -115.802605 -64.555519 142.445282 -60.882210 -80.583092 105.744331 -73.298767 -60.179699 -45.823479 -76.087486 -70.600105 -92.416191 0.000000 -0.000000 0.000000 26.268612 -1.342386 3.086576 57.116016 47.001667 -66.572273 -15.986879 54.190636 -117.839073 -106.933304 -14.572573 37.056694 -168.853699 5.466725 -116.446259 160.741623 59.465076 145.312988 -74.422104 64.059769 110.684334 -30.075066 -26.788084 105.451515
-3.726327 -28.245626 6.584697 158.820206 -68.996727 54.539860 -46.182373 8.166763 143.758896 105.508667 79.304115 13.386355 -45.920475 17.595871 38.968094 -18.189848 -8.352280 -147.381683 -48.399940 78.359894 116.828529 110.365646 34.032001 7.601559 -80.519836 48.421059 160.973236 -53.661297 8.744217 130.379608 -121.251404 -68.212555 146.233307 -54.693966 -81.847923 97.483154 -70.703896 -63.380844 -50.240997 -76.920631 -73.097961 -94.154831 0.000000 -0.000000 0.000000 25.285646 2.449580 1.750679 56.449196 49.638786 -66.703667 -14.355931 54.624878 -117.840439 -106.274948 -15.454121 36.311169 -169.474121 4.778739 -115.328430 163.778885 59.798634 149.487015 -76.800011 61.930569 107.083824 -28.477329 -27.313583 103.187355
-2.772151 -32.057461 3.711460 152.389465 -70.807175 57.620644 -49.893974 16.226215 141.574692 110.230751 82.419044 23.378391 -51.355282 14.784966 36.992439 -22.291138 -10.204735 -151.225922 -50.959774 77.796211 115.644829 106.967987 28.529240 7.573027 -84.334419 53.169613 160.548523 -55.581173 14.309369 132.351944 -121.080360 -69.200325 145.885056 -55.051624 -80.390289 95.375542 -69.585022 -62.962803 -53.593826 -74.567589 -71.965111 -99.098969 0.000000 -0.000000 0.000000 24.204046 5.797340 2.707783 61.932537 49.925400 -61.419357 -9.078171 58.609035 -113.941719 -103.851707 -15.172041 31.215515 -171.040863 3.929480 -116.014565 161.957245 60.310467 148.398026 -74.011108 61.607407 108.903282 -28.193560 -29.554710 104.068687
-1.894469 -36.508911 0.241072 147.861282 -72.542236 62.409550 -52.650311 27.841486 137.942963 155.273300 85.693611 70.841492 -53.469646 10.994550 33.842674 -21.588903 -12.593575 -157.235184 -45.656818 77.908806 120.210159 108.628799 21.929939 8.673376 -87.799545 61.252365 156.597122 -53.714809 21.611200 134.132904 -116.058846 -71.352341 140.761383 -47.836430 -80.109917 88.814568 -65.241035 -65.141022 -56.579983 -69.074936 -73.985863 -103.133484 0.000000 -0.000000 0.000000 27.176130 7.367503 3.650854 63.925529 52.617577 -61.191422 -14.138127 58.062092 -119.898933 -102.627968 -18.213385 31.166252 -168.642059 5.934420 -114.420822 168.536682 62.799309 152.843109 -75.157646 63.072220 105.985046 -26.629549 -29.249872 105.613815
-1.395225 -41.907440 -3.745711 152.238358 -73.351509 62.328293 -54.219181 39.901733 132.637817 -169.111969 80.547279 104.871262 -52.102501 11.652461 28.721947 -17.028599 -12.435105 -163.274612 -29.175388 77.891685 132.957458 113.246384 10.142857 5.934798 -102.176346 81.007042 139.869629 -45.875233 33.885571 141.709244 -113.359474 -75.528847 139.748978 -33.296082 -79.997887 77.193901 -53.633030 -68.350105 -63.930428 -53.304691 -77.351868 -115.078430 0.000000 -0.000000 0.000000 34.079582 10.943542 4.622727 68.435425 57.511368 -61.050922 -15.531549 57.901905 -126.222389 -98.230003 -21.760746 31.092501 -163.745544 7.069175 -113.028702 174.893097 63.363316 155.210480 -78.310883 66.282043 98.148979 -22.387327 -26.637419 106.400330
0.697599 -48.502300 -7.464771 149.475128 -75.652939 61.977642 -60.490253 50.728703 128.193253 166.451981 75.901466 82.497261 -53.897770 18.492409 29.578844 -19.448448 -8.849935 -162.141953 -35.411419 80.771164 128.739914 111.284729 2.321863 7.051316 152.588745 81.512054 38.368580 -45.017941 42.115574 145.448792 -105.460793 -78.592583 131.089310 -32.064651 -79.801659 74.327721 -52.716740 -71.576500 -64.842171 -47.994286 -79.865761 -120.551079 0.000000 -0.000000 0.000000 35.878799 11.801836 4.195911 75.535309 58.113464 -56.979908 -15.990774 61.001247 -127.899719 -95.767639 -23.240068 28.098764 -163.852493 7.652147 -111.831543 -177.015549 66.337448 162.312469 -71.339165 62.161709 101.811005 -18.963001 -31.546640 104.169983
3.062470 -55.260052 -12.135442 153.686066 -75.758011 59.230350 -62.489826 55.393200 124.564362 155.432526 71.017586 69.475876 -51.122589 22.949514 31.114038 -18.518131 -6.016306 -159.665817 -18.886717 81.021317 143.730011 113.814644 -3.640489 6.090441 130.692291 74.593102 15.337146 -40.400097 46.236809 149.233688 -96.769234 -80.168762 123.440834 -23.952007 -79.722168 67.152443 -45.930279 -73.415283 -69.610184 -38.452755 -81.389610 -127.967499 0.000000 -0.000000 0.000000 38.547466 14.159087 3.786096 77.743965 60.678734 -57.589104 -16.063751 59.850395 -131.023254 -93.616600 -24.912348 28.428602 -162.162308 5.946453 -110.397331 -168.630585 66.731628 167.859909 -64.611580 56.806728 102.197746 -12.567908 -34.768330 100.004486
4.427894 -61.113079 -13.977177 149.265747 -75.186401 66.170975 -58.696640 56.950752 124.558311 148.891846 65.994904 60.424511 -46.856884 25.685196 33.624207 -16.498173 -4.103398 -156.949570 -42.745754 73.838707 116.282990 117.210129 -3.520936 8.078852 148.785965 76.755455 30.117792 -39.115528 44.516392 145.439056 -81.679901 -79.215698 110.173508 -11.971954 -78.653923 58.629288 -37.645355 -72.014145 -75.272095 -27.653429 -79.849014 -135.826248 0.000000 -0.000000 0.000000 41.164101 17.752586 3.895596 80.301025 65.309174 -56.244671 -17.558500 61.768620 -135.558731 -89.793198 -26.814585 26.208744 -157.193939 4.574001 -109.894630 -152.638977 65.626579 178.075790 -62.442322 52.385384 98.416542 -4.290936 -34.886852 94.442383
4.810871 -66.737167 -13.421185 155.556732 -74.918198 74.446716 -44.624149 58.952709 125.222641 160.845749 64.766838 61.891727 -35.457920 24.331718 31.876261 -5.140856 -3.976715 -157.205872 -33.483662 66.662056 111.189896 129.377960 7.364701 8.420463 -123.020126 82.266800 105.246300 -30.586384 36.619965 140.426193 -64.615707 -76.416527 98.838203 5.334967 -76.466103 53.843769 -22.900276 -67.834091 -78.541389 -7.471841 -75.793610 -144.875656 0.000000 -0.000000 0.000000 51.480381 18.640898 4.816916 87.922737 67.547516 -58.987740 -18.831116 56.460388 -147.099380 -81.097397 -34.272007 27.688747 -145.100769 -0.543050 -109.880249 -149.237915 61.686996 169.819489 -53.858124 52.788403 94.646088 8.401850 -32.347164 93.484718
7.062070 -73.622353 -11.453000 158.652176 -73.591873 85.002853 -28.939224 63.218639 128.212555 169.382843 63.764462 58.636593 -23.540339 25.129459 30.635735 6.322898 -2.733830 -156.093369 -30.774940 59.947540 99.293106 144.918457 25.294994 14.760768 -71.169327 62.538052 141.468933 -22.909063 24.335289 129.751450 -49.897045 -77.233360 88.539246 26.915537 -77.234863 44.130558 -13.261139 -69.301300 -78.507500 6.258144 -77.115906 -148.618713 0.000000 -0.000000 0.000000 60.317730 18.674719 2.369846 91.963890 69.054329 -65.465790 -8.877408 55.661690 -146.605515 -71.550400 -35.467892 29.548758 -136.235260 -0.059044 -109.565910 -139.398148 59.868172 169.628098 -51.716461 53.624355 88.157753 16.177895 -27.689131 93.947906
7.143204 -78.027168 -10.373348 167.078354 -75.205765 86.685745 -15.605813 63.211590 131.338333 175.428848 61.419918 55.490658 -15.777023 26.660305 29.477690 14.422148 0.357789 -154.812531 -25.396120 61.684593 94.772667 161.328400 53.056076 23.412561 -46.447788 36.758747 153.173508 -14.598391 3.287033 121.144417 -41.095547 -74.000061 85.771538 28.042147 -77.096390 52.267166 -11.138237 -66.900017 -73.121132 -3.444585 -75.526184 -131.162277 0.000000 -0.000000 0.000000 65.347649 16.189775 3.290569 102.898689 67.572884 -60.565079 -4.755922 57.530239 -147.669830 -64.026642 -35.735519 26.940603 -128.771225 -0.026314 -110.942932 -132.215134 58.703037 167.747421 -45.496464 54.402184 89.554100 22.895712 -26.686914 96.590591
8.666998 -82.087036 -9.363853 -178.601074 -76.701988 89.171074 2.576322 67.727425 133.595291 -167.405380 61.276249 56.723537 -1.528404 25.850056 26.701942 30.306862 1.172964 -155.331024 -9.317326 62.646904 94.380981 -172.287170 63.150169 34.329224 -28.591175 30.002518 152.436615 2.916884 -4.437415 116.989349 -23.207047 -73.743462 76.106125 40.433430 -77.772484 55.112518 -0.516982 -66.721291 -69.534142 2.148233 -77.123978 -122.437752 0.000000 -0.000000 0.000000 79.573669 13.854074 3.241258 111.815430 67.885651 -65.526566 6.948514 56.363338 -147.718384 -53.045055 -37.566647 31.709219 -114.953339 0.968507 -113.227142 -119.609375 58.430527 164.900955 -36.254116 57.111786 85.483208 35.100895 -24.855032 100.310776
8.936835 -87.107338 -10.675801 -160.685745 -77.490395 87.645027 22.454876 58.974148 136.956818 -157.139023 55.175964 47.919739 18.566048 30.658463 28.012291 49.135662 4.428528 -149.190887 11.317600 67.946877 99.068581 -159.383408 58.914501 30.696741 -11.678951 32.218746 153.191513 20.470278 -2.930501 116.803917 -6.771708 -70.867699 69.116730 61.970142 -76.315666 51.196224 15.116997 -65.342491 -67.546944 27.502697 -75.513618 -129.623978 0.000000 -0.000000 0.000000 98.070839 12.262927 5.651723 128.617767 67.225784 -66.461433 27.724310 53.657547 -144.337875 -35.546364 -37.366035 33.707573 -97.575645 3.096959 -114.348213 -104.623451 57.362206 163.080978 -27.144817 60.712944 78.798981 49.810097 -22.872677 103.325706
9.768411 -90.538689 -11.213456 -146.115616 -78.120232 86.216042 34.555611 51.197750 135.112198 -143.429138 53.008556 46.898949 31.775383 32.349995 27.471865 63.615917 5.550419 -147.803879 25.353788 70.557228 100.413361 -150.824066 57.762897 25.595728 4.230207 32.677937 156.375687 33.988304 -2.709627 118.099030 7.434017 -70.073952 62.209282 80.443062 -75.048767 46.765800 30.129526 -65.132408 -68.817696 44.604084 -74.693375 -133.067261 0.000000 -0.000000 0.000000 112.846428 13.128395 6.515386 144.988586 68.224045 -64.481476 44.929817 55.199097 -143.073181 -17.543337 -35.963333 30.426502 -82.132141 4.703604 -113.888252 -89.340759 58.150543 164.015472 -15.992794 63.341583 76.516014 63.157413 -22.112051 104.752342
10.322652 -94.459076 -11.149000 -121.318970 -79.932739 76.250984 49.400833 48.476177 135.636337 -125.743965 59.246216 49.842228 44.981789 27.978636 25.313374 78.869133 1.996562 -151.459900 44.988289 73.898926 106.978477 -137.462128 54.276039 22.948235 20.006268 36.089088 157.118866 48.998375 -0.196042 119.423439 16.985006 -67.938004 60.475494 88.166550 -75.297676 55.190651 43.457119 -63.783478 -67.109245 54.632114 -74.670837 -126.715050 0.000000 -0.000000 0.000000 129.879959 10.718672 8.832552 168.373093 64.668373 -58.609459 67.927467 57.540150 -138.187027 2.376680 -32.199753 28.009457 -65.561157 3.188988 -114.337677 -79.001831 56.875404 158.848038 -0.800001 65.669304 77.403198 78.424057 -21.599525 107.047592
11.022552 -95.132111 -10.500805 -107.742188 -79.032188 70.896210 61.135288 39.474995 139.418930 -124.922615 58.977360 40.425549 58.058270 28.752512 31.124868 88.046860 0.409450 -147.376709 52.183079 73.547775 106.398026 -132.638458 49.623493 18.807043 29.146023 37.461552 157.689972 57.064747 1.694129 120.963264 21.957537 -66.025490 62.111309 98.914787 -74.151054 55.208599 53.083118 -61.767471 -67.427795 64.922798 -72.521965 -127.662865 0.000000 -0.000000 0.000000 141.724564 12.305596 11.446803 -176.457153 60.049549 -53.904255 96.590530 60.309635 -121.392082 16.365055 -24.093590 25.344101 -54.484390 3.068191 -114.676582 -69.181358 55.451519 159.025192 4.898507 65.932968 74.174156 88.821716 -19.898272 105.586754
12.272664 -95.612511 -10.054893 -89.554405 -78.285332 61.995934 72.044075 33.670628 141.156403 -120.782104 61.515491 33.141476 71.030289 27.489040 35.602127 98.197479 -2.582725 -145.515289 67.525169 74.901443 113.585609 -126.333664 50.617664 14.562505 41.331470 36.099251 160.252670 66.357841 0.147944 122.223137 27.764191 -65.596100 61.614258 108.331757 -73.954552 56.166241 63.033466 -60.770733 -67.023285 76.522011 -72.009224 -128.719528 0.000000 -0.000000 0.000000 152.958374 11.784761 12.204014 -164.164795 56.696030 -52.282627 117.870705 59.724220 -111.297493 28.125843 -19.733273 25.187099 -44.110115 2.670794 -114.392616 -62.319267 54.766052 156.160126 13.883935 67.592003 73.876343 98.175339 -19.134750 106.703079
12.574482 -96.126892 -10.051379 -79.238983 -78.455505 55.623489 78.167885 29.117617 142.826538 -123.116890 69.798279 24.823362 76.404800 22.233913 37.498856 102.574509 -7.954789 -147.507248 73.862038 77.145065 116.035492 -122.361572 51.660473 12.972459 46.936218 35.159237 160.485672 70.803734 -0.971459 122.409302 31.326181 -64.440880 60.838669 109.746078 -74.421967 59.451920 67.246490 -59.835476 -64.802887 79.737053 -71.588516 -125.779053 0.000000 -0.000000 0.000000 158.398712 10.442950 11.880263 -156.099594 54.157494 -50.510208 129.616562 60.311642 -106.580658 34.795994 -18.761864 24.465727 -37.438206 -0.159445 -115.106651 -55.725075 55.848137 155.063400 37.175003 65.054260 88.512291 106.690582 -23.759739 106.322258
12.585753 -92.620689 -10.729140 -81.602158 -77.478416 60.019127 81.084549 24.650877 143.575928 -131.886505 73.363297 13.537894 79.201157 19.649988 39.548386 103.590607 -11.090177 -146.946274 68.116066 76.775070 107.445770 -120.189339 48.357231 13.333718 46.693474 35.645535 156.515320 71.436989 0.377332 121.441322 28.856543 -64.546455 65.879433 112.829430 -75.213623 60.155807 66.864281 -60.625553 -59.958023 77.934418 -71.626801 -120.860748 0.000000 -0.000000 0.000000 162.707748 10.729018 11.525156 -147.350708 52.109856 -46.077682 137.941483 62.753368 -102.000565 41.383781 -16.763216 20.556711 -33.111660 1.532672 -114.321259 -45.588940 57.715038 161.070496 45.469692 59.759922 92.050507 112.925896 -27.249332 101.655960
12.727343 -91.891357 -11.102445 -73.986443 -79.055885 57.269878 85.522720 23.022295 142.198853 -143.595276 81.882530 -3.037683 82.903175 14.341353 38.700783 108.222488 -16.202105 -150.825485 73.442818 78.831650 107.397865 -114.132416 47.355774 13.185720 50.632938 36.237469 153.904129 76.731018 1.558669 120.783493 32.819736 -63.229439 64.567009 110.002769 -74.633461 68.484116 70.353531 -57.981785 -56.421532 80.213760 -69.509644 -116.315613 0.000000 -0.000000 0.000000 167.991882 7.948061 11.608225 -136.692459 48.576233 -43.338966 148.130829 66.451363 -100.510086 50.467354 -16.307461 17.760260 -26.107668 1.124033 -115.557251 -43.594921 58.379902 156.356262 57.627865 60.078693 97.113380 119.494133 -29.383410 103.479454
14.682664 -91.529099 -12.884221 -68.878448 -78.207222 60.731380 90.351921 19.270575 136.765564 -117.149193 85.581902 15.130307 90.262932 11.422153 36.267208 116.319626 -16.872982 -154.901779 88.036278 76.183296 113.175629 -108.519844 40.719715 9.027126 57.147167 41.879997 155.059845 85.666626 6.686907 123.708931 43.305557 -63.826275 60.258667 119.326797 -68.589073 69.019455 86.467354 -53.292198 -62.840569 95.782814 -64.236443 -122.884682 0.000000 -0.000000 0.000000 178.172470 14.491418 17.481852 -126.364868 47.575264 -38.753014 170.277298 65.213768 -88.337799 60.214279 -12.444803 15.663926 -14.834531 -3.308487 -119.144348 -32.875294 56.264278 153.952057 74.513298 56.640175 98.442558 135.057022 -29.647648 100.526314
12.461071 -87.104767 -13.190947 -67.877129 -77.805519 56.888683 90.494804 18.451841 135.692917 -93.554482 80.075386 39.726925 85.126572 16.841635 31.701931 114.118202 -11.752744 -153.392609 74.633133 83.321274 100.173561 -108.078674 43.139084 9.236490 56.258751 40.553905 153.806351 82.237404 5.074907 123.642723 42.329895 -61.454514 58.781731 110.319641 -72.575508 77.286591 77.925148 -54.893337 -54.917076 85.321999 -66.664787 -113.161903 0.000000 -0.000000 0.000000 178.061844 11.015798 12.803123 -121.077370 46.623688 -35.307297 177.900314 73.118996 -80.311554 62.151390 -11.767786 9.375465 -15.966963 0.038775 -118.183914 -28.157852 61.792183 159.228455 76.185684 53.213657 103.380348 132.241898 -33.628792 99.703339
12.521768 -86.189110 -12.855996 -70.524071 -79.081970 62.145897 92.324326 18.715143 132.797058 -79.235321 79.507385 51.865841 86.620880 14.915539 29.257999 116.157776 -11.511742 -155.815277 62.473152 82.997330 83.394676 -106.155640 40.205475 9.158506 58.250122 42.722866 153.932205 84.751297 8.133382 124.487808 53.807720 -59.355579 49.123184 115.816025 -67.635025 73.756721 85.830856 -50.626923 -60.018265 94.062714 -61.348316 -119.180695 0.000000 -0.000000 0.000000 -179.604568 15.174104 16.300837 -118.465263 50.819366 -32.372795 166.351074 76.613075 -94.542740 63.880322 -15.204150 7.008651 -9.260675 -5.596028 -120.776802 -13.222078 61.831219 166.104416 88.485481 45.931454 106.085381 144.497238 -36.190910 93.592369
10.890762 -81.954094 -11.926073 -61.742023 -80.217888 54.209576 92.365616 19.037325 129.112488 -71.985184 74.753136 56.006145 86.744484 18.210348 26.696823 118.925476 -8.186615 -156.701569 39.825634 85.319939 58.089264 -102.271294 39.907497 10.338289 58.261391 44.763424 153.381180 87.242638 9.799163 123.650574 59.687397 -57.800621 45.389732 114.119553 -63.648800 78.644119 90.518852 -46.474274 -59.450077 94.956657 -58.956909 -116.450584 0.000000 -0.000000 0.000000 -176.848328 14.668593 20.348660 -117.915894 47.049278 -34.762138 177.030487 72.403954 -88.763123 64.683861 -14.397981 9.397370 -3.362799 -7.059574 -124.048424 1.500910 63.156792 171.943817 101.338470 35.745117 107.668098 157.617386 -41.869183 87.491867
11.197995 -75.647194 -7.541250 -56.032112 -81.597183 52.730877 95.919174 23.706097 127.930672 -72.731361 69.509865 52.330360 88.525703 21.429844 24.603827 121.081116 -5.058956 -155.572372 -16.447220 85.513847 -2.878602 -99.682938 41.272003 10.221759 64.181091 46.714516 156.168991 89.678230 10.421524 124.995056 69.496300 -56.381363 35.863323 119.240845 -62.862495 75.411392 95.607315 -46.401512 -62.159981 100.391945 -58.804745 -119.875351 0.000000 -0.000000 0.000000 -175.839310 17.375895 19.389772 -121.523041 54.135311 -38.039394 142.682266 72.249504 -122.910049 62.858799 -21.505144 10.856721 0.053589 -10.595916 -123.696999 13.944094 62.352627 179.373047 105.667328 31.364363 108.039146 164.616531 -42.254395 83.007484
9.380829 -70.626869 -2.514364 -64.340469 -84.367859 63.186195 95.556122 31.414503 126.532112 -66.849579 66.937500 58.052361 87.446999 23.073824 22.752762 122.986656 -3.764546 -157.211914 6.101756 83.187096 16.596697 -94.801926 39.612610 15.194273 61.269119 48.390877 150.725937 92.029274 13.326687 121.796165 72.413155 -56.948299 30.584267 120.676781 -63.290001 73.196899 95.759666 -47.288525 -61.576172 101.311951 -59.963139 -120.750763 0.000000 -0.000000 0.000000 -175.600632 14.173988 17.944448 -124.282707 56.356915 -42.496872 124.325676 68.047447 -142.004791 60.888283 -27.256126 14.682472 1.351815 -8.239794 -121.631958 17.220612 62.250118 -176.748016 105.213722 32.957718 107.960922 164.646805 -42.535225 84.171371
9.338849 -65.862450 1.715196 -90.449936 -84.155312 89.973717 94.706390 39.956852 127.928009 -72.623161 62.083065 53.857632 87.174271 27.047287 23.227446 123.192451 -2.887173 -156.268524 55.072193 74.676300 62.477680 -93.517845 27.478470 20.647978 45.981220 53.823582 135.807037 92.635872 21.153166 118.860893 67.218666 -59.499199 34.341488 122.599190 -62.430054 70.615005 96.189026 -50.022938 -63.725708 101.476723 -61.976952 -123.288017 0.000000 -0.000000 0.000000 -174.901672 17.425575 18.484936 -132.153168 59.294785 -47.263351 127.374466 63.091423 -135.410309 55.749504 -27.787344 18.428257 -0.496594 -4.540901 -121.427094 23.259790 63.456093 -169.228058 102.982262 33.482864 105.318626 163.173996 -41.936447 83.702629
9.673451 -60.912914 7.532998 -130.426071 -82.628815 138.451096 96.817947 51.079079 124.479622 -59.110344 63.025074 64.412849 91.847107 23.554947 21.980661 128.208557 -5.092031 -159.630020 79.342751 58.169628 75.401772 -87.851944 15.307323 24.163643 34.236710 54.878860 115.844711 98.575829 29.831388 115.444267 70.472923 -60.943375 32.292843 129.835754 -60.410339 67.122795 101.148880 -48.818977 -66.343338 109.151772 -60.033115 -129.798981 0.000000 -0.000000 0.000000 -172.180405 16.463533 16.830706 -135.823914 60.701710 -55.336857 119.090958 55.722801 -146.568024 54.606815 -33.244793 24.353373 3.557034 -5.690519 -120.670197 14.375103 60.576660 -179.404968 95.929611 41.061256 98.649216 162.168320 -34.947124 86.782906
10.451907 -57.412704 10.868867 -142.499680 -77.729614 152.636276 98.340981 57.155468 123.979248 -60.446152 63.241165 63.267735 93.731148 21.677633 24.401669 128.083862 -6.441146 -159.668961 89.461212 36.435867 79.484283 -85.565987 9.246975 25.549196 31.679483 52.174831 109.886734 99.676720 31.589058 113.734589 67.269112 -61.404678 35.171421 134.034256 -59.657024 61.189793 99.228470 -49.086731 -66.894318 110.189308 -57.778988 -134.028610 0.000000 -0.000000 0.000000 -173.566498 15.642252 14.009203 -145.328262 60.619461 -64.328415 113.961761 48.345352 -149.489044 47.515388 -37.965607 31.101997 2.987265 -8.893325 -121.862953 9.548701 59.374069 177.847092 90.449493 42.607162 95.721161 160.467331 -31.766605 84.940636
9.528469 -53.369495 14.880858 -144.220428 -70.768311 152.527359 93.630783 61.978954 118.822411 -66.698372 58.970165 60.014126 91.558975 25.335094 25.963085 124.432594 -3.162825 -158.268555 92.477959 16.242676 82.393616 -87.877113 24.079847 19.906424 53.608883 46.341560 133.596405 98.969055 19.781193 116.821259 68.899361 -63.116680 31.901684 137.949600 -61.851921 53.930367 93.738304 -49.823521 -65.621727 106.706070 -57.627529 -135.949387 0.000000 -0.000000 0.000000 -177.865906 14.029099 10.280175 -158.664734 60.995159 -73.124710 106.166420 43.784565 -150.842896 38.020493 -40.831299 36.196224 0.147500 -6.228591 -120.636757 10.460821 60.942184 -176.262283 81.958244 44.896873 93.777573 153.305069 -29.176588 84.687698
9.980165 -49.399715 16.506893 -134.725189 -69.212494 151.135040 100.181175 66.446068 119.205269 -57.633423 61.041210 62.801472 98.503563 22.357462 26.939924 129.590744 -4.297169 -159.036896 101.356224 2.706682 84.928040 -78.360535 44.411079 17.444571 76.671188 32.701141 149.169739 107.009140 5.354493 117.361313 71.035461 -63.869194 32.488937 143.907013 -63.374996 53.007229 95.375916 -47.763905 -62.807983 107.978050 -56.254993 -133.843872 0.000000 -0.000000 0.000000 -174.693314 11.917728 8.180558 -158.862411 60.225700 -77.677437 106.374275 42.339596 -153.474731 39.898174 -42.717117 38.577332 4.232864 -3.517372 -119.931511 2.795871 59.848843 174.496552 72.064133 51.408142 86.335022 150.125458 -22.484097 89.473640
9.678045 -47.867641 16.538898 -128.296707 -71.004555 147.492508 102.429810 69.868210 119.508751 -55.408703 59.919296 63.129917 100.978065 23.168592 27.034069 131.420990 -3.117919 -158.345032 104.793930 1.875864 89.565041 -82.607620 55.192219 8.328176 87.740616 27.728827 158.802658 109.852928 -2.847156 121.483521 72.477081 -63.929665 32.034195 145.445541 -63.950497 53.471912 97.596275 -47.298752 -64.814178 108.938225 -56.145554 -133.894409 0.000000 -0.000000 0.000000 -174.860001 15.501736 8.240829 -160.923691 63.474220 -77.950027 106.836533 46.665993 -151.932983 42.118607 -42.034615 34.823116 4.021003 -3.845057 -121.782700 -2.586878 59.981663 168.238297 70.015312 54.438194 84.577568 147.511963 -19.547289 92.887367
9.125634 -44.981464 15.607897 -122.498978 -72.521027 142.652084 103.564392 70.806854 119.407692 -55.334515 58.678806 62.125877 101.995537 24.603062 26.735085 132.607101 -1.849567 -157.413895 106.497643 3.938467 91.608574 -86.345184 62.104801 2.865826 92.117416 23.510025 161.964523 111.074883 -8.040699 122.843193 71.707687 -64.196648 32.961056 144.952515 -65.478951 55.521301 97.855873 -47.649525 -64.076164 109.287239 -57.262363 -132.695419 0.000000 -0.000000 0.000000 -174.034866 15.950360 8.231376 -154.750977 62.586884 -72.919868 112.815590 51.563354 -147.451950 46.329380 -38.777084 30.590956 3.911620 -3.284034 -123.507988 -6.642128 60.988453 162.953751 71.871956 55.804836 85.118935 146.360199 -19.570717 95.275093
8.943576 -42.183121 14.646700 -115.546967 -73.635956 138.578308 109.529045 70.836914 122.237175 -54.462994 54.615841 59.668335 104.684669 27.952042 25.492128 136.605225 1.424989 -155.825470 110.468735 4.449220 92.545227 -84.481079 60.004147 0.262966 95.930336 25.331369 163.632629 114.785400 -6.829029 124.927277 71.720863 -63.863129 34.457371 145.786484 -65.336655 58.226051 99.801613 -46.899345 -62.799717 111.885933 -56.930260 -131.709686 0.000000 -0.000000 0.000000 -170.045502 15.156562 9.082570 -146.695358 62.495842 -68.410751 116.613800 54.165607 -147.038620 51.974503 -37.905777 27.779303 5.813773 -2.882482 -124.792778 -11.840070 61.598251 155.608902 74.762566 59.026291 85.842934 146.755341 -19.624903 98.605392
9.062979 -40.349571 14.082000 -114.904808 -73.877960 138.706284 109.717293 71.423096 120.340012 -55.553551 52.690632 57.296547 105.767265 30.181059 25.760145 138.490250 3.468362 -154.101974 111.839211 6.472700 91.289223 -81.428612 60.510654 2.343528 96.179359 24.785013 162.462479 116.087593 -6.656133 124.452057 72.921959 -63.762718 33.687946 144.884399 -65.615456 61.490643 99.733902 -46.478455 -59.793007 113.403473 -56.574028 -130.558212 0.000000 -0.000000 0.000000 -166.655746 12.216558 9.718809 -137.137390 56.788212 -63.672478 127.492928 56.557823 -140.431976 57.404625 -33.042027 25.512440 7.460553 -1.267770 -125.351105 -14.714481 63.281948 151.049500 80.283722 59.817322 89.060928 147.429413 -21.675014 99.716225
9.203439 -38.760498 14.248310 -117.018684 -75.142952 142.233124 115.235168 71.946480 124.556244 -55.735085 53.329247 55.415432 107.595032 30.302197 26.615191 140.569901 3.073409 -153.526138 112.796516 6.957536 89.961334 -78.080193 58.959137 3.760258 97.066658 25.528872 161.534378 117.882233 -5.737958 124.565956 74.529137 -61.862041 33.782413 141.953735 -64.538521 67.276688 100.204285 -42.762901 -57.500332 112.319214 -54.569160 -127.440132 0.000000 -0.000000 0.000000 -164.667130 10.931903 9.961506 -130.860519 54.374790 -60.410210 130.752655 60.511993 -140.637939 62.018330 -31.161304 22.474428 9.783574 0.854575 -126.427925 -20.185257 63.292549 144.069839 78.716827 64.031441 87.375404 146.354187 -20.594318 103.789162
9.180092 -38.925102 15.225458 -126.411705 -76.138489 150.734467 113.687714 72.878349 123.385307 -56.042160 54.456600 55.579327 107.132332 29.246044 27.169399 139.665848 2.310766 -154.010773 112.083786 7.753963 89.223915 -77.335815 59.037437 5.124559 96.652802 24.672501 160.967361 117.838821 -6.100976 124.502274 77.982094 -59.128757 30.116852 138.497772 -61.750450 70.490715 100.423607 -38.664448 -57.935326 111.516640 -51.070179 -126.885406 0.000000 -0.000000 0.000000 -165.196747 12.692507 10.823167 -126.809608 53.409008 -55.441349 135.812149 66.737015 -136.630859 64.611710 -27.539503 17.220266 10.816241 1.671879 -128.975906 -26.241171 63.860554 137.558701 80.170792 67.468842 88.871864 144.426498 -19.445564 107.209023
8.894791 -36.970722 15.096039 -125.848381 -76.981140 151.296890 119.280060 74.260666 129.510910 -56.405350 53.967651 55.151966 108.591187 30.285866 28.432554 141.170395 2.569138 -153.103195 112.098656 5.786975 89.771759 -77.063927 58.428200 4.556783 97.778816 24.898373 162.264175 119.076561 -6.512217 124.970253 79.210793 -58.595798 30.271355 137.818802 -60.690228 71.919418 100.500931 -37.134140 -57.992725 110.158035 -49.507481 -125.811661 0.000000 -0.000000 0.000000 -167.165848 13.262927 10.189098 -134.339966 57.231014 -59.830765 124.589813 62.551926 -144.248474 60.473965 -30.376177 20.712620 10.054550 4.904013 -128.517258 -32.089062 65.480042 133.046326 78.024612 71.059189 88.515694 141.476013 -17.676064 110.940155
9.179342 -36.269131 15.293873 -127.601326 -77.054840 152.806900 119.726662 74.274536 130.815979 -57.566319 53.590294 54.594128 108.745773 30.739143 29.336342 140.419891 2.565568 -152.290466 111.526352 5.378878 91.091415 -80.913757 57.381691 0.634807 98.857895 25.385185 164.585587 118.617912 -6.274021 126.495789 81.702011 -57.827320 28.666294 137.579956 -59.088528 71.701302 101.576729 -35.379402 -60.437641 110.235634 -47.984123 -127.400513 0.000000 -0.000000 0.000000 -168.931076 14.887525 11.001126 -137.236374 58.085720 -60.742008 123.104492 61.926914 -144.098083 58.526253 -30.582565 21.835922 8.933962 3.962469 -128.698303 -33.164021 62.546459 133.215912 67.356438 72.877365 80.028572 140.428787 -14.518201 111.558243
8.627312 -36.925865 15.067788 -128.673828 -76.736763 151.845306 117.689186 73.187088 130.522049 -58.300133 53.685108 55.437634 106.894661 30.088428 28.885782 138.114410 2.153747 -153.223495 109.442825 4.946951 91.521042 -86.148476 59.359501 -2.860317 99.314949 24.100967 166.910995 116.983955 -8.047028 127.579849 82.170761 -57.659103 26.708170 138.221497 -59.297806 68.397804 100.882500 -35.811886 -62.689774 110.164970 -48.266094 -129.262955 0.000000 -0.000000 0.000000 -171.880798 16.939154 10.285982 -143.995422 61.830166 -63.502926 118.217598 61.357346 -146.151672 54.834808 -32.689629 22.333565 7.599875 2.459834 -129.310806 -33.662598 63.684322 133.786667 71.647324 73.326965 85.153114 139.002274 -14.338003 112.480789
9.327416 -36.837799 15.075738 -133.015579 -77.404846 157.418549 118.094940 75.771797 131.429184 -56.535107 55.859818 56.923840 108.354492 27.804480 30.248549 138.510147 0.273299 -153.203857 110.603363 5.015590 93.886078 -86.417992 58.039356 -4.569520 102.224045 24.689024 169.165985 118.340462 -7.101231 129.283813 85.447685 -54.939911 24.031305 135.963577 -56.287575 69.829910 102.159103 -33.094044 -64.483574 110.877304 -45.021572 -130.761963 0.000000 -0.000000 0.000000 -174.320984 15.315970 11.026649 -152.128479 62.287502 -70.386848 108.759750 53.342926 -153.024994 48.709572 -36.855141 29.055447 7.405755 0.702486 -128.933685 -35.242924 61.659630 132.965912 69.929375 74.454735 84.496223 139.910355 -13.661989 112.637291
8.468928 -35.300014 14.240100 -122.853989 -78.279839 148.414459 125.375854 74.672737 138.710556 -53.944950 53.353031 57.686455 108.864761 28.568390 27.080853 140.257492 2.216860 -154.436691 112.017647 4.891577 95.018120 -81.770691 53.992371 -1.647659 102.988602 29.277132 169.720200 120.616158 -3.373948 129.780273 83.715965 -56.035656 25.938557 138.823822 -56.183750 66.072693 103.752403 -35.303902 -66.946472 113.120186 -46.191795 -132.713165 0.000000 -0.000000 0.000000 -174.156372 14.410924 11.594603 -159.342804 67.265846 -76.997078 100.136932 45.592564 -160.605896 44.127819 -46.174236 35.097839 6.691988 -6.490882 -128.816284 -35.248924 58.123867 132.871460 80.899483 72.827477 93.417755 142.682098 -16.715343 112.527184
7.523680 -36.414669 14.826257 -136.243164 -77.539116 155.595215 111.561295 76.181107 130.169998 -59.852428 53.358791 57.855335 103.254120 29.501373 28.624922 133.700119 2.113615 -153.939423 106.288361 6.447104 96.731346 -96.066124 56.225307 -10.091702 101.028908 26.553732 173.121613 113.649170 -6.361127 132.104111 82.304680 -54.371021 24.652924 132.970779 -56.303581 67.180801 98.377205 -34.247337 -67.037086 106.453964 -45.892754 -131.865799 0.000000 -0.000000 0.000000 179.400391 15.403125 10.108406 -169.077545 67.746231 -80.056389 93.308968 46.541420 -161.090363 38.595711 -44.274166 33.366119 2.115466 -2.979344 -127.896523 -35.979153 61.198586 137.376633 68.791641 72.825294 87.422043 136.578644 -14.821754 111.542923
7.052976 -35.067989 14.778185 -135.939438 -77.594872 153.571869 105.406319 77.697525 126.317955 -59.555328 52.445709 60.342442 100.878838 29.586668 26.935907 131.582596 3.087045 -154.668930 105.254242 6.327621 98.751884 -97.403145 56.373230 -9.707911 99.862450 27.232094 173.457474 111.895851 -5.541843 132.207657 81.557274 -54.461994 25.083412 129.982391 -55.566780 66.619835 96.460861 -34.931900 -67.816315 104.366714 -45.521645 -132.548538 0.000000 -0.000000 0.000000 175.737915 11.594667 10.646853 -177.352341 66.680077 -86.507858 86.582565 35.413448 -163.930771 27.043356 -50.121498 43.953346 -0.939555 -8.806168 -127.354439 -36.610161 58.414387 139.141571 75.766251 68.152153 94.645264 138.030350 -19.156946 107.711357
6.128682 -34.494915 15.294254 -145.421707 -78.049957 161.001144 99.165367 78.286949 123.200935 -61.810890 52.925770 61.168804 98.955338 29.679892 28.170635 128.093491 2.425538 -154.175064 102.867218 7.256338 101.609558 -103.799660 53.577320 -14.330234 99.848991 28.507126 177.234116 108.898376 -4.751117 134.604095 82.474907 -52.974617 24.249531 127.407219 -53.672421 66.965759 95.850845 -32.328800 -71.242439 101.992203 -43.714363 -134.370117 0.000000 -0.000000 0.000000 171.740250 14.822337 11.725849 175.399200 64.738937 -89.012436 88.985168 37.881115 -158.236374 22.866474 -45.257355 45.766453 -4.232050 -9.893894 -127.810081 -37.821957 53.434044 140.834412 56.404346 70.218857 80.340622 134.875122 -13.603062 107.870926
5.380098 -32.171181 16.144949 -151.807709 -78.424950 165.039276 99.192711 79.043556 125.584984 -63.900875 51.123314 61.598412 95.747490 32.121262 26.519457 126.599495 4.535198 -153.929794 100.322144 8.607701 100.958344 -101.954491 49.093342 -10.071334 95.819557 33.897606 175.477005 106.801323 -0.282550 133.986389 79.886765 -52.982273 26.394381 124.405411 -54.207504 68.175308 92.568634 -32.307659 -70.204796 98.995094 -44.183666 -133.213287 0.000000 -0.000000 0.000000 169.724152 12.132045 11.927145 175.103256 62.628159 -88.484184 87.375122 35.709129 -158.054047 19.284645 -44.913151 48.930801 -7.291338 -10.737257 -127.288994 -42.420696 51.011238 139.360916 48.953285 71.847023 76.561958 131.573074 -13.294820 109.079231
4.292614 -29.298590 18.843647 -158.652740 -80.546181 171.391083 98.966019 80.943298 126.737320 -63.023746 51.555904 62.645321 94.457520 32.763519 25.043196 127.831825 5.304739 -154.995422 101.161705 13.433952 101.794258 -99.336433 45.978168 -7.197218 94.491585 38.453876 174.446182 108.038040 2.665517 133.794281 75.706589 -52.828148 29.680035 120.376686 -55.320873 72.592812 90.156662 -32.777000 -66.839020 96.792770 -45.484325 -129.722977 0.000000 -0.000000 0.000000 170.626266 8.127335 12.213452 -177.128189 62.387585 -82.837135 84.783798 35.552086 -161.570938 21.777235 -46.519478 47.285091 -8.175887 -8.098294 -127.662178 -48.394917 51.075974 134.757263 47.141521 75.020477 75.154770 129.284729 -14.766874 112.289551
2.027343 -27.256264 22.231354 -170.410019 -80.877235 179.671448 100.240776 79.943336 131.307159 -68.131073 51.812752 60.369476 91.755142 33.897705 26.200783 124.323227 5.050364 -153.467026 97.314987 16.636986 100.590851 -102.419975 46.256901 -4.876920 87.445496 38.436539 170.476776 103.274422 3.386366 131.364807 71.920074 -52.198364 32.901440 116.187752 -56.061737 75.412743 87.039444 -32.251770 -66.280472 91.901566 -46.576912 -127.714157 0.000000 -0.000000 0.000000 168.534241 10.268804 13.354536 -173.303589 58.829651 -76.816719 91.152237 43.243355 -154.874481 24.700554 -40.036873 41.744602 -10.081622 -7.147089 -128.720261 -45.476715 49.946682 138.131927 39.837021 71.247696 69.762024 128.606705 -13.644556 109.784409
1.369742 -24.849915 25.267342 177.214691 -84.917397 -164.612228 121.482635 75.408279 150.785034 -69.549889 51.213261 53.244690 98.177612 35.564461 29.225636 129.619888 4.523797 -149.732956 100.560562 23.500727 100.086113 -95.086845 38.352200 0.352472 85.402222 46.057682 166.313431 107.513596 9.526469 130.581039 71.573570 -50.604256 36.384571 117.170288 -53.965893 80.038284 91.210091 -30.141983 -65.813431 94.464920 -46.052975 -125.799629 0.000000 -0.000000 0.000000 173.363342 12.745094 15.776909 -161.400726 60.606064 -68.681587 95.794693 49.172596 -155.982193 35.387993 -39.339943 34.676853 -7.128557 -7.108232 -130.410721 -46.000565 46.075600 134.011215 34.202854 73.109985 60.685131 131.823029 -12.038779 113.242760
-1.606905 -22.092752 26.746885 179.032913 -85.873505 -172.046967 122.055908 71.619301 156.424774 -81.456619 50.149986 44.394005 97.004425 39.055489 35.982277 125.644142 3.683852 -144.150085 94.778214 28.055542 98.993713 -102.734085 39.439404 -0.367131 78.728729 43.592648 163.952835 100.534447 7.727593 129.787155 64.213165 -50.902523 41.058968 108.685898 -57.727947 86.566299 84.470306 -32.614643 -59.667515 88.086044 -49.504520 -121.255272 0.000000 -0.000000 0.000000 171.519867 6.592263 14.214526 -157.661453 50.616325 -65.942245 106.212051 51.300274 -143.788605 34.507744 -31.345064 33.986835 -11.015654 -0.398112 -129.482590 -47.313866 51.363483 135.633575 41.534138 69.780594 70.824966 128.011063 -15.978888 110.437881
-3.127587 -18.206715 27.486740 -178.173355 -87.495399 -176.712784 124.997108 64.940971 161.597305 -89.184204 52.198132 36.459797 99.106323 36.605690 40.389172 124.007851 0.175702 -141.576370 91.655624 29.934019 96.927353 -101.480957 36.692417 4.067817 72.916260 43.835911 158.821976 98.146255 9.445202 127.741447 60.902653 -49.940575 45.159031 106.295654 -57.385933 88.258392 83.195419 -32.246197 -58.481590 87.128159 -48.679546 -120.458420 0.000000 -0.000000 0.000000 172.223892 7.242044 15.548625 -150.549606 46.924488 -60.173229 116.187721 56.626427 -136.289337 39.057373 -27.896517 28.673035 -11.203223 -2.817647 -130.877579 -47.111324 49.474907 135.275070 49.121460 67.220139 77.448692 129.464355 -18.139799 108.598564
-5.312387 -15.849317 28.648233 171.678360 -87.862198 -166.631180 123.147263 58.783718 160.687836 -94.739532 57.598179 29.950874 100.443748 31.548183 43.323505 123.037361 -5.254174 -141.103775 89.837975 32.230042 94.872208 -100.076729 34.443390 6.950148 68.984024 43.284969 154.015579 97.497780 10.729789 125.950005 58.683914 -49.203747 48.374199 105.015198 -57.410671 90.987755 83.193176 -30.464050 -57.008644 86.550072 -47.902283 -118.625526 0.000000 -0.000000 0.000000 174.297195 7.587993 15.877019 -144.506226 42.084808 -56.851627 139.071793 62.191345 -117.416840 44.641705 -19.923704 24.879526 -9.835006 0.960589 -131.291046 -47.189995 48.291019 135.112961 32.563927 69.032387 63.144623 128.130219 -14.261322 109.924049
-7.927492 -11.490467 27.685963 166.352356 -86.898643 -166.681274 119.023804 58.175148 161.096619 -106.684479 61.920372 23.818460 96.028137 28.150940 44.583130 117.105942 -8.692425 -141.802917 83.578926 36.201469 92.919128 -103.911438 31.732756 10.253191 61.257637 44.810226 150.135941 92.036102 13.424463 125.080093 54.682209 -50.113632 48.837074 102.071327 -58.514561 88.539017 80.289902 -33.690670 -58.550362 85.369789 -49.276936 -120.715416 0.000000 -0.000000 0.000000 172.874588 9.868873 16.716396 -139.316422 41.208324 -49.908714 147.448166 68.046692 -108.139282 46.968311 -18.720011 17.843502 -12.824285 -4.221084 -131.725967 -47.100597 47.781643 137.896362 45.473404 65.157188 76.498131 128.166931 -18.275328 106.143951
-9.804831 -8.651698 25.410379 178.526001 -85.496071 -176.536667 116.265343 54.483063 157.008194 -111.737183 70.546921 17.820284 95.258804 20.212057 42.538910 118.977379 -15.382283 -146.417053 82.234970 37.554375 88.160362 -98.499992 24.302143 16.614319 53.276089 47.082165 139.251419 93.131554 19.368984 121.105759 54.769173 -51.357269 50.561855 105.008308 -58.247124 86.571419 82.699562 -33.336422 -57.196922 88.774139 -49.027107 -121.209648 0.000000 -0.000000 0.000000 176.549515 5.744660 17.105440 -134.121735 36.271847 -51.436756 147.689804 66.341309 -113.358452 51.319050 -19.505564 20.541285 -9.115512 -3.644986 -128.776855 -41.806213 45.192841 142.337158 39.180534 64.263809 69.993446 132.254379 -18.314947 103.720764
-12.991655 -4.585123 21.780279 -163.406357 -82.325752 163.542465 110.289345 52.900799 151.644867 -113.087631 72.118019 18.729652 91.979866 18.460505 40.469723 116.972168 -16.252554 -148.712387 77.453247 34.998276 82.733810 -97.584427 20.679785 22.781883 43.782310 44.593960 130.241211 89.246918 21.751921 115.924103 52.071507 -54.167347 51.756454 108.543419 -60.229488 81.436371 82.040535 -38.178944 -57.715565 89.102966 -51.265900 -122.822578 0.000000 -0.000000 0.000000 177.485138 8.054939 15.830771 -130.719742 38.039135 -48.473629 144.380432 68.960815 -116.854675 54.226154 -20.279118 16.630859 -9.686905 -3.911172 -125.959114 -34.211353 47.778938 150.734711 45.630245 58.372334 74.963326 134.779953 -20.533855 97.844604
-16.452587 -0.373179 16.097467 -155.279465 -78.515488 154.130127 104.293182 54.807148 145.441391 -101.104332 66.687057 32.728687 87.982765 23.475185 36.255939 115.594475 -10.818282 -149.819611 73.510437 29.833925 77.729668 -95.613876 17.209574 28.706791 32.795933 42.735046 120.831879 84.949112 24.713886 109.546577 50.591679 -58.679596 50.687851 115.243752 -62.751141 72.810501 82.135574 -44.198658 -60.890549 89.345810 -56.412594 -126.577774 0.000000 -0.000000 0.000000 177.860184 10.662433 14.096422 -130.817352 38.925503 -48.343815 143.976257 66.184708 -116.198608 52.948093 -21.995701 18.844788 -12.752179 -5.742474 -121.916473 -28.459217 43.031307 159.164124 36.512096 51.616753 68.938889 134.967682 -18.257526 92.474319
-20.251471 1.757059 11.600698 -172.859695 -75.763573 163.728333 96.164970 57.861668 143.181610 -107.558235 62.819366 35.365593 79.326630 25.212484 34.954311 106.216942 -8.613297 -149.190033 61.949955 26.078997 71.649147 -100.133720 17.636560 35.908997 23.331287 38.483265 116.705528 74.743164 24.713516 104.144279 53.243458 -57.664192 43.238033 115.005371 -59.622059 63.197479 79.080597 -44.766239 -68.801529 87.641640 -53.777630 -133.948578 0.000000 -0.000000 0.000000 170.427521 20.580641 15.535093 -130.343781 46.135960 -36.717216 125.346558 77.087364 -127.874939 50.609962 -24.874676 7.586587 -18.642149 -14.035084 -122.353401 -28.677120 39.793671 164.295105 37.395390 47.482422 73.316368 132.343445 -17.960581 88.605606
-23.250204 4.641619 9.499173 -168.633636 -73.129639 157.402985 91.269165 56.045757 138.371445 -102.710144 56.515728 42.709167 74.821976 29.726353 30.412769 103.474167 -3.014122 -148.724960 59.443260 20.821150 69.608330 -100.480766 17.014147 40.265106 19.292349 35.382572 114.892609 70.050499 24.094463 100.031433 53.974445 -59.357021 42.252834 119.553215 -58.847290 56.390995 79.397484 -47.739758 -72.783546 88.135445 -54.234241 -137.510635 0.000000 -0.000000 0.000000 167.593399 25.558281 15.404433 -136.831100 51.823021 -38.582077 117.188683 72.428307 -132.182907 45.556087 -26.693989 9.300181 -20.472738 -17.517881 -121.225189 -23.053720 38.385666 170.220444 41.133980 42.174240 76.923561 134.143845 -18.149084 82.829384
-22.174612 6.784923 9.917899 -161.078354 -72.705498 154.215134 93.692307 56.894638 137.253876 -97.301750 55.673111 43.873703 79.067284 31.002447 30.379507 108.608521 -2.626571 -149.915009 64.008461 21.300627 71.637199 -98.611389 18.309845 36.014736 22.912977 39.448570 117.054352 75.742279 24.986324 103.631462 61.056606 -60.954029 36.863682 125.564987 -59.250641 53.231369 85.203110 -47.606297 -75.546143 94.401627 -56.454224 -141.361099 0.000000 -0.000000 0.000000 168.322296 22.221458 13.539352 -143.444275 55.283192 -47.333286 106.413628 62.179482 -143.809677 41.501385 -33.083492 19.330137 -19.376450 -15.556429 -118.663757 -24.509722 38.621418 168.051743 37.363773 46.500866 72.982010 133.300522 -16.343014 86.939430
-23.798397 9.727941 11.429364 -161.176025 -72.415878 154.312073 92.241226 59.840885 135.222397 -95.752098 53.972153 46.256039 78.568626 33.296844 28.793530 109.898499 -0.730862 -151.046417 63.386116 23.509848 70.974586 -99.143822 17.669939 35.744274 19.175634 42.434898 114.530334 76.490837 27.673418 104.513054 66.203972 -62.263412 30.922163 128.243958 -58.921700 49.341682 88.199654 -49.384186 -78.509491 99.462875 -57.746456 -146.041000 0.000000 -0.000000 0.000000 167.979843 21.166611 13.202042 -145.782089 57.091167 -49.499054 98.550102 55.975552 -151.320572 38.534897 -38.418690 23.116310 -20.616714 -19.716234 -118.350189 -24.861515 38.889545 167.444214 46.651199 45.285786 78.393654 136.327408 -20.117310 85.918396
-25.307150 11.017146 13.871346 -166.720718 -70.674622 161.213226 89.943466 63.714554 131.828369 -94.894485 57.687069 47.079769 79.520554 29.721432 30.730190 109.375000 -2.942873 -151.435928 64.802963 19.120726 70.238007 -94.387062 24.267054 39.789608 26.937918 37.043972 119.949707 77.102234 23.022770 101.632133 70.727646 -61.344334 26.459198 129.101044 -57.673496 48.949383 88.278419 -47.552517 -78.148102 99.140991 -55.223816 -145.701111 0.000000 -0.000000 0.000000 167.191727 20.924725 12.701163 -149.184921 55.281658 -53.667885 99.773376 53.864536 -150.656235 37.132328 -36.915096 25.054750 -18.625429 -18.330042 -117.447739 -23.934502 38.859066 168.063980 42.092796 46.505123 75.255470 135.916473 -17.435326 85.827339
-26.521957 13.619452 14.066403 -168.100586 -68.583458 162.734665 89.109581 65.772308 130.198761 -94.811058 55.529041 47.570160 79.269272 32.316498 30.897776 109.615166 -1.030935 -151.089279 65.922333 14.279387 69.825531 -94.289040 22.634726 40.043720 24.778812 37.351040 118.011368 76.990379 24.521345 101.234680 71.665695 -62.428223 24.317228 131.940643 -58.049408 45.283596 87.486694 -49.622002 -77.371086 100.297646 -55.476948 -146.573044 0.000000 -0.000000 0.000000 167.449051 18.448984 11.248248 -153.913589 54.771820 -58.706268 99.111565 48.240570 -150.361725 33.120316 -37.994064 29.992714 -19.009983 -17.884081 -116.445465 -23.488720 42.005913 169.300537 45.781158 47.335693 78.587646 135.696838 -19.523762 85.512581
-27.048698 17.078058 13.485739 -160.291260 -68.948547 159.143539 93.130623 66.992592 130.179413 -88.929680 54.027328 49.547230 83.008232 33.320942 28.992361 114.444435 0.616257 -152.452454 71.451187 12.258810 71.510246 -90.091057 24.694321 38.186237 29.088305 39.231571 119.806038 82.974556 24.240395 103.469200 74.749825 -64.585228 23.007235 138.356506 -58.511402 41.346188 91.615768 -51.200405 -79.167099 105.086906 -56.939255 -148.606720 0.000000 -0.000000 0.000000 170.138947 18.484818 10.537969 -153.046967 60.496166 -59.049034 92.786644 44.679600 -157.893402 34.396786 -44.754742 31.584164 -18.099890 -19.113932 -115.751381 -25.720242 42.323261 166.028152 47.129025 50.093834 77.636620 136.043655 -19.106583 88.408600
-27.290464 19.332186 12.775118 -153.479599 -69.813370 154.624664 96.327393 68.123085 131.472717 -85.798584 51.384747 50.138859 84.904617 35.267349 28.073368 116.801712 2.937403 -151.699081 74.974892 11.098067 73.952354 -86.392982 33.523296 37.314167 39.718178 36.600761 128.531738 86.960876 18.134090 105.188301 76.480721 -65.767365 22.291304 141.122223 -59.762997 40.636280 92.802864 -51.547832 -79.465187 106.578285 -58.182606 -148.812500 0.000000 -0.000000 0.000000 170.616867 18.922985 10.009780 -154.615646 62.497459 -60.478107 93.843987 45.683815 -156.502060 35.063301 -44.702122 31.506035 -17.656906 -17.282047 -115.975670 -28.324619 43.578819 162.865295 44.529953 53.220135 75.253662 133.533035 -17.222980 91.802681
-26.931137 22.121019 12.181001 -146.037369 -73.014992 150.296753 101.463493 70.985573 135.803894 -82.006561 50.871643 50.726189 88.124939 35.881294 27.710058 120.331490 4.174809 -150.988037 78.533890 15.307627 77.078903 -80.843544 42.453037 38.056168 49.030262 33.796051 135.578690 92.067245 12.560878 105.998947 76.639580 -67.474716 22.540398 142.884460 -61.240425 41.359848 95.197433 -52.424400 -80.959282 108.940842 -60.158798 -149.086304 0.000000 -0.000000 0.000000 171.625336 20.032387 10.578258 -154.924408 63.723404 -60.778522 98.912117 48.306061 -151.513947 36.671257 -42.409546 32.086933 -18.194521 -15.664020 -116.695915 -34.149158 41.955265 157.167923 35.746117 57.194241 67.428749 130.606918 -13.471965 96.574577
-26.218466 25.842474 10.152499 -135.029556 -75.251251 140.916931 108.131378 69.961044 141.440308 -79.497437 48.780907 50.350666 89.054649 37.895290 25.770065 123.346741 6.050416 -150.578430 79.437683 20.332191 77.721748 -77.026085 48.824509 39.207539 54.215828 30.894890 139.469574 94.821449 8.340387 105.979523 75.004532 -69.071213 24.923880 144.430588 -63.299435 42.700748 96.045578 -53.261089 -80.077484 110.413483 -62.836090 -147.953873 0.000000 -0.000000 0.000000 173.251770 20.151009 10.420003 -148.979004 65.327591 -55.697109 99.982338 52.501678 -151.809692 41.719830 -42.125435 28.426790 -18.054539 -12.651320 -117.020897 -36.554447 42.170082 154.175171 29.865761 59.466885 61.274910 129.138763 -11.450204 100.098541
-25.201715 29.067610 8.502400 -125.551338 -76.107880 132.288055 113.762527 68.683067 145.638000 -80.939133 45.021370 46.499676 90.908356 41.470928 26.545963 124.605957 8.853692 -147.875885 80.920891 23.284447 78.637535 -74.986725 59.120102 38.953968 61.352722 25.836954 146.236694 96.491882 1.434588 107.126343 76.835793 -70.873596 23.986376 147.285934 -63.755131 42.227146 98.645699 -53.067459 -81.899406 112.853615 -63.676857 -148.916672 0.000000 -0.000000 0.000000 175.701248 24.277060 11.594890 -133.957596 65.740578 -41.048290 103.121780 64.034637 -151.110199 52.371025 -38.427864 16.612049 -18.062073 -12.146144 -118.476288 -39.367729 39.915611 151.293610 19.028965 60.819080 51.092468 127.135178 -6.945731 102.479599
-24.853596 31.438295 7.685545 -111.228249 -78.782021 118.899933 117.101761 68.915199 147.146790 -78.427345 42.633839 45.868610 90.344856 44.622509 23.646698 128.301804 11.371634 -147.376373 82.506340 32.231815 79.765808 -67.858910 67.811844 42.861526 67.170883 22.205137 149.878067 99.866066 -4.402163 107.869537 75.735558 -70.921135 26.162518 144.153793 -66.465691 47.422115 96.017776 -52.657188 -75.162933 111.832840 -65.493835 -143.543198 0.000000 -0.000000 0.000000 178.774979 18.209612 12.363422 -121.748230 59.696518 -33.686897 99.023376 67.695007 -159.990555 59.498379 -38.592552 11.285316 -16.468790 -11.050226 -119.767151 -42.402905 39.849785 146.508453 24.159470 63.196987 53.388206 128.783875 -10.674916 104.854919
-22.711191 35.441563 5.170615 -95.159737 -80.504562 103.545166 124.788857 67.599480 155.291962 -79.762238 35.761860 41.539474 92.145073 52.894810 25.216822 130.735168 15.132828 -141.802734 80.903145 39.564449 79.665749 -59.766697 72.090569 50.210712 67.747498 19.958586 150.038849 99.817017 -8.301527 105.635719 73.628609 -74.881401 25.889801 151.894775 -69.092453 41.164989 98.429955 -59.024979 -77.139320 116.278397 -70.504044 -146.813171 0.000000 -0.000000 0.000000 -179.026917 21.996462 10.457599 -124.099976 61.470821 -34.799541 123.398254 71.655945 -134.200043 58.506596 -31.983147 12.618232 -18.287216 -6.192741 -118.896263 -41.575726 42.415310 148.751129 17.427927 62.244812 48.419861 125.214775 -7.879425 105.541016
-20.754986 37.898361 2.345083 -76.512985 -81.598137 87.385864 133.078522 65.823616 160.767197 -78.296082 30.972012 37.406017 97.324646 58.234131 27.949953 135.329178 17.158283 -136.990311 82.959030 44.510132 79.379936 -48.889244 74.949188 57.429543 71.815872 17.949705 150.584961 102.786385 -11.299514 105.387886 74.841331 -74.555428 24.971024 153.925171 -70.203339 42.018879 99.015945 -59.925766 -73.590897 119.219284 -71.141228 -145.766861 0.000000 -0.000000 0.000000 -174.571091 20.085375 10.747622 -120.978920 57.464737 -36.121193 143.517731 72.090363 -118.180374 61.561527 -28.383356 12.674711 -15.565994 -5.655102 -119.810532 -40.055531 43.220039 147.020813 25.578848 63.252537 53.324543 127.610611 -10.003013 105.455406
-18.173355 40.773453 -1.960852 -51.046825 -81.562851 66.116737 138.194397 59.952888 161.106842 -74.080040 27.668327 32.766380 106.343208 60.630444 32.108162 141.599625 17.339375 -133.001633 86.604691 50.393162 78.969254 -45.415051 75.156601 55.082249 77.354683 17.236822 150.909698 106.881317 -12.389975 106.111267 76.120987 -72.782600 25.230522 155.841324 -70.464630 45.448380 101.068695 -59.315052 -68.863869 122.852303 -69.881699 -142.610672 0.000000 -0.000000 0.000000 -168.247925 18.506205 11.661002 -120.096176 53.806431 -41.196243 168.621689 67.576729 -98.985771 64.405647 -22.615625 15.285809 -9.397264 -4.365749 -121.511810 -36.338375 46.155830 143.854279 40.853996 65.841354 62.471355 132.110794 -12.922562 106.236435
-15.273636 45.023914 -9.636791 -33.596233 -78.876663 51.079086 145.917603 51.881092 167.561798 -72.605797 20.154970 25.036814 121.550842 69.029083 45.163815 148.746689 18.937969 -125.722992 88.643333 52.478901 79.448196 -60.751549 67.260818 34.984123 77.686920 22.577509 149.386765 107.662277 -7.658974 108.713089 65.783791 -72.060371 38.161919 154.476227 -72.739517 52.194508 97.338287 -60.336594 -58.606754 121.501801 -72.258926 -136.559967 0.000000 -0.000000 0.000000 -162.675034 11.922100 10.686858 -119.834198 47.983681 -47.238762 174.497101 60.589092 -97.327827 66.013756 -19.937840 20.833406 -6.808769 0.879316 -121.527428 -33.984097 49.940372 142.727875 52.126823 64.732361 71.199959 134.631393 -18.084024 105.369560
-11.153814 47.010902 -16.999653 -28.990271 -76.815941 50.754673 152.641800 44.272957 172.094803 -70.999992 17.641773 18.137466 140.116104 68.349731 60.135185 153.099121 17.001505 -121.630043 95.354042 49.261318 81.888504 -69.213066 55.986465 22.355463 78.623199 29.453026 147.636475 108.923775 -0.888892 112.799286 63.145210 -70.376793 42.488586 159.371063 -70.849922 52.264950 101.978462 -61.910706 -58.474037 128.688690 -71.033531 -139.534424 0.000000 -0.000000 0.000000 -158.409592 13.839245 11.349118 -123.735794 52.554829 -52.282600 166.330917 56.832466 -106.390320 65.442863 -22.195969 24.846905 -2.534132 -0.057828 -121.915367 -24.428177 55.066181 145.920181 75.783340 59.905037 86.579231 142.527573 -23.694279 101.072227
-8.920976 48.048096 -18.546158 -26.798265 -77.437988 47.104115 153.852768 45.504337 174.474564 -72.956581 15.584040 16.552713 143.940353 69.946960 66.584595 151.201736 17.609959 -119.651634 97.369202 49.732136 84.406746 -74.993553 55.296917 17.058851 79.500893 29.078838 149.628036 106.650146 -2.344596 115.567291 60.103809 -67.385384 44.367783 153.705353 -72.083313 58.012856 96.012657 -61.618122 -52.391300 121.748642 -70.976158 -133.245316 0.000000 -0.000000 0.000000 -158.754761 13.187289 11.071044 -127.159546 52.401279 -54.477024 164.931396 56.375740 -105.004234 62.743404 -19.909601 24.680672 -1.522540 2.731910 -121.940437 -13.571429 60.766430 155.297348 82.373894 53.236488 92.142067 145.572983 -27.812943 95.492226
-7.849659 48.608574 -16.060915 -21.692135 -76.982521 41.999359 153.832184 44.202011 173.814331 -73.548569 18.504772 14.414006 143.762466 67.984039 66.141968 152.004257 15.185781 -120.305069 97.592278 52.296413 84.428833 -75.106178 57.308067 15.161126 82.170486 28.792919 151.532669 107.981003 -4.136235 117.136925 61.396072 -65.921043 45.010166 147.793655 -73.212807 65.427887 94.006325 -59.123764 -47.190208 117.486252 -71.411934 -127.041275 0.000000 -0.000000 0.000000 -158.260300 7.956697 9.391381 -122.868454 49.125984 -53.662685 162.183304 57.300396 -111.006165 64.722717 -22.753763 24.182940 0.018268 3.224426 -122.465622 -15.778357 62.409542 151.425323 90.277023 51.257633 97.369377 148.013687 -32.032452 96.576233
-5.095893 49.425285 -12.012083 -17.217857 -77.921364 34.482983 151.323959 45.714520 173.051559 -77.927208 20.686453 13.323405 140.378372 65.960632 66.256470 149.127014 13.485555 -120.671005 94.643867 55.563854 83.875542 -78.880249 62.319065 12.998517 83.354195 26.579906 155.292770 106.486542 -7.629905 118.573563 66.669533 -64.113792 41.404480 137.079544 -72.025291 74.235008 93.181381 -54.193588 -46.484524 111.903770 -69.463974 -122.682381 0.000000 -0.000000 0.000000 -161.979202 3.340162 10.243569 -120.779633 45.881989 -51.685085 147.642410 58.492832 -125.732872 63.432297 -28.744127 22.337936 -0.743647 1.195761 -123.372040 -19.975134 60.912968 147.805710 93.858032 48.146912 101.021439 149.732956 -35.101486 96.013206
-4.834999 49.157578 -9.288946 -6.247556 -79.892708 16.751892 149.597839 51.048645 177.230911 -84.249809 19.600225 14.846984 135.871735 68.954910 70.128998 142.688599 14.844173 -119.659233 88.523468 58.619087 83.965744 -86.056839 65.082420 10.835793 79.653786 25.090906 157.278610 101.097336 -10.118862 119.627556 64.064178 -60.100780 41.631378 118.340118 -71.688309 87.160210 84.678017 -49.883816 -43.901440 96.680443 -67.875938 -113.690575 0.000000 -0.000000 0.000000 -169.107315 0.132701 9.865211 -125.152946 41.770168 -51.249107 144.460190 61.728729 -122.553993 56.607208 -26.556921 20.701487 -5.856533 4.233396 -125.002777 -28.739941 62.044231 144.599716 86.740685 50.608372 102.103218 140.802109 -34.884109 99.777855
-4.575231 51.484310 -9.684642 0.379107 -80.667564 -0.744145 146.439636 55.813698 -175.957962 -91.956665 12.707650 17.938982 138.627350 77.125938 83.823639 134.804871 19.935665 -116.546364 80.548431 62.376308 87.101227 -99.307312 64.843224 6.992790 71.588287 25.485325 158.892532 91.179779 -10.545180 121.227470 54.686054 -58.140331 44.460060 99.732185 -72.532745 94.834419 70.171272 -51.191334 -41.128914 80.931252 -68.126152 -107.793686 0.000000 -0.000000 0.000000 -179.800873 -2.132556 8.568065 -136.473572 43.101566 -52.266758 127.395088 62.116344 -125.715057 44.069496 -26.876068 20.422844 -17.641380 6.958066 -125.683899 -45.273060 67.987045 139.532288 84.881584 51.282570 111.516197 126.129158 -38.052708 104.301361
-1.455568 52.854820 -8.258167 10.180606 -78.279678 -13.689046 141.396927 54.851357 -175.629013 -94.683533 11.632336 17.619503 136.664261 73.986397 85.147263 131.424576 18.745426 -115.200127 85.019463 64.529999 97.611252 -107.182251 66.136070 2.091820 70.880066 23.543919 161.356583 88.561607 -12.384510 122.437401 51.588387 -54.088261 46.028538 96.480972 -69.358238 94.371086 69.190292 -48.283276 -46.786129 78.352493 -64.132576 -110.141594 0.000000 -0.000000 0.000000 173.924225 2.458379 11.483019 -147.098999 44.798252 -55.328529 138.329239 60.572094 -108.170685 37.433800 -19.685881 23.176167 -22.022373 7.762285 -127.773659 -56.810558 64.541412 132.726471 74.691971 60.911606 109.164658 116.876488 -30.007046 109.725845
-0.695940 56.810875 -8.370364 -5.468664 -78.304703 -5.791866 121.332932 53.751923 170.613312 -96.938538 9.156820 24.057934 108.590485 78.611183 60.410660 125.815636 22.453463 -119.200958 82.774414 66.791840 104.369720 -114.518501 62.447281 1.622607 63.806698 25.490618 162.498123 82.364708 -10.393903 123.243591 43.893215 -55.080738 50.911438 90.393898 -68.859322 93.172836 63.959492 -49.411217 -49.400482 72.085327 -63.721405 -109.990318 0.000000 -0.000000 0.000000 168.591461 4.298477 13.084929 -147.823593 46.207485 -50.133575 138.362259 64.183769 -102.999336 35.547413 -19.095713 19.414228 -29.414728 5.876589 -127.585037 -64.942261 62.737774 132.908005 68.148567 63.399483 109.615028 109.599312 -29.020872 111.267662
2.681738 60.193115 -7.569377 -20.440825 -79.441879 3.448394 101.732376 48.772392 155.738235 -101.757843 14.214952 27.313530 86.556839 71.500443 42.643253 119.045074 20.503485 -124.006104 81.852554 70.692421 110.210510 -122.697708 61.302341 -0.842386 60.534397 25.277987 165.304718 78.260757 -10.251301 125.195976 43.800251 -55.566559 49.901318 89.110771 -67.501617 89.414536 64.876785 -48.126156 -54.499630 72.909630 -62.249451 -114.681038 0.000000 -0.000000 0.000000 164.951813 4.262632 14.792141 -147.112228 43.550934 -47.336842 144.202042 64.536705 -95.872009 35.774326 -16.730911 18.550686 -31.976269 5.515304 -125.693893 -63.618759 59.615067 139.379272 54.541935 66.608521 101.760124 107.254585 -26.539215 110.032021
3.447888 65.298164 -6.512769 -63.329952 -79.824188 35.119728 75.426292 39.706379 138.147202 -108.976112 35.211536 40.371815 59.364132 48.918602 22.302107 102.150635 13.741087 -139.618454 71.322395 74.456337 111.966339 -130.414612 60.789635 4.590133 49.224884 26.147015 165.011047 67.998772 -9.561446 125.566269 35.943008 -56.218681 55.969608 80.111374 -67.852028 87.618156 59.018436 -47.698856 -58.427711 66.987061 -61.520718 -116.666489 0.000000 -0.000000 0.000000 155.076935 7.315651 16.580477 -145.342224 45.277966 -37.355576 142.947250 74.122620 -91.262512 35.021572 -18.491869 9.560128 -38.634857 -0.078514 -123.960968 -68.536644 59.845345 142.362076 56.903038 63.839333 110.201355 101.769760 -29.623215 109.860832
7.048561 70.341423 -8.142587 -81.704857 -78.538338 50.276569 65.053520 29.393255 129.715134 -104.432755 51.280834 52.210419 55.488113 33.346291 19.516125 96.484390 7.542885 -149.896011 82.829750 78.161057 128.203888 -133.986679 58.174011 3.314183 47.016037 28.037298 166.946106 66.156937 -8.290940 127.560860 35.301018 -58.739204 55.499146 83.026695 -69.325684 81.239693 60.434620 -49.417343 -62.029663 71.637115 -61.208065 -121.734871 0.000000 -0.000000 0.000000 153.473999 8.956491 16.574007 -145.505600 46.174072 -36.678322 144.707443 73.359039 -88.957153 35.293724 -17.775343 11.254167 -39.224712 -2.764575 -121.819817 -67.507736 58.198689 145.621704 54.209743 63.591171 108.708733 102.460175 -29.146412 108.222023
9.348867 75.993645 -8.878117 -96.780739 -79.078934 58.271793 57.864681 24.571112 130.482025 -108.736626 69.911270 56.666576 52.739273 20.553398 25.139727 88.065933 -2.337188 -154.387268 81.184959 82.636482 133.444595 -137.471115 57.009315 7.616530 38.452400 28.921682 164.583633 59.246918 -6.776981 126.686394 30.082087 -59.790180 58.387737 79.394287 -71.442177 78.628578 55.770782 -51.544918 -62.420567 68.584099 -62.057011 -123.330269 0.000000 -0.000000 0.000000 147.668747 10.475779 15.736521 -149.526413 46.500359 -36.119381 147.062149 73.850540 -82.153656 31.947159 -16.116171 10.625668 -43.683159 -3.522830 -120.627289 -65.476341 59.301437 151.759628 49.325130 59.130363 106.714233 101.455093 -31.006699 103.770134
11.407985 79.922310 -8.549410 -98.260124 -79.282173 56.131931 53.491879 23.963799 131.713806 -122.133987 75.495972 45.839294 52.931293 18.436489 30.261578 84.959328 -6.392105 -152.971252 84.332893 83.854843 140.608521 -137.329819 52.525173 11.925657 31.681755 33.503098 162.271957 57.358097 -2.927458 125.093575 25.837425 -59.965202 62.610577 78.311134 -70.530716 77.838257 54.641987 -51.057346 -62.629398 65.035713 -61.653107 -122.740631 0.000000 -0.000000 0.000000 143.415970 10.728079 17.870897 -157.036560 45.167034 -41.054531 140.586136 67.088234 -85.887329 27.462336 -15.106910 16.598156 -46.372730 -1.410330 -121.470024 -63.661434 57.602833 154.776138 43.345352 56.221458 100.237061 103.743095 -30.936956 100.381409
13.865216 85.487991 -7.157375 -101.674500 -80.177269 56.564484 51.464893 27.518381 133.909546 -129.325760 74.898834 42.146652 50.656212 18.265144 31.132597 81.588730 -6.607193 -152.622040 69.212349 83.582832 128.643356 -138.291031 48.843960 15.287202 25.852385 37.223644 159.988602 54.150471 1.134513 124.305702 23.338276 -59.866718 63.215763 76.463745 -69.449074 75.878746 52.815556 -51.032795 -65.280106 62.510567 -61.213326 -124.685310 0.000000 -0.000000 0.000000 139.818558 14.032245 19.300936 -160.770935 48.539047 -38.986465 132.530289 68.722000 -89.318680 23.256254 -16.746490 15.742094 -50.414787 -4.267699 -122.016701 -66.298904 55.568909 155.531708 38.969791 55.619202 98.196480 101.373016 -30.183733 99.645477
16.501118 89.471039 -5.013820 -104.001068 -79.508606 59.251652 51.691196 30.266932 134.398621 -126.594856 67.395699 46.099331 49.038380 22.834917 28.648499 81.470985 -2.059082 -151.570023 59.023697 83.042694 119.456009 -138.897171 49.450848 15.825643 25.481213 39.413742 161.437683 52.601307 2.166531 124.737427 25.088434 -61.478703 59.672890 80.534538 -69.781403 69.625023 53.755665 -53.000870 -69.755646 62.840652 -63.327042 -128.082611 0.000000 -0.000000 0.000000 137.434784 15.732629 17.763651 -166.633377 54.507771 -39.986855 111.490517 69.111046 -106.112930 18.632710 -21.098642 17.834238 -54.431862 -5.417046 -119.512848 -71.129951 53.255531 155.635773 27.765265 61.014763 93.065216 94.501190 -26.170000 102.922249
19.010826 93.717789 -1.667247 -118.036926 -80.991821 63.922935 46.971252 40.384609 139.944519 -140.927444 60.321491 39.933907 41.222507 28.563856 31.655653 72.245941 1.049689 -147.052979 33.799690 78.977631 102.130028 -146.330414 49.731274 19.837931 13.448914 39.174458 158.498474 42.616283 3.204713 122.732780 18.279861 -62.572834 60.368793 72.257088 -70.711479 67.527580 43.671806 -55.885571 -71.041840 53.569592 -65.773338 -130.406815 0.000000 -0.000000 0.000000 127.203644 16.542086 16.211603 -174.907425 57.019901 -38.253166 90.476784 71.229012 -116.032051 7.459175 -24.476706 15.208861 -66.528435 -7.674314 -118.565994 -77.813370 53.183628 159.305176 20.336880 56.764832 94.445808 85.766251 -28.281839 100.026932
21.611818 98.204002 0.929454 -129.294617 -80.554916 74.465515 47.761787 48.028931 143.710678 -141.277283 58.187153 41.858437 40.102230 28.575459 32.076614 70.162643 1.256073 -147.298676 33.377258 67.733963 102.976562 -150.446716 43.685921 18.559669 9.346547 43.602329 156.347977 41.579144 7.656008 123.072937 14.061468 -63.407578 62.156765 72.766075 -69.434471 63.836792 40.546082 -55.249557 -72.818077 50.004719 -64.919991 -131.690735 0.000000 -0.000000 0.000000 122.747528 18.442255 16.117775 174.137177 62.249123 -43.030926 69.630020 67.236496 -130.886322 -1.062361 -29.164143 19.603537 -71.063492 -7.263614 -118.684944 -84.366333 52.369823 157.727631 8.926571 60.674641 87.858490 79.329536 -24.839657 102.451736
23.288210 100.485565 3.851172 -137.827133 -79.379494 80.203232 47.013290 56.190010 146.606873 -141.128708 58.299736 46.308090 35.791397 26.624565 31.428091 65.761612 1.137798 -148.858597 33.297035 55.085640 106.052071 -156.745590 43.720516 15.647283 7.761031 42.152466 157.835480 38.149960 6.348761 123.959480 6.909095 -63.800171 66.873779 66.444359 -69.400223 65.488892 32.411587 -54.535980 -70.655098 42.562210 -63.895588 -130.301712 0.000000 -0.000000 0.000000 115.658630 16.445837 14.660308 160.182114 63.681850 -51.273331 49.217667 60.551876 -143.494324 -12.615094 -34.562370 23.954140 -77.226936 -8.416415 -118.751038 -94.184700 53.377037 153.464066 8.560746 61.297832 92.628761 72.562767 -26.083132 103.456383
26.725424 103.331329 4.873405 -140.440582 -78.757011 79.158600 47.106117 60.252274 150.606964 -148.789246 50.932701 41.197060 35.391430 32.987156 35.861523 62.749523 4.516261 -144.416458 33.215504 51.723408 110.122726 -165.847244 51.786163 8.935377 11.252160 36.336586 166.367126 34.885426 -0.263214 125.874496 3.250692 -65.310608 66.848450 65.343903 -70.420776 60.624363 28.220627 -56.871563 -72.389877 39.964539 -65.524101 -133.808502 0.000000 -0.000000 0.000000 109.162659 17.038593 12.452344 142.355453 66.195763 -62.540886 41.100662 56.219849 -144.331055 -24.057789 -36.719624 30.076492 -84.053062 -8.414248 -118.110512 -100.849083 54.564491 152.840637 3.422758 61.511990 92.141930 67.031792 -25.090038 103.566650
29.277361 106.620171 5.609414 -137.527115 -80.041084 75.179649 46.312111 68.137505 151.036636 -146.766968 49.767700 46.090008 30.318241 34.558445 32.290207 60.275162 6.895960 -146.377167 32.730816 48.944950 111.447632 -171.803345 62.184357 3.624050 12.286272 29.664089 168.645569 33.395905 -7.349619 125.073227 -3.277745 -63.796974 70.504471 57.522625 -71.185165 65.510178 21.043562 -55.934841 -69.178490 31.186722 -65.721710 -128.786453 0.000000 -0.000000 0.000000 104.175125 15.293074 11.231366 131.615295 65.221413 -67.685265 34.013962 55.096539 -145.286682 -31.336853 -35.796047 33.275139 -88.650902 -4.416662 -118.982635 -110.148300 52.865971 149.000061 -21.523111 67.532326 76.949730 57.829914 -17.928520 107.624229
33.652683 107.516563 7.356243 -144.709595 -80.564865 76.293694 43.987617 73.472343 154.147064 -154.062210 49.414776 45.019794 25.175770 37.570251 34.634476 54.488773 7.717394 -145.503357 28.164707 52.339767 113.083656 171.524261 67.950363 -6.728714 9.853164 26.241512 172.793228 27.168673 -12.222299 127.082764 -4.806979 -66.075523 67.328171 51.914711 -73.134514 64.362869 15.188886 -58.947414 -68.623848 27.450241 -68.739632 -131.074387 0.000000 -0.000000 0.000000 98.618614 13.258832 9.491975 126.056877 62.712372 -69.638687 31.284412 55.145752 -142.477554 -37.754604 -34.428555 34.506531 -95.848946 -2.803480 -118.060966 -118.414391 54.901749 147.790237 -24.810602 69.048775 79.878723 50.545574 -18.736322 108.532974
37.265553 110.563606 7.801198 -139.492783 -81.776581 67.463280 42.975945 74.573418 156.564133 -157.323105 41.209484 44.580231 21.997311 47.267612 34.638458 52.907425 14.341919 -141.658325 28.072542 57.218498 116.436966 166.789001 67.293983 -8.034213 5.864838 28.227478 173.453415 22.810520 -11.602363 128.216721 -11.340363 -66.546013 70.616356 47.006756 -74.282738 65.352554 9.129931 -60.880959 -65.858582 21.805235 -70.965477 -128.908478 0.000000 -0.000000 0.000000 95.466019 11.470922 8.650320 122.200226 61.475754 -70.260445 27.095524 53.640579 -141.574631 -42.919189 -34.388359 35.883202 -102.090843 -1.219231 -118.078972 -125.641663 54.884109 146.545502 -32.148594 70.268997 78.143250 44.743305 -18.486897 109.017525
40.354866 112.057152 8.598733 -146.646240 -80.584885 67.523582 29.609919 69.625656 148.560608 -162.308868 34.343193 45.011684 15.125205 52.733093 33.356030 48.345245 18.908512 -139.812836 21.578606 58.756615 116.101631 161.566986 63.716473 -6.854986 -1.300613 29.581482 173.664963 16.108950 -9.977184 129.559723 -19.396152 -66.678284 75.573051 40.026733 -74.386536 66.931152 1.988247 -60.329475 -63.493412 15.850719 -70.387833 -128.073624 0.000000 -0.000000 0.000000 91.176994 10.394356 9.165650 122.639473 60.108479 -65.147598 22.521732 55.736683 -140.679245 -45.971600 -33.122334 32.279995 -107.923424 0.777279 -119.144623 -133.425003 56.474674 145.260666 -37.137054 71.778275 79.595215 37.509007 -19.309338 109.784668
45.654282 114.617744 9.166465 -148.311447 -78.606598 63.123196 20.473276 60.677692 144.525208 -167.209259 25.987156 42.073273 13.819839 61.783489 36.025581 47.623947 24.309471 -134.501648 22.082338 62.016491 121.372025 162.126282 59.353149 -2.395097 -7.920549 31.345596 172.094269 13.411714 -8.712145 129.057999 -31.415386 -67.583656 86.187347 31.532118 -76.512894 70.965027 -8.196936 -60.878475 -55.719700 8.243011 -70.996902 -123.584854 0.000000 -0.000000 0.000000 88.095146 5.206132 11.074821 124.530563 55.503082 -62.329582 20.459682 53.780697 -136.951111 -51.283001 -31.719952 34.812054 -114.967957 1.809598 -121.354774 -144.396744 57.538620 140.160599 -32.259964 71.640732 88.597694 32.855850 -24.467924 110.404953
49.630810 117.234039 9.265447 -152.498474 -75.415382 59.361866 9.066730 48.163570 140.589890 -175.118546 36.737511 41.635796 6.044962 50.520626 35.370739 37.637684 17.928411 -139.464966 12.617987 65.498871 119.565384 159.305542 59.079739 2.438729 -18.342625 31.181173 169.813538 4.512466 -7.749236 129.207886 -43.019600 -66.401772 95.223518 17.322598 -77.225792 79.895569 -14.047953 -59.431087 -55.628857 -2.740525 -69.148666 -118.075310 0.000000 -0.000000 0.000000 81.515785 6.282886 10.746492 121.023468 54.845894 -57.752918 22.376301 60.201130 -130.647476 -52.755810 -25.880398 28.711489 -118.768837 2.368046 -121.584198 -146.891815 59.940163 141.458084 -28.202522 69.279488 98.142487 27.619133 -25.520430 109.850510
